{"type":"FeatureCollection","features":[{"type":"Feature","properties":{"name":"Alabama","density":94.65,"STUSPS":"AL"},"geometry":{"type":"MultiPolygon","coordinates":[[[[-88.05338,30.50699],[-88.04565,30.51331],[-88.04197,30.51738],[-88.03867,30.52041],[-88.0351,30.52197],[-88.03241,30.52145],[-88.02917,30.51965],[-88.02622,30.51661],[-88.02351,30.49257],[-88.02433,30.49077],[-88.02675,30.49111],[-88.04504,30.50119],[-88.05235,30.50559],[-88.05338,30.50699]]],[[[-88.22572,30.32156],[-88.22073,30.32211],[-88.21958,30.32141],[-88.22024,30.32053],[-88.22542,30.31989],[-88.2262,30.32073],[-88.22572,30.32156]]],[[[-88.2619,30.33508],[-88.26038,30.33561],[-88.25914,30.33713],[-88.25876,30.33931],[-88.2577,30.34086],[-88.25794,30.344],[-88.26155,30.34662],[-88.26154,30.34767],[-88.26016,30.34916],[-88.2603,30.35018],[-88.25931,30.35554],[-88.25902,30.36076],[-88.25914,30.36311],[-88.26001,30.36582],[-88.25947,30.36678],[-88.25855,30.36661],[-88.25629,30.36381],[-88.256,30.36091],[-88.25676,30.35474],[-88.25717,30.35255],[-88.25632,30.34648],[-88.25513,30.34218],[-88.25356,30.3373],[-88.25329,30.3348],[-88.25362,30.33101],[-88.25539,30.32623],[-88.25621,30.32512],[-88.25781,30.32555],[-88.25976,30.32763],[-88.26138,30.33288],[-88.2624,30.33422],[-88.2619,30.33508]]],[[[-88.3273,30.22988],[-88.32014,30.23203],[-88.31307,30.23133],[-88.29971,30.23181],[-88.27915,30.23515],[-88.25837,30.2396],[-88.22462,30.24556],[-88.20147,30.25118],[-88.19213,30.25025],[-88.19018,30.25133],[-88.18637,30.2512],[-88.17335,30.25242],[-88.16743,30.25269],[-88.1619,30.2534],[-88.15368,30.25316],[-88.1473,30.2541],[-88.14526,30.25497],[-88.14114,30.25502],[-88.13063,30.26213],[-88.12472,30.27354],[-88.11774,30.27912],[-88.08681,30.25986],[-88.07485,30.24912],[-88.07586,30.24614],[-88.08287,30.24536],[-88.0924,30.2436],[-88.10938,30.24333],[-88.12272,30.24754],[-88.13776,30.24965],[-88.14981,30.24999],[-88.16679,30.24975],[-88.19191,30.24809],[-88.1998,30.24779],[-88.23485,30.24131],[-88.26019,30.23616],[-88.28313,30.23208],[-88.30477,30.22803],[-88.31887,30.22803],[-88.32637,30.22846],[-88.3273,30.22988]]],[[[-88.20006,34.99563],[-88.20082,34.99777],[-88.20199,35.00542],[-88.20296,35.00803],[-88.00003,35.00594],[-87.87797,35.00547],[-87.87774,35.00551],[-87.87263,35.00557],[-87.85353,35.00554],[-87.85189,35.00566],[-87.77359,35.00495],[-87.7676,35.00478],[-87.75889,35.00471],[-87.70949,35.00409],[-87.70232,35.00395],[-87.70054,35.00399],[-87.69683,35.00385],[-87.6714,35.00354],[-87.66412,35.00352],[-87.62502,35.00373],[-87.42861,35.00279],[-87.42154,35.00268],[-87.4174,35.00267],[-87.39131,35.00237],[-87.38107,35.00212],[-87.35928,35.00182],[-87.34925,35.00166],[-87.29918,35.00091],[-87.27001,35.00039],[-87.23054,34.99948],[-87.21668,34.99915],[-87.21076,34.99902],[-87.01117,34.99516],[-87.00001,34.99512],[-86.97441,34.99451],[-86.97261,34.99461],[-86.96712,34.9944],[-86.86215,34.99196],[-86.84979,34.99192],[-86.84647,34.99186],[-86.83637,34.99176],[-86.82066,34.99176],[-86.78365,34.99193],[-86.67762,34.99207],[-86.67436,34.992],[-86.67085,34.992],[-86.65961,34.99179],[-86.64121,34.99174],[-86.60004,34.99124],[-86.58896,34.9912],[-86.57122,34.99101],[-86.55586,34.99097],[-86.52849,34.99068],[-86.4678,34.99069],[-86.43393,34.99108],[-86.3972,34.99166],[-86.31127,34.9911],[-85.82872,34.98817],[-85.82441,34.98814],[-85.60516,34.98468],[-85.59938,34.95177],[-85.59878,34.94492],[-85.59516,34.92417],[-85.58315,34.86037],[-85.56142,34.75008],[-85.55248,34.70832],[-85.55245,34.70814],[-85.54127,34.65678],[-85.54126,34.6567],[-85.53433,34.62508],[-85.52726,34.58868],[-85.51707,34.5426],[-85.51393,34.52519],[-85.51371,34.52417],[-85.51211,34.51825],[-85.50838,34.50121],[-85.50245,34.47453],[-85.50232,34.47395],[-85.47045,34.32824],[-85.45869,34.26944],[-85.45807,34.26574],[-85.45537,34.25285],[-85.45506,34.25069],[-85.42947,34.1251],[-85.42822,34.1144],[-85.42023,34.07228],[-85.40675,34.00231],[-85.40592,34.0001],[-85.39884,33.96413],[-85.37743,33.85605],[-85.36184,33.77395],[-85.36049,33.76796],[-85.3574,33.7501],[-85.31499,33.5359],[-85.314,33.52981],[-85.30444,33.48288],[-85.23238,33.10808],[-85.22326,33.06258],[-85.22187,33.05554],[-85.18874,32.88973],[-85.18474,32.87053],[-85.18413,32.87053],[-85.18491,32.86894],[-85.18489,32.86335],[-85.1844,32.86132],[-85.17935,32.85527],[-85.17713,32.8539],[-85.1701,32.8525],[-85.16806,32.85286],[-85.16676,32.85474],[-85.16432,32.85618],[-85.16231,32.85648],[-85.16109,32.85605],[-85.15984,32.85495],[-85.15588,32.84992],[-85.15426,32.84748],[-85.15339,32.84486],[-85.1535,32.84278],[-85.1539,32.84102],[-85.15458,32.8398],[-85.15743,32.83944],[-85.16058,32.83825],[-85.16465,32.83479],[-85.16802,32.8292],[-85.1641,32.82128],[-85.16608,32.81763],[-85.16794,32.81161],[-85.16214,32.80424],[-85.15191,32.7941],[-85.14577,32.79111],[-85.1419,32.79182],[-85.14056,32.7897],[-85.13929,32.78492],[-85.13467,32.7839],[-85.12993,32.77965],[-85.12622,32.77919],[-85.1236,32.77571],[-85.12219,32.77335],[-85.13088,32.76956],[-85.13439,32.77058],[-85.13738,32.76907],[-85.14057,32.76404],[-85.14257,32.76068],[-85.13958,32.75431],[-85.13658,32.74844],[-85.1322,32.74441],[-85.1276,32.74305],[-85.12409,32.74169],[-85.11855,32.74082],[-85.1148,32.7381],[-85.11333,32.73575],[-85.11317,32.73281],[-85.11504,32.72883],[-85.11734,32.72663],[-85.11884,32.72483],[-85.12084,32.72293],[-85.12274,32.71573],[-85.119,32.71006],[-85.11928,32.70772],[-85.11928,32.70397],[-85.11704,32.69203],[-85.11474,32.68563],[-85.11264,32.68343],[-85.10404,32.67963],[-85.09354,32.66973],[-85.08848,32.65776],[-85.08974,32.65563],[-85.09634,32.65284],[-85.10034,32.65013],[-85.10534,32.64484],[-85.10299,32.64103],[-85.10039,32.63712],[-85.0966,32.63467],[-85.09134,32.63404],[-85.08617,32.63536],[-85.08364,32.63597],[-85.08236,32.63383],[-85.08472,32.63047],[-85.08853,32.62787],[-85.08944,32.62543],[-85.08832,32.62303],[-85.08729,32.62047],[-85.08536,32.61854],[-85.08362,32.6178],[-85.08224,32.61626],[-85.08077,32.61015],[-85.08029,32.60358],[-85.0764,32.59466],[-85.06754,32.57955],[-85.05967,32.57674],[-85.05693,32.57124],[-85.04436,32.55958],[-85.04055,32.55564],[-85.03484,32.552],[-85.03207,32.54543],[-85.02251,32.54292],[-85.02205,32.54004],[-85.02024,32.53475],[-85.01619,32.53113],[-85.01379,32.52611],[-85.0084,32.52488],[-85.0071,32.52387],[-85.00153,32.51474],[-84.99983,32.50434],[-84.99751,32.50073],[-84.99833,32.49414],[-84.99673,32.49234],[-84.99483,32.48604],[-84.99523,32.47524],[-84.99823,32.46984],[-84.99803,32.46174],[-84.99533,32.45324],[-84.99353,32.45074],[-84.98383,32.44564],[-84.97183,32.44284],[-84.96703,32.43534],[-84.96303,32.42424],[-84.96343,32.42254],[-84.97183,32.41624],[-84.97943,32.41224],[-84.9811,32.40283],[-84.9799,32.4001],[-84.97388,32.39522],[-84.96876,32.39301],[-84.96873,32.39146],[-84.97177,32.3906],[-84.97639,32.39102],[-84.97836,32.3905],[-84.98339,32.39176],[-84.98598,32.38967],[-84.98855,32.38408],[-84.98628,32.38034],[-84.97935,32.3807],[-84.97382,32.37987],[-84.97196,32.3777],[-84.97433,32.37458],[-84.97727,32.37384],[-84.98028,32.37439],[-84.98409,32.37352],[-84.9863,32.36967],[-84.98517,32.36706],[-84.98324,32.36512],[-84.98347,32.36319],[-84.98678,32.35906],[-85.00458,32.3452],[-85.0081,32.33668],[-85.0071,32.32836],[-85.00187,32.32202],[-84.98951,32.31932],[-84.93868,32.30071],[-84.9338,32.29826],[-84.92287,32.28533],[-84.91113,32.27695],[-84.90402,32.27375],[-84.89396,32.26585],[-84.89184,32.2634],[-84.88908,32.26091],[-84.88917,32.25923],[-84.8923,32.25827],[-84.89814,32.25861],[-84.90145,32.25742],[-84.90251,32.25523],[-84.90409,32.25084],[-84.90723,32.24905],[-84.9101,32.24833],[-84.91733,32.24905],[-84.92302,32.25082],[-84.92443,32.2498],[-84.92413,32.24565],[-84.92303,32.24455],[-84.92033,32.24405],[-84.91723,32.24595],[-84.91393,32.24515],[-84.91273,32.24335],[-84.91633,32.23655],[-84.92063,32.23395],[-84.92263,32.23175],[-84.92353,32.22975],[-84.92293,32.22475],[-84.92543,32.22155],[-84.92823,32.21985],[-84.93013,32.21905],[-84.93933,32.21795],[-84.94945,32.21851],[-84.95633,32.21785],[-84.96143,32.21805],[-84.96743,32.21935],[-84.97213,32.21825],[-84.97873,32.21255],[-84.98023,32.21005],[-84.98023,32.20775],[-84.97713,32.20575],[-84.97463,32.20365],[-84.97233,32.20355],[-84.96943,32.20445],[-84.96693,32.20445],[-84.96323,32.20225],[-84.96223,32.20005],[-84.96173,32.19865],[-84.96463,32.19515],[-84.96683,32.19395],[-84.97373,32.19155],[-84.99593,32.18485],[-85.00853,32.1819],[-85.01127,32.18049],[-85.01306,32.17911],[-85.01465,32.17688],[-85.02658,32.1661],[-85.03034,32.16173],[-85.03399,32.15635],[-85.04559,32.14376],[-85.04787,32.14203],[-85.05875,32.13602],[-85.06114,32.13406],[-85.06206,32.13249],[-85.06154,32.12967],[-85.05918,32.12515],[-85.05505,32.11367],[-85.05378,32.10768],[-85.04955,32.09536],[-85.04706,32.09043],[-85.04551,32.08687],[-85.04708,32.08435],[-85.05116,32.08253],[-85.05323,32.0806],[-85.05581,32.07444],[-85.05549,32.07266],[-85.05408,32.07021],[-85.05418,32.06799],[-85.05603,32.06305],[-85.05683,32.05976],[-85.05643,32.05806],[-85.05663,32.05416],[-85.05883,32.04666],[-85.05803,32.04376],[-85.05533,32.04058],[-85.05484,32.03881],[-85.05463,32.03669],[-85.05547,32.03422],[-85.05646,32.03182],[-85.05625,32.02834],[-85.05522,32.02721],[-85.0506,32.02391],[-85.04931,32.02269],[-85.05014,32.02109],[-85.05367,32.02066],[-85.05477,32.01741],[-85.05382,32.0135],[-85.05508,32.01071],[-85.06344,32.00414],[-85.06454,32.00249],[-85.06803,31.99336],[-85.06833,31.98676],[-85.07093,31.98166],[-85.06993,31.97836],[-85.06683,31.97476],[-85.06593,31.97246],[-85.06593,31.97116],[-85.06783,31.96736],[-85.07023,31.96566],[-85.07393,31.96416],[-85.08323,31.96246],[-85.08573,31.96076],[-85.08673,31.95916],[-85.08683,31.95776],[-85.08243,31.94536],[-85.07893,31.94146],[-85.07893,31.94016],[-85.08473,31.93736],[-85.08643,31.93596],[-85.09183,31.92886],[-85.09823,31.92626],[-85.09953,31.92526],[-85.10023,31.92406],[-85.10133,31.91866],[-85.10243,31.91736],[-85.10913,31.91436],[-85.11313,31.91186],[-85.11273,31.90986],[-85.10983,31.90806],[-85.10977,31.90414],[-85.11156,31.90125],[-85.11063,31.89686],[-85.11203,31.89476],[-85.11403,31.89336],[-85.11703,31.89286],[-85.12113,31.89326],[-85.13293,31.89306],[-85.13413,31.89216],[-85.13433,31.89146],[-85.13373,31.88956],[-85.13163,31.88676],[-85.12933,31.88246],[-85.12843,31.87966],[-85.12843,31.87756],[-85.12883,31.87636],[-85.13373,31.87006],[-85.13583,31.86246],[-85.13743,31.86066],[-85.14013,31.85876],[-85.14073,31.85746],[-85.14023,31.85526],[-85.13803,31.85126],[-85.13773,31.84586],[-85.13833,31.84416],[-85.14133,31.84106],[-85.14183,31.83926],[-85.13923,31.83416],[-85.13593,31.83046],[-85.13308,31.82867],[-85.13262,31.82683],[-85.13432,31.82461],[-85.13365,31.82231],[-85.13133,31.81756],[-85.13153,31.81306],[-85.13293,31.80806],[-85.13283,31.79886],[-85.13223,31.79516],[-85.13293,31.79236],[-85.13713,31.78836],[-85.14193,31.78196],[-85.14043,31.77966],[-85.13073,31.77226],[-85.12633,31.76886],[-85.12523,31.76706],[-85.12563,31.76446],[-85.12923,31.75866],[-85.12663,31.75246],[-85.12393,31.74756],[-85.11893,31.73266],[-85.11913,31.73096],[-85.12223,31.72276],[-85.12573,31.71886],[-85.12653,31.71676],[-85.12683,31.70896],[-85.12553,31.69496],[-85.12233,31.69127],[-85.11393,31.68687],[-85.11263,31.68517],[-85.10943,31.67747],[-85.09243,31.65997],[-85.08783,31.65787],[-85.08546,31.65703],[-85.08316,31.6564],[-85.07993,31.65529],[-85.07863,31.65331],[-85.07851,31.65169],[-85.0803,31.65077],[-85.08227,31.65037],[-85.08517,31.6441],[-85.08536,31.64219],[-85.08517,31.64075],[-85.0845,31.63903],[-85.08283,31.63797],[-85.08003,31.63687],[-85.07383,31.62957],[-85.06763,31.62527],[-85.06524,31.62435],[-85.05953,31.62172],[-85.05817,31.62023],[-85.05747,31.61862],[-85.05753,31.61688],[-85.05833,31.61455],[-85.06042,31.61127],[-85.06055,31.60822],[-85.0597,31.60726],[-85.05731,31.60671],[-85.05598,31.60518],[-85.0564,31.60096],[-85.05811,31.59334],[-85.05844,31.58369],[-85.05542,31.5787],[-85.05528,31.57709],[-85.05772,31.57306],[-85.05796,31.57084],[-85.05293,31.56289],[-85.05187,31.55787],[-85.05084,31.55555],[-85.0457,31.54871],[-85.04255,31.54595],[-85.04188,31.54468],[-85.0413,31.54099],[-85.04181,31.53775],[-85.04298,31.5352],[-85.0472,31.52867],[-85.04826,31.52601],[-85.04765,31.52375],[-85.04456,31.52091],[-85.04499,31.51823],[-85.04564,31.51681],[-85.04845,31.51368],[-85.05295,31.50652],[-85.05892,31.49599],[-85.06211,31.48802],[-85.06569,31.48412],[-85.07162,31.46838],[-85.06927,31.45347],[-85.0667,31.44729],[-85.06596,31.44298],[-85.06555,31.43954],[-85.06588,31.43059],[-85.06697,31.42859],[-85.06908,31.42762],[-85.07269,31.42828],[-85.07398,31.42718],[-85.07552,31.42476],[-85.07583,31.42151],[-85.07675,31.41597],[-85.07982,31.41173],[-85.07998,31.41047],[-85.07739,31.40284],[-85.07763,31.39888],[-85.07864,31.39636],[-85.0804,31.39393],[-85.08243,31.38454],[-85.08691,31.37447],[-85.09217,31.36458],[-85.09249,31.36288],[-85.09262,31.35747],[-85.09179,31.35521],[-85.09099,31.35443],[-85.08741,31.35443],[-85.08592,31.35315],[-85.08586,31.35019],[-85.08706,31.34032],[-85.08781,31.33798],[-85.08941,31.33603],[-85.08898,31.33429],[-85.08415,31.32831],[-85.08378,31.31821],[-85.08447,31.31619],[-85.0874,31.31122],[-85.08765,31.30868],[-85.08769,31.30405],[-85.08977,31.29503],[-85.09316,31.28969],[-85.09911,31.28417],[-85.11031,31.28173],[-85.11276,31.28004],[-85.1146,31.27733],[-85.11455,31.2763],[-85.11255,31.27438],[-85.1119,31.27248],[-85.11198,31.26799],[-85.11326,31.26434],[-85.11235,31.25958],[-85.11171,31.25802],[-85.10915,31.25461],[-85.10618,31.24808],[-85.10426,31.24187],[-85.10247,31.23786],[-85.10076,31.23481],[-85.09884,31.23252],[-85.09676,31.22565],[-85.09871,31.21951],[-85.0987,31.21129],[-85.09977,31.20975],[-85.10563,31.2046],[-85.10696,31.20269],[-85.10813,31.19564],[-85.10752,31.18645],[-85.1065,31.1853],[-85.10442,31.18565],[-85.10205,31.18473],[-85.09851,31.18015],[-85.09843,31.17777],[-85.10045,31.16673],[-85.10021,31.16549],[-85.09211,31.16029],[-85.08358,31.15963],[-85.0778,31.15789],[-85.07663,31.15693],[-85.07018,31.14868],[-85.06403,31.1425],[-85.06243,31.13952],[-85.06107,31.13423],[-85.05468,31.12082],[-85.05287,31.11949],[-85.05018,31.11892],[-85.04051,31.11158],[-85.03708,31.10975],[-85.03562,31.10819],[-85.03283,31.10057],[-85.02974,31.09616],[-85.02607,31.08418],[-85.02833,31.07685],[-85.02857,31.07458],[-85.01815,31.05925],[-85.01264,31.0554],[-85.01139,31.05355],[-85.00882,31.04557],[-85.00855,31.04282],[-85.00941,31.03238],[-85.00505,31.0247],[-85.00455,31.01918],[-85.00006,31.01498],[-84.99943,31.01384],[-84.99963,31.00908],[-85.00137,31.00504],[-85.0025,31.00068],[-85.02411,31.00068],[-85.03115,31.00065],[-85.05209,31.00059],[-85.05753,31.00059],[-85.14584,31.0007],[-85.15208,31.00089],[-85.15222,31.00083],[-85.24363,31.00088],[-85.49827,30.99693],[-85.74962,30.99529],[-85.74993,30.99484],[-85.89354,30.99347],[-85.99864,30.99287],[-86.03504,30.99332],[-86.05246,30.99325],[-86.05621,30.99313],[-86.11692,30.99292],[-86.16289,30.99368],[-86.16898,30.99371],[-86.1752,30.9938],[-86.18023,30.99401],[-86.23834,30.99437],[-86.25645,30.99385],[-86.28925,30.9938],[-86.3046,30.99403],[-86.36491,30.99445],[-86.37454,30.99447],[-86.38865,30.99418],[-86.39194,30.99417],[-86.40491,30.99405],[-86.4547,30.99379],[-86.45832,30.994],[-86.49995,30.99334],[-86.51283,30.9937],[-86.51994,30.99325],[-86.56344,30.99522],[-86.56759,30.99511],[-86.66468,30.99453],[-86.67838,30.99454],[-86.70626,30.9947],[-86.72538,30.99687],[-86.72729,30.99688],[-86.72839,30.99674],[-86.74524,30.99629],[-86.78592,30.99698],[-86.8305,30.9974],[-86.83193,30.99738],[-86.87299,30.99763],[-86.88814,30.99758],[-86.92781,30.9977],[-86.99848,30.99866],[-87.00436,30.99932],[-87.02711,30.99926],[-87.03637,30.99935],[-87.03999,30.99959],[-87.05374,30.99913],[-87.06406,30.99919],[-87.06863,30.99914],[-87.11887,30.99943],[-87.12497,30.9988],[-87.14075,30.99953],[-87.16261,30.99905],[-87.22475,30.99717],[-87.23768,30.99639],[-87.25498,30.99828],[-87.257,30.99819],[-87.25796,30.99826],[-87.25969,30.99817],[-87.26556,30.99827],[-87.29099,30.99835],[-87.30157,30.99843],[-87.30403,30.99819],[-87.31218,30.99844],[-87.33397,30.99827],[-87.35566,30.99824],[-87.36401,30.99822],[-87.36784,30.99829],[-87.42577,30.99809],[-87.43229,30.9982],[-87.44981,30.99827],[-87.4557,30.99832],[-87.45866,30.99839],[-87.46164,30.9982],[-87.46688,30.99818],[-87.47871,30.99821],[-87.48024,30.9982],[-87.51952,30.99759],[-87.54854,30.99793],[-87.57128,30.99787],[-87.59893,30.99746],[-87.59917,30.99572],[-87.59672,30.98761],[-87.5934,30.98296],[-87.59268,30.98014],[-87.59416,30.97757],[-87.59411,30.97633],[-87.59305,30.97297],[-87.59092,30.96941],[-87.58919,30.96446],[-87.59206,30.95149],[-87.59689,30.94113],[-87.5983,30.93879],[-87.60069,30.93707],[-87.60268,30.93428],[-87.60781,30.92449],[-87.60826,30.9219],[-87.6102,30.91663],[-87.61185,30.91454],[-87.61421,30.90854],[-87.61495,30.90423],[-87.61601,30.90145],[-87.62072,30.89893],[-87.6222,30.89751],[-87.62252,30.89368],[-87.62092,30.88992],[-87.62079,30.88749],[-87.62206,30.88541],[-87.6244,30.8847],[-87.62945,30.88011],[-87.62999,30.87769],[-87.63494,30.86589],[-87.62825,30.86013],[-87.62623,30.85713],[-87.62538,30.85436],[-87.6265,30.85188],[-87.62732,30.84796],[-87.62608,30.84649],[-87.62414,30.84571],[-87.61728,30.84035],[-87.61537,30.83703],[-87.61592,30.83469],[-87.61098,30.83263],[-87.60578,30.8313],[-87.60357,30.82862],[-87.60163,30.82514],[-87.60049,30.82063],[-87.5943,30.81698],[-87.58787,30.81504],[-87.58187,30.8124],[-87.57685,30.80816],[-87.57204,30.80053],[-87.56814,30.79909],[-87.56421,30.79625],[-87.56007,30.79226],[-87.55948,30.79045],[-87.55484,30.78712],[-87.55295,30.78694],[-87.55205,30.78625],[-87.54504,30.77867],[-87.54536,30.7741],[-87.54616,30.77202],[-87.54226,30.7675],[-87.53709,30.76253],[-87.53653,30.76138],[-87.53542,30.75476],[-87.53536,30.74977],[-87.53261,30.74349],[-87.52361,30.73831],[-87.51173,30.73353],[-87.50515,30.72631],[-87.50232,30.72159],[-87.49752,30.72012],[-87.49677,30.72035],[-87.48704,30.7185],[-87.48122,30.71651],[-87.47982,30.71495],[-87.47958,30.71287],[-87.47443,30.70659],[-87.4704,30.70528],[-87.46772,30.70168],[-87.46634,30.70084],[-87.45695,30.69756],[-87.4514,30.69981],[-87.44936,30.69891],[-87.44358,30.6946],[-87.44228,30.69268],[-87.43981,30.69048],[-87.43602,30.68867],[-87.43037,30.68865],[-87.42488,30.68337],[-87.41953,30.67998],[-87.41274,30.67806],[-87.40696,30.67516],[-87.40656,30.67402],[-87.40712,30.6718],[-87.40587,30.66662],[-87.40071,30.65715],[-87.40018,30.65722],[-87.39726,30.65435],[-87.39618,30.65045],[-87.39718,30.64812],[-87.39594,30.64397],[-87.39359,30.63088],[-87.39378,30.62701],[-87.39448,30.62519],[-87.39566,30.62337],[-87.39643,30.61773],[-87.39643,30.61691],[-87.39505,30.6159],[-87.39503,30.61528],[-87.39731,30.60873],[-87.39927,30.60561],[-87.40118,30.6044],[-87.4046,30.60339],[-87.40656,30.59993],[-87.40874,30.5837],[-87.41271,30.57323],[-87.41451,30.57346],[-87.41626,30.57245],[-87.41835,30.57004],[-87.41851,30.56956],[-87.41695,30.568],[-87.41666,30.56631],[-87.41865,30.56184],[-87.42092,30.56067],[-87.42241,30.56044],[-87.4228,30.56138],[-87.42336,30.56142],[-87.42604,30.56007],[-87.42789,30.55416],[-87.43144,30.55026],[-87.43496,30.5496],[-87.43544,30.54914],[-87.44659,30.52707],[-87.44643,30.52031],[-87.44494,30.51494],[-87.44518,30.51398],[-87.4465,30.51357],[-87.44778,30.51191],[-87.4477,30.51046],[-87.44471,30.50749],[-87.44322,30.50678],[-87.43969,30.50665],[-87.43827,30.50536],[-87.43118,30.4958],[-87.43058,30.4911],[-87.43298,30.4849],[-87.43558,30.4805],[-87.43468,30.4792],[-87.43158,30.4777],[-87.43058,30.4766],[-87.42958,30.4706],[-87.42508,30.4656],[-87.41468,30.4573],[-87.40788,30.4564],[-87.40468,30.4529],[-87.39988,30.451],[-87.39688,30.4506],[-87.39198,30.4516],[-87.38118,30.4501],[-87.37077,30.44686],[-87.36868,30.44463],[-87.36694,30.44048],[-87.36659,30.43665],[-87.36819,30.43341],[-87.37117,30.43049],[-87.38208,30.4229],[-87.38638,30.4205],[-87.39568,30.4176],[-87.39878,30.4151],[-87.40178,30.4114],[-87.40348,30.4102],[-87.40888,30.4088],[-87.41318,30.409],[-87.41918,30.4102],[-87.42268,30.4101],[-87.42618,30.4092],[-87.42958,30.4065],[-87.43178,30.4032],[-87.43428,30.3975],[-87.43728,30.3959],[-87.44068,30.3915],[-87.44118,30.3886],[-87.44088,30.3867],[-87.43868,30.3821],[-87.43868,30.3808],[-87.44182,30.3763],[-87.44908,30.3704],[-87.45138,30.3672],[-87.45188,30.365],[-87.45198,30.3603],[-87.45096,30.34626],[-87.45228,30.3441],[-87.45998,30.3363],[-87.46298,30.334],[-87.46488,30.3333],[-87.47558,30.3314],[-87.49188,30.3309],[-87.49998,30.32896],[-87.50257,30.3274],[-87.5047,30.32404],[-87.50594,30.3194],[-87.50578,30.3125],[-87.50468,30.3089],[-87.50278,30.3073],[-87.49488,30.305],[-87.48368,30.3048],[-87.48188,30.306],[-87.47588,30.3079],[-87.46868,30.3082],[-87.46578,30.3076],[-87.46298,30.3078],[-87.45958,30.3083],[-87.45558,30.3102],[-87.45008,30.3111],[-87.45238,30.3002],[-87.49998,30.2879],[-87.50548,30.2871],[-87.51838,30.2839],[-87.51832,30.28044],[-87.54392,30.27481],[-87.55867,30.2713],[-87.56504,30.27174],[-87.57407,30.27088],[-87.58136,30.26926],[-87.64164,30.25454],[-87.65998,30.25059],[-87.68181,30.24826],[-87.7027,30.24484],[-87.73553,30.24068],[-87.80056,30.22937],[-87.83846,30.22718],[-87.92612,30.23037],[-87.96225,30.22952],[-88.0,30.22575],[-88.01361,30.22349],[-88.02136,30.22333],[-88.02768,30.22365],[-88.02858,30.22676],[-88.02399,30.23039],[-88.01173,30.23245],[-87.96685,30.23562],[-87.94898,30.25656],[-87.93604,30.26147],[-87.91825,30.25331],[-87.91376,30.24784],[-87.90046,30.24153],[-87.8932,30.23924],[-87.87934,30.23859],[-87.86008,30.24029],[-87.81774,30.25429],[-87.80209,30.25305],[-87.78775,30.25424],[-87.768,30.26245],[-87.75596,30.27766],[-87.75232,30.28158],[-87.74717,30.28777],[-87.74721,30.29085],[-87.75028,30.2924],[-87.75614,30.29233],[-87.77276,30.3117],[-87.79672,30.3242],[-87.80927,30.3327],[-87.82988,30.35381],[-87.83454,30.36142],[-87.83748,30.36814],[-87.83774,30.37055],[-87.83735,30.3718],[-87.83711,30.37509],[-87.83737,30.37633],[-87.83961,30.37723],[-87.84386,30.37817],[-87.84938,30.37807],[-87.85381,30.37848],[-87.86502,30.38345],[-87.90634,30.40938],[-87.90891,30.41424],[-87.91414,30.44614],[-87.92003,30.47065],[-87.92128,30.47385],[-87.92516,30.47743],[-87.93203,30.48165],[-87.93697,30.4831],[-87.93372,30.4868],[-87.92656,30.49672],[-87.92503,30.50302],[-87.92172,30.50924],[-87.92152,30.51137],[-87.9206,30.51289],[-87.91595,30.51752],[-87.91114,30.52585],[-87.90534,30.53757],[-87.90171,30.55088],[-87.90417,30.56599],[-87.90789,30.57311],[-87.91143,30.57626],[-87.91496,30.58589],[-87.91253,30.61579],[-87.91398,30.62009],[-87.91775,30.62414],[-87.92144,30.62689],[-87.92133,30.62938],[-87.91857,30.63073],[-87.91935,30.63606],[-87.92466,30.64154],[-87.92538,30.64889],[-87.92984,30.65034],[-87.93107,30.65269],[-87.9317,30.65436],[-87.93672,30.65743],[-87.95599,30.65886],[-87.98556,30.67751],[-87.99058,30.67806],[-88.0069,30.68208],[-88.01141,30.68513],[-88.02011,30.67567],[-88.0218,30.66862],[-88.02398,30.66001],[-88.02604,30.65856],[-88.02919,30.65904],[-88.03459,30.65371],[-88.03841,30.6479],[-88.04472,30.64992],[-88.05165,30.64652],[-88.05807,30.64554],[-88.06188,30.64359],[-88.05968,30.6402],[-88.05601,30.63755],[-88.05469,30.63376],[-88.05851,30.62997],[-88.06029,30.62656],[-88.0596,30.61909],[-88.054,30.61249],[-88.05905,30.60829],[-88.0591,30.60396],[-88.0612,30.5965],[-88.0649,30.58829],[-88.0749,30.57889],[-88.08311,30.57284],[-88.08562,30.56992],[-88.08765,30.56439],[-88.08549,30.56326],[-88.08162,30.54632],[-88.08279,30.52871],[-88.09073,30.52357],[-88.10087,30.50975],[-88.10377,30.5009],[-88.10299,30.49303],[-88.09687,30.47105],[-88.10065,30.46122],[-88.10644,30.45274],[-88.10407,30.4273],[-88.10727,30.37725],[-88.11543,30.35657],[-88.12461,30.34162],[-88.12805,30.33851],[-88.13139,30.33431],[-88.13447,30.32786],[-88.13727,30.32005],[-88.13827,30.31326],[-88.13904,30.31279],[-88.13998,30.31322],[-88.14468,30.3212],[-88.14539,30.32434],[-88.14452,30.32686],[-88.14632,30.33099],[-88.15209,30.33049],[-88.15625,30.32757],[-88.17339,30.326],[-88.19158,30.31868],[-88.19566,30.32124],[-88.19556,30.32382],[-88.19322,30.32604],[-88.19404,30.33047],[-88.19578,30.33271],[-88.19661,30.33743],[-88.19836,30.33882],[-88.19635,30.34359],[-88.18853,30.34505],[-88.18853,30.34812],[-88.18718,30.35262],[-88.18802,30.35619],[-88.18786,30.35883],[-88.1871,30.3627],[-88.19366,30.36332],[-88.19626,30.36348],[-88.20006,30.36238],[-88.20449,30.3621],[-88.20923,30.36002],[-88.21407,30.36556],[-88.21646,30.3676],[-88.22454,30.37131],[-88.23089,30.37163],[-88.23447,30.37171],[-88.23875,30.37351],[-88.23996,30.3749],[-88.26069,30.38238],[-88.26564,30.38109],[-88.26753,30.38108],[-88.2708,30.38145],[-88.28263,30.38288],[-88.28739,30.38425],[-88.28811,30.38733],[-88.29227,30.38733],[-88.29987,30.38558],[-88.30355,30.37923],[-88.30332,30.37318],[-88.30474,30.37133],[-88.31152,30.37021],[-88.31461,30.37144],[-88.31223,30.37656],[-88.31484,30.38446],[-88.31508,30.39163],[-88.32114,30.39635],[-88.32613,30.39778],[-88.33196,30.40117],[-88.33802,30.40475],[-88.34373,30.40199],[-88.35002,30.40506],[-88.35736,30.40662],[-88.3605,30.40324],[-88.35961,30.40039],[-88.36402,30.38801],[-88.37467,30.38561],[-88.39502,30.36942],[-88.40228,30.51085],[-88.40355,30.5331],[-88.40393,30.54336],[-88.40401,30.54506],[-88.40748,30.62274],[-88.40746,30.63165],[-88.40807,30.63697],[-88.40957,30.66873],[-88.41134,30.70633],[-88.41155,30.71296],[-88.41227,30.73177],[-88.41863,30.86653],[-88.41956,30.87519],[-88.42573,31.00018],[-88.42581,31.00112],[-88.43201,31.1143],[-88.4381,31.23006],[-88.43821,31.23125],[-88.43898,31.2469],[-88.43878,31.25265],[-88.44518,31.35585],[-88.44521,31.35597],[-88.44869,31.42089],[-88.44866,31.42128],[-88.45104,31.45945],[-88.45158,31.48153],[-88.45301,31.50016],[-88.45948,31.62165],[-88.45972,31.624],[-88.46443,31.69788],[-88.46511,31.72231],[-88.46867,31.79072],[-88.47111,31.85095],[-88.47121,31.85139],[-88.47264,31.87515],[-88.47323,31.89386],[-88.46888,31.93026],[-88.46866,31.93317],[-88.45504,32.03972],[-88.45496,32.04058],[-88.43871,32.17208],[-88.43865,32.17281],[-88.42828,32.25014],[-88.42145,32.30868],[-88.41382,32.37392],[-88.4125,32.38003],[-88.40379,32.44977],[-88.40379,32.44989],[-88.39997,32.48542],[-88.38304,32.62668],[-88.38299,32.62695],[-88.37334,32.71182],[-88.36835,32.74766],[-88.35429,32.87513],[-88.34043,32.9912],[-88.33093,33.07312],[-88.31713,33.18412],[-88.31524,33.20332],[-88.31253,33.22092],[-88.27742,33.51244],[-88.2768,33.51646],[-88.27462,33.53401],[-88.27005,33.57082],[-88.26953,33.57289],[-88.26816,33.58504],[-88.26715,33.59199],[-88.267,33.59423],[-88.25634,33.68205],[-88.25613,33.68286],[-88.25462,33.69578],[-88.25445,33.69878],[-88.25226,33.71957],[-88.24414,33.78167],[-88.24303,33.79568],[-88.24005,33.81088],[-88.23549,33.8472],[-88.22652,33.91155],[-88.22643,33.91287],[-88.21074,34.0292],[-88.20723,34.05833],[-88.2002,34.11595],[-88.19213,34.17535],[-88.19068,34.19012],[-88.18762,34.20478],[-88.18667,34.22095],[-88.17689,34.29386],[-88.17587,34.30217],[-88.17363,34.32105],[-88.16591,34.38093],[-88.16563,34.3831],[-88.15629,34.46321],[-88.13999,34.5817],[-88.13925,34.58779],[-88.13872,34.58922],[-88.13426,34.62266],[-88.11841,34.72429],[-88.11642,34.7463],[-88.10756,34.81163],[-88.09789,34.8922],[-88.1,34.8941],[-88.12504,34.90223],[-88.13669,34.90759],[-88.13972,34.90963],[-88.14633,34.91437],[-88.15462,34.92239],[-88.16159,34.93346],[-88.1721,34.95521],[-88.17611,34.96252],[-88.17997,34.96747],[-88.18743,34.97491],[-88.19881,34.99119],[-88.20006,34.99563]]]]}}]}