{"type":"FeatureCollection","features":[{"type":"Feature","properties":{"name":"Georgia","density":169.5,"STUSPS":"GA"},"geometry":{"type":"MultiPolygon","coordinates":[[[[-81.27939,31.30792],[-81.27716,31.31122],[-81.27371,31.31173],[-81.27066,31.31052],[-81.27188,31.3041],[-81.27655,31.30567],[-81.27939,31.30584],[-81.27939,31.30792]]],[[[-85.60516,34.98468],[-85.46671,34.98297],[-85.38497,34.98299],[-85.36392,34.98338],[-85.30826,34.98438],[-85.30546,34.98448],[-85.30149,34.98448],[-85.2945,34.98465],[-85.27756,34.98497],[-85.27586,34.98497],[-85.25495,34.98517],[-85.23556,34.98548],[-85.22185,34.98548],[-85.22055,34.98557],[-85.21655,34.98568],[-85.18591,34.986],[-85.18055,34.98607],[-85.04518,34.98688],[-85.04505,34.98686],[-84.97986,34.98765],[-84.95562,34.98783],[-84.94442,34.98786],[-84.93931,34.98792],[-84.86131,34.98779],[-84.85803,34.98775],[-84.8318,34.988],[-84.82401,34.98771],[-84.82048,34.98791],[-84.81728,34.98775],[-84.81074,34.98761],[-84.80813,34.98759],[-84.73102,34.98809],[-84.72743,34.98802],[-84.62493,34.98798],[-84.62148,34.98833],[-84.50989,34.98801],[-84.50905,34.98803],[-84.3949,34.98803],[-84.39393,34.98807],[-84.32187,34.98841],[-84.12955,34.9875],[-84.02995,34.98732],[-84.02136,34.98743],[-83.93665,34.98748],[-83.8311,34.98729],[-83.74989,34.98769],[-83.61998,34.98659],[-83.62019,34.99209],[-83.54938,34.99249],[-83.32277,34.99587],[-83.19041,34.99946],[-83.11315,35.00124],[-83.10956,35.0012],[-83.10287,34.99726],[-83.10252,34.9953],[-83.10359,34.99384],[-83.09883,34.99195],[-83.09838,34.99112],[-83.09897,34.9901],[-83.10134,34.98994],[-83.10286,34.98871],[-83.10168,34.98658],[-83.10338,34.98609],[-83.10712,34.98323],[-83.10577,34.9815],[-83.10843,34.97968],[-83.11002,34.98063],[-83.11128,34.981],[-83.1121,34.9794],[-83.11086,34.97631],[-83.1118,34.97553],[-83.11563,34.97581],[-83.11662,34.97532],[-83.1154,34.97364],[-83.12039,34.96841],[-83.12211,34.96433],[-83.12162,34.96277],[-83.11593,34.96031],[-83.11592,34.95914],[-83.12011,34.95917],[-83.12003,34.95748],[-83.11469,34.95266],[-83.11402,34.95091],[-83.11492,34.95043],[-83.11805,34.95296],[-83.12035,34.95319],[-83.12453,34.95504],[-83.12659,34.95486],[-83.12704,34.95378],[-83.12485,34.95143],[-83.12756,34.94948],[-83.12388,34.94605],[-83.12157,34.94252],[-83.11693,34.94273],[-83.11173,34.93586],[-83.1128,34.93472],[-83.11807,34.93595],[-83.11909,34.93318],[-83.12082,34.93305],[-83.12662,34.93826],[-83.12759,34.93849],[-83.13165,34.93588],[-83.13179,34.93534],[-83.12989,34.93235],[-83.13055,34.93093],[-83.14062,34.92491],[-83.14326,34.92476],[-83.15623,34.93098],[-83.15919,34.92883],[-83.15771,34.92351],[-83.15802,34.92012],[-83.15645,34.91706],[-83.15721,34.91493],[-83.16068,34.91514],[-83.16556,34.91943],[-83.16909,34.91878],[-83.17185,34.91365],[-83.17509,34.91008],[-83.18079,34.90961],[-83.18087,34.90471],[-83.18928,34.89726],[-83.19165,34.89688],[-83.19437,34.89957],[-83.19757,34.89502],[-83.19729,34.89265],[-83.19678,34.89073],[-83.1986,34.89039],[-83.19936,34.89257],[-83.20307,34.89386],[-83.20479,34.89075],[-83.20102,34.88479],[-83.20625,34.87968],[-83.20998,34.88004],[-83.21199,34.88237],[-83.21472,34.88384],[-83.21275,34.88786],[-83.21448,34.88847],[-83.21751,34.88567],[-83.21742,34.88238],[-83.21829,34.8817],[-83.21989,34.88111],[-83.2194,34.87877],[-83.21994,34.87811],[-83.22874,34.8797],[-83.23202,34.87794],[-83.23579,34.8779],[-83.23993,34.87888],[-83.24313,34.87739],[-83.24046,34.87272],[-83.2347,34.87074],[-83.23788,34.86888],[-83.23861,34.86545],[-83.24325,34.86603],[-83.24672,34.867],[-83.24805,34.86312],[-83.24634,34.86003],[-83.24828,34.85846],[-83.24636,34.85653],[-83.24693,34.85501],[-83.25332,34.85592],[-83.25258,34.85168],[-83.25376,34.84806],[-83.24859,34.84607],[-83.25016,34.8446],[-83.25569,34.84415],[-83.26055,34.84522],[-83.26089,34.84822],[-83.26631,34.84904],[-83.26877,34.84454],[-83.27243,34.83472],[-83.26734,34.83237],[-83.2678,34.82614],[-83.26964,34.82336],[-83.26832,34.82113],[-83.2718,34.81804],[-83.27669,34.81689],[-83.28227,34.82024],[-83.28481,34.82304],[-83.28865,34.82467],[-83.29108,34.82319],[-83.28996,34.81846],[-83.29472,34.81573],[-83.29465,34.8136],[-83.29605,34.81311],[-83.30001,34.81525],[-83.29899,34.81755],[-83.30057,34.81866],[-83.30313,34.81874],[-83.30666,34.81485],[-83.30424,34.81102],[-83.2998,34.81006],[-83.29976,34.80788],[-83.30118,34.80401],[-83.30322,34.80221],[-83.31378,34.79991],[-83.31383,34.79683],[-83.32052,34.79304],[-83.32034,34.79068],[-83.32387,34.78971],[-83.32415,34.78748],[-83.32121,34.77904],[-83.32266,34.77762],[-83.31898,34.77131],[-83.32298,34.76609],[-83.31932,34.76487],[-83.32321,34.76058],[-83.31894,34.75833],[-83.31974,34.75701],[-83.3259,34.75647],[-83.32719,34.7546],[-83.32631,34.75084],[-83.33242,34.74899],[-83.33272,34.7461],[-83.33869,34.74207],[-83.33897,34.73844],[-83.34544,34.73845],[-83.34907,34.73663],[-83.35043,34.73269],[-83.35342,34.72842],[-83.3528,34.71744],[-83.35101,34.71264],[-83.34979,34.70827],[-83.34665,34.70422],[-83.3479,34.70293],[-83.35185,34.7017],[-83.35391,34.69922],[-83.35294,34.69706],[-83.34315,34.69395],[-83.34013,34.69148],[-83.33863,34.68895],[-83.33823,34.68719],[-83.34262,34.68299],[-83.34137,34.68136],[-83.3389,34.68004],[-83.33028,34.68134],[-83.32534,34.67952],[-83.32146,34.67754],[-83.31852,34.67477],[-83.31686,34.66987],[-83.31439,34.66894],[-83.30892,34.67027],[-83.30464,34.66956],[-83.30148,34.66658],[-83.30121,34.66326],[-83.29318,34.6543],[-83.28468,34.6502],[-83.28208,34.6497],[-83.27943,34.64787],[-83.27852,34.64538],[-83.27088,34.6416],[-83.26228,34.6403],[-83.25448,34.6371],[-83.25178,34.6338],[-83.24768,34.6309],[-83.24648,34.6269],[-83.24067,34.62451],[-83.24348,34.6182],[-83.23821,34.61574],[-83.23134,34.61119],[-83.22724,34.61114],[-83.22334,34.60955],[-83.2164,34.61101],[-83.20883,34.61071],[-83.19908,34.608],[-83.19698,34.606],[-83.19738,34.6032],[-83.19518,34.6034],[-83.18648,34.6066],[-83.18078,34.6075],[-83.16968,34.6074],[-83.16428,34.6044],[-83.15995,34.60346],[-83.15908,34.6022],[-83.16069,34.59947],[-83.16428,34.6009],[-83.17008,34.5996],[-83.17028,34.5924],[-83.16828,34.591],[-83.15888,34.5896],[-83.15458,34.5882],[-83.15454,34.58694],[-83.15778,34.5838],[-83.15918,34.581],[-83.15868,34.579],[-83.15368,34.5787],[-83.14318,34.5734],[-83.13988,34.568],[-83.14051,34.56239],[-83.13338,34.5595],[-83.12968,34.5617],[-83.12718,34.562],[-83.1229,34.56013],[-83.12205,34.55803],[-83.12426,34.555],[-83.12189,34.55234],[-83.11721,34.55254],[-83.11025,34.54706],[-83.11051,34.54511],[-83.10862,34.54154],[-83.10497,34.54094],[-83.10345,34.53862],[-83.10285,34.53257],[-83.09686,34.53152],[-83.09256,34.53294],[-83.08486,34.53097],[-83.07793,34.52477],[-83.07778,34.52406],[-83.08178,34.52174],[-83.08686,34.5178],[-83.08719,34.51594],[-83.07984,34.51445],[-83.07842,34.51308],[-83.07737,34.50922],[-83.074,34.50547],[-83.06945,34.50213],[-83.0658,34.50104],[-83.05784,34.50371],[-83.05446,34.50289],[-83.0531,34.50132],[-83.05348,34.49726],[-83.05286,34.49533],[-83.05102,34.49353],[-83.04877,34.4936],[-83.04524,34.49118],[-83.04358,34.48909],[-83.03336,34.48309],[-83.02931,34.48415],[-83.01526,34.47778],[-82.9992,34.47245],[-82.99509,34.47248],[-82.99528,34.47565],[-82.99267,34.47907],[-82.97975,34.48294],[-82.9774,34.48175],[-82.97492,34.47935],[-82.96645,34.48235],[-82.96424,34.48457],[-82.96324,34.48436],[-82.95855,34.47955],[-82.95571,34.4789],[-82.94823,34.48049],[-82.94781,34.48207],[-82.94399,34.48551],[-82.93716,34.48638],[-82.93082,34.48565],[-82.92616,34.48165],[-82.92074,34.48234],[-82.91774,34.48417],[-82.90155,34.48676],[-82.89259,34.48119],[-82.8874,34.48096],[-82.88079,34.47189],[-82.88117,34.46948],[-82.87387,34.46447],[-82.87185,34.46119],[-82.86535,34.46032],[-82.85884,34.45522],[-82.86012,34.45284],[-82.85683,34.44342],[-82.85548,34.44166],[-82.85401,34.42882],[-82.84963,34.42568],[-82.84691,34.41938],[-82.84803,34.41833],[-82.84745,34.41205],[-82.84145,34.39897],[-82.842,34.3925],[-82.84136,34.39014],[-82.83667,34.38314],[-82.83598,34.38091],[-82.83521,34.37172],[-82.83481,34.3663],[-82.83332,34.36395],[-82.82673,34.36053],[-82.82491,34.36041],[-82.81564,34.35391],[-82.81377,34.35393],[-82.81285,34.35183],[-82.79875,34.3419],[-82.7947,34.34058],[-82.79354,34.3383],[-82.79124,34.33105],[-82.79206,34.32676],[-82.79017,34.32211],[-82.78724,34.31078],[-82.78177,34.30241],[-82.78181,34.29792],[-82.77169,34.28633],[-82.76608,34.28207],[-82.76233,34.28195],[-82.76111,34.2804],[-82.75391,34.27545],[-82.75064,34.27113],[-82.74666,34.26641],[-82.74854,34.2641],[-82.74771,34.2607],[-82.74582,34.25836],[-82.74557,34.25407],[-82.743,34.25138],[-82.74309,34.24798],[-82.74472,34.24631],[-82.74443,34.242],[-82.74349,34.23989],[-82.74208,34.22896],[-82.74435,34.22592],[-82.744,34.22441],[-82.7405,34.22001],[-82.74036,34.21863],[-82.74238,34.21377],[-82.74165,34.20971],[-82.73254,34.19452],[-82.7317,34.19073],[-82.73219,34.18135],[-82.73177,34.17804],[-82.73041,34.17533],[-82.72541,34.16977],[-82.72331,34.16589],[-82.71746,34.15055],[-82.71533,34.1482],[-82.70414,34.14101],[-82.69976,34.13932],[-82.69553,34.13882],[-82.69215,34.13899],[-82.69039,34.13829],[-82.68629,34.13445],[-82.67873,34.13239],[-82.67522,34.12978],[-82.66828,34.11978],[-82.66688,34.11359],[-82.66185,34.10775],[-82.66032,34.1069],[-82.65885,34.10396],[-82.65603,34.10253],[-82.65423,34.10063],[-82.64883,34.09913],[-82.64164,34.09209],[-82.64026,34.08654],[-82.64318,34.08095],[-82.64522,34.07905],[-82.64566,34.07605],[-82.64376,34.07231],[-82.64052,34.06788],[-82.63544,34.06509],[-82.63399,34.06496],[-82.63097,34.06553],[-82.62696,34.06346],[-82.62464,34.06026],[-82.62141,34.05802],[-82.62038,34.05392],[-82.61916,34.05132],[-82.61293,34.04678],[-82.61061,34.04146],[-82.60741,34.03807],[-82.60018,34.03298],[-82.59601,34.03093],[-82.59419,34.02887],[-82.59379,34.02674],[-82.59553,34.02048],[-82.5955,34.01586],[-82.59267,34.01037],[-82.58855,33.99977],[-82.58623,33.99715],[-82.58339,33.99529],[-82.57625,33.99301],[-82.57525,33.99143],[-82.57588,33.98995],[-82.57961,33.98726],[-82.58057,33.98514],[-82.58046,33.98213],[-82.57885,33.97863],[-82.57667,33.9759],[-82.57416,33.97355],[-82.56908,33.96989],[-82.5662,33.96477],[-82.5657,33.95868],[-82.56458,33.95581],[-82.55684,33.94535],[-82.5545,33.94382],[-82.54313,33.94095],[-82.53977,33.94155],[-82.53411,33.94365],[-82.52674,33.94376],[-82.52451,33.94336],[-82.51295,33.93697],[-82.50764,33.93146],[-82.50358,33.92605],[-82.49611,33.91346],[-82.49293,33.90975],[-82.48011,33.9019],[-82.46991,33.89284],[-82.45939,33.88639],[-82.45511,33.88165],[-82.44811,33.87754],[-82.4405,33.87512],[-82.43864,33.87392],[-82.4335,33.86901],[-82.42916,33.86584],[-82.42489,33.86413],[-82.42062,33.86375],[-82.40835,33.86632],[-82.40559,33.86602],[-82.4022,33.86466],[-82.39574,33.85909],[-82.39053,33.85716],[-82.38497,33.85443],[-82.37977,33.8511],[-82.3733,33.84475],[-82.36878,33.84231],[-82.35119,33.83614],[-82.3462,33.83383],[-82.33783,33.82716],[-82.32448,33.82003],[-82.32189,33.81678],[-82.31435,33.81111],[-82.31244,33.80716],[-82.30345,33.80326],[-82.30021,33.80063],[-82.29928,33.79894],[-82.29886,33.79317],[-82.2996,33.78648],[-82.29901,33.78448],[-82.29748,33.78297],[-82.29498,33.78187],[-82.29247,33.78241],[-82.28865,33.78164],[-82.28409,33.77878],[-82.27768,33.77203],[-82.27044,33.76791],[-82.26772,33.76765],[-82.26502,33.76574],[-82.26404,33.76284],[-82.26004,33.76043],[-82.25559,33.75988],[-82.24747,33.75259],[-82.24541,33.74293],[-82.24324,33.74012],[-82.2391,33.73087],[-82.2395,33.72933],[-82.23876,33.72521],[-82.23731,33.72189],[-82.23575,33.71439],[-82.23719,33.70788],[-82.2354,33.70438],[-82.23458,33.70022],[-82.22568,33.69143],[-82.21865,33.6863],[-82.21712,33.68434],[-82.21317,33.67721],[-82.21083,33.6706],[-82.2098,33.66928],[-82.19985,33.66176],[-82.19975,33.65761],[-82.20119,33.6469],[-82.19658,33.63058],[-82.18914,33.62372],[-82.17985,33.61595],[-82.17617,33.61377],[-82.15833,33.60971],[-82.15629,33.60863],[-82.15336,33.60632],[-82.15106,33.60096],[-82.14882,33.59809],[-82.14287,33.59428],[-82.13352,33.59054],[-82.12908,33.58993],[-82.12586,33.59074],[-82.12038,33.59488],[-82.11581,33.5966],[-82.10938,33.59658],[-82.10624,33.59564],[-82.09882,33.58636],[-82.09635,33.58407],[-82.09413,33.58274],[-82.08749,33.58061],[-82.0731,33.57751],[-82.06904,33.57538],[-82.05773,33.56677],[-82.05494,33.56538],[-82.04896,33.56487],[-82.04633,33.56383],[-82.03737,33.55466],[-82.0349,33.54916],[-82.03302,33.54645],[-82.02824,33.54493],[-82.02344,33.54073],[-82.02344,33.53793],[-82.01984,33.53504],[-82.01154,33.53173],[-82.01004,33.53043],[-82.00764,33.52334],[-82.00714,33.52284],[-82.00434,33.52193],[-82.00134,33.52014],[-81.99194,33.50444],[-81.99038,33.50076],[-81.99094,33.49424],[-81.98934,33.49004],[-81.98594,33.48654],[-81.98064,33.48404],[-81.97354,33.48264],[-81.96704,33.48064],[-81.94644,33.47174],[-81.94174,33.47004],[-81.93414,33.46834],[-81.92944,33.46584],[-81.92634,33.46294],[-81.91944,33.4491],[-81.91481,33.4435],[-81.91353,33.44127],[-81.91313,33.43833],[-81.91428,33.4353],[-81.91697,33.43259],[-81.92072,33.43099],[-81.92833,33.42991],[-81.9308,33.42903],[-81.93231,33.42659],[-81.93174,33.42451],[-81.92489,33.41931],[-81.92107,33.41742],[-81.91076,33.41504],[-81.90963,33.4126],[-81.9105,33.41031],[-81.91237,33.40809],[-81.91775,33.4072],[-81.92128,33.4086],[-81.92386,33.41046],[-81.92477,33.41242],[-81.92945,33.40776],[-81.93139,33.40696],[-81.93477,33.4068],[-81.94078,33.40874],[-81.94315,33.40903],[-81.94489,33.40796],[-81.94563,33.40584],[-81.94448,33.40367],[-81.93811,33.39993],[-81.93509,33.39724],[-81.93086,33.38008],[-81.92484,33.37414],[-81.92574,33.37114],[-81.93063,33.36816],[-81.93464,33.36894],[-81.93964,33.37254],[-81.94374,33.37234],[-81.94634,33.37064],[-81.94674,33.36734],[-81.94474,33.36404],[-81.93531,33.35679],[-81.93481,33.35376],[-81.93984,33.34774],[-81.93974,33.34494],[-81.93724,33.34364],[-81.93274,33.34354],[-81.92682,33.34528],[-81.92346,33.3449],[-81.91928,33.34034],[-81.91494,33.34374],[-81.91303,33.34689],[-81.91017,33.34701],[-81.90893,33.34627],[-81.90844,33.34384],[-81.91014,33.34234],[-81.91424,33.34184],[-81.91551,33.34078],[-81.91634,33.33864],[-81.91893,33.33496],[-81.91884,33.33344],[-81.90814,33.32714],[-81.90914,33.32394],[-81.91294,33.32174],[-81.91374,33.32004],[-81.91214,33.31914],[-81.90909,33.31998],[-81.90613,33.32162],[-81.90604,33.32604],[-81.90413,33.32729],[-81.90261,33.33026],[-81.90364,33.33484],[-81.90195,33.33588],[-81.90063,33.33503],[-81.89957,33.33282],[-81.89694,33.33054],[-81.89694,33.32764],[-81.89927,33.32542],[-81.89859,33.3229],[-81.89554,33.32164],[-81.89102,33.32249],[-81.88916,33.32109],[-81.89004,33.31894],[-81.89274,33.31674],[-81.89254,33.31534],[-81.89054,33.31484],[-81.88524,33.31744],[-81.88254,33.31704],[-81.88154,33.31404],[-81.88464,33.30924],[-81.88194,33.30544],[-81.88124,33.30254],[-81.87944,33.30234],[-81.87584,33.30744],[-81.86925,33.31377],[-81.86654,33.31374],[-81.86494,33.31184],[-81.86404,33.30784],[-81.86464,33.30334],[-81.86393,33.30204],[-81.86206,33.30248],[-81.86054,33.30494],[-81.8576,33.30711],[-81.85606,33.30985],[-81.85365,33.31033],[-81.85173,33.30875],[-81.84764,33.30714],[-81.84604,33.30434],[-81.84964,33.29954],[-81.84874,33.29674],[-81.85034,33.29644],[-81.85254,33.29934],[-81.86004,33.29914],[-81.86204,33.29694],[-81.86164,33.29374],[-81.86334,33.28924],[-81.86074,33.28584],[-81.85158,33.28354],[-81.84824,33.28384],[-81.84619,33.28433],[-81.84454,33.28294],[-81.84414,33.27884],[-81.83915,33.2739],[-81.83634,33.27445],[-81.8335,33.27607],[-81.83252,33.27556],[-81.83267,33.27429],[-81.83554,33.27144],[-81.83524,33.26655],[-81.83604,33.26355],[-81.83534,33.26235],[-81.83335,33.26229],[-81.83054,33.26438],[-81.82889,33.26408],[-81.82834,33.26304],[-81.82884,33.26205],[-81.83108,33.2608],[-81.83441,33.25838],[-81.83644,33.25944],[-81.83744,33.26185],[-81.83845,33.26285],[-81.8408,33.26328],[-81.84267,33.26452],[-81.84386,33.26662],[-81.84691,33.2666],[-81.84814,33.26454],[-81.84634,33.25845],[-81.84474,33.25744],[-81.84154,33.25724],[-81.83984,33.25614],[-81.84004,33.25464],[-81.84514,33.25254],[-81.84983,33.25292],[-81.85256,33.25141],[-81.85294,33.24874],[-81.84864,33.24505],[-81.84654,33.24175],[-81.83794,33.23835],[-81.83174,33.23355],[-81.82794,33.22875],[-81.81964,33.22665],[-81.81174,33.22385],[-81.80924,33.22215],[-81.80814,33.21945],[-81.80794,33.21375],[-81.80649,33.21213],[-81.80394,33.21135],[-81.79824,33.21165],[-81.79024,33.20845],[-81.78454,33.20815],[-81.77894,33.20985],[-81.77754,33.21135],[-81.77764,33.21535],[-81.78104,33.21985],[-81.78014,33.22115],[-81.77774,33.22185],[-81.77403,33.22115],[-81.76793,33.21635],[-81.76723,33.21275],[-81.7653,33.2095],[-81.76354,33.20365],[-81.76163,33.20175],[-81.75823,33.20025],[-81.75693,33.19785],[-81.75953,33.19475],[-81.76063,33.18925],[-81.76283,33.18825],[-81.76593,33.18785],[-81.76774,33.18465],[-81.76694,33.18205],[-81.76493,33.17955],[-81.76614,33.17785],[-81.76864,33.17845],[-81.77174,33.18155],[-81.77244,33.18095],[-81.76673,33.17145],[-81.76814,33.16825],[-81.76763,33.16725],[-81.76444,33.16555],[-81.76314,33.15945],[-81.75414,33.15055],[-81.75003,33.14735],[-81.74634,33.14605],[-81.74453,33.14215],[-81.73664,33.13765],[-81.72953,33.13375],[-81.72433,33.12945],[-81.72173,33.12645],[-81.71603,33.12365],[-81.71113,33.12165],[-81.70463,33.11645],[-81.69693,33.11655],[-81.67703,33.11065],[-81.67183,33.10775],[-81.65843,33.10315],[-81.64643,33.09455],[-81.64233,33.09315],[-81.63723,33.09295],[-81.63223,33.09395],[-81.61499,33.09555],[-81.61166,33.09426],[-81.60997,33.09301],[-81.60829,33.08902],[-81.60953,33.08688],[-81.61294,33.08398],[-81.6129,33.08102],[-81.6107,33.07995],[-81.60684,33.08172],[-81.60359,33.08458],[-81.60253,33.08681],[-81.60132,33.08705],[-81.5965,33.07989],[-81.59683,33.07856],[-81.59899,33.07668],[-81.6033,33.07509],[-81.60324,33.07442],[-81.60095,33.07281],[-81.59602,33.07269],[-81.59359,33.0695],[-81.59265,33.06991],[-81.59252,33.07306],[-81.59086,33.07274],[-81.58741,33.06994],[-81.58436,33.0699],[-81.58298,33.06858],[-81.5838,33.06702],[-81.5831,33.06496],[-81.57875,33.0662],[-81.57719,33.06594],[-81.57716,33.06433],[-81.58099,33.0627],[-81.58025,33.06176],[-81.57491,33.0618],[-81.57451,33.06005],[-81.57833,33.05894],[-81.57704,33.05725],[-81.57283,33.05864],[-81.57131,33.05687],[-81.57324,33.0549],[-81.57191,33.05399],[-81.56989,33.0545],[-81.56631,33.05343],[-81.56302,33.05581],[-81.56457,33.05804],[-81.56695,33.0596],[-81.56699,33.0604],[-81.56569,33.06105],[-81.56399,33.06084],[-81.5594,33.0549],[-81.55894,33.05292],[-81.55917,33.05177],[-81.56034,33.05004],[-81.56504,33.04969],[-81.56611,33.04879],[-81.56195,33.04584],[-81.55315,33.0432],[-81.55179,33.04339],[-81.54652,33.04884],[-81.54376,33.04856],[-81.54214,33.04692],[-81.54008,33.04061],[-81.53879,33.03919],[-81.5355,33.03849],[-81.53072,33.04086],[-81.52914,33.04081],[-81.52844,33.03988],[-81.52879,33.03687],[-81.52845,33.03565],[-81.52265,33.03079],[-81.51963,33.02918],[-81.51323,33.02855],[-81.51125,33.02779],[-81.51059,33.0258],[-81.51169,33.02451],[-81.51402,33.02366],[-81.51759,33.02399],[-81.51908,33.0232],[-81.51838,33.02159],[-81.51607,33.02083],[-81.51372,33.02057],[-81.51133,33.02146],[-81.51028,33.02123],[-81.50822,33.01751],[-81.50892,33.01566],[-81.51157,33.01228],[-81.51069,33.01031],[-81.50822,33.01053],[-81.50741,33.01154],[-81.50568,33.01597],[-81.50405,33.01625],[-81.50203,33.01511],[-81.49977,33.01225],[-81.49664,33.01022],[-81.49225,33.00934],[-81.49142,33.00808],[-81.4919,33.00669],[-81.49613,33.00548],[-81.49875,33.00507],[-81.50023,33.00346],[-81.50063,33.00196],[-81.49983,33.00066],[-81.49571,32.99947],[-81.49274,32.99911],[-81.4912,32.99782],[-81.49146,32.99544],[-81.49225,32.99351],[-81.49503,32.99172],[-81.49614,32.99091],[-81.49642,32.98962],[-81.496,32.9883],[-81.49433,32.98626],[-81.49434,32.98508],[-81.4955,32.98353],[-81.49474,32.979],[-81.49784,32.97301],[-81.49947,32.96478],[-81.49983,32.96382],[-81.50137,32.96291],[-81.50503,32.96356],[-81.50757,32.96559],[-81.50785,32.96885],[-81.50884,32.96937],[-81.5108,32.96852],[-81.51135,32.96672],[-81.51005,32.96097],[-81.51001,32.95733],[-81.50861,32.95255],[-81.50402,32.94809],[-81.49945,32.94499],[-81.49957,32.94372],[-81.50272,32.93869],[-81.50243,32.93535],[-81.49983,32.93261],[-81.49509,32.9316],[-81.49207,32.92782],[-81.4896,32.92704],[-81.4832,32.9218],[-81.48444,32.91882],[-81.48726,32.91785],[-81.48705,32.91477],[-81.4813,32.91459],[-81.48001,32.91344],[-81.48144,32.9089],[-81.47918,32.90564],[-81.47937,32.90233],[-81.48086,32.90022],[-81.48081,32.89861],[-81.47553,32.89672],[-81.47214,32.89381],[-81.47065,32.89504],[-81.47162,32.90001],[-81.46898,32.90108],[-81.46592,32.89989],[-81.46407,32.89781],[-81.46465,32.896],[-81.46828,32.89228],[-81.46593,32.88945],[-81.4671,32.889],[-81.4717,32.89044],[-81.4771,32.88747],[-81.47944,32.88108],[-81.47592,32.87764],[-81.47038,32.87627],[-81.46804,32.87667],[-81.46714,32.8806],[-81.46505,32.8809],[-81.46188,32.87755],[-81.46056,32.87516],[-81.45721,32.8738],[-81.45339,32.87388],[-81.45137,32.86716],[-81.45336,32.86385],[-81.45302,32.85964],[-81.45692,32.8526],[-81.45706,32.85039],[-81.45556,32.84651],[-81.46021,32.8474],[-81.46072,32.84604],[-81.45403,32.8442],[-81.45174,32.84477],[-81.4512,32.84792],[-81.44487,32.85097],[-81.44267,32.85011],[-81.44228,32.84859],[-81.44288,32.84585],[-81.43995,32.84036],[-81.43751,32.84016],[-81.43481,32.84354],[-81.42647,32.84077],[-81.42161,32.83518],[-81.42062,32.83122],[-81.42183,32.82926],[-81.42367,32.82831],[-81.4281,32.82868],[-81.42994,32.82825],[-81.42952,32.82715],[-81.42668,32.82573],[-81.42249,32.82289],[-81.42195,32.82147],[-81.42241,32.82024],[-81.42304,32.81975],[-81.42694,32.8197],[-81.42795,32.81938],[-81.42824,32.81858],[-81.42709,32.81687],[-81.42435,32.81618],[-81.42059,32.81865],[-81.41858,32.81868],[-81.41798,32.8182],[-81.4185,32.81566],[-81.41975,32.81373],[-81.42377,32.81051],[-81.42598,32.81108],[-81.42633,32.80993],[-81.42224,32.80313],[-81.42274,32.80199],[-81.42487,32.80188],[-81.4269,32.80224],[-81.42829,32.80083],[-81.42635,32.79888],[-81.42523,32.79419],[-81.42298,32.794],[-81.41988,32.79486],[-81.4197,32.79323],[-81.425,32.79033],[-81.42742,32.78832],[-81.42758,32.78694],[-81.42513,32.78619],[-81.42236,32.78575],[-81.42224,32.78399],[-81.42393,32.78273],[-81.42629,32.78266],[-81.42998,32.78524],[-81.43124,32.78414],[-81.43008,32.78177],[-81.42686,32.77946],[-81.42333,32.77851],[-81.41617,32.77979],[-81.41472,32.7792],[-81.41446,32.77815],[-81.41632,32.77551],[-81.41735,32.77334],[-81.4186,32.77273],[-81.42258,32.773],[-81.42985,32.77213],[-81.43208,32.77055],[-81.43194,32.76891],[-81.42911,32.7679],[-81.42202,32.76837],[-81.4171,32.76609],[-81.41736,32.76333],[-81.4189,32.76113],[-81.41777,32.76022],[-81.41663,32.76054],[-81.41401,32.76452],[-81.41182,32.76312],[-81.41404,32.75542],[-81.41226,32.75469],[-81.40956,32.75603],[-81.408,32.75615],[-81.40836,32.75469],[-81.41157,32.75312],[-81.41371,32.75283],[-81.41673,32.75328],[-81.41849,32.75219],[-81.41984,32.7498],[-81.4186,32.74799],[-81.41066,32.74932],[-81.40587,32.74914],[-81.40502,32.74828],[-81.40493,32.74556],[-81.40575,32.74254],[-81.4076,32.74033],[-81.40986,32.73952],[-81.41267,32.73908],[-81.41387,32.73748],[-81.4116,32.73385],[-81.41252,32.73243],[-81.41467,32.73208],[-81.41703,32.73309],[-81.41854,32.73259],[-81.41828,32.73092],[-81.41706,32.72968],[-81.41675,32.72876],[-81.41782,32.72658],[-81.41777,32.72507],[-81.41559,32.72353],[-81.41007,32.7231],[-81.40999,32.72186],[-81.41092,32.72121],[-81.41877,32.72185],[-81.42034,32.72105],[-81.42045,32.71985],[-81.41576,32.71588],[-81.41512,32.71367],[-81.41667,32.71228],[-81.42004,32.71242],[-81.42119,32.71198],[-81.42215,32.70974],[-81.42593,32.71004],[-81.42646,32.70902],[-81.4241,32.70756],[-81.42456,32.70533],[-81.4275,32.70224],[-81.42673,32.70087],[-81.42262,32.70086],[-81.4206,32.69983],[-81.41888,32.69621],[-81.41665,32.69551],[-81.41358,32.69547],[-81.4124,32.6921],[-81.41054,32.69251],[-81.41088,32.69686],[-81.40962,32.69705],[-81.40749,32.69233],[-81.40583,32.69046],[-81.40663,32.68486],[-81.40432,32.68376],[-81.40179,32.68118],[-81.40103,32.67749],[-81.40391,32.67064],[-81.40391,32.66688],[-81.39754,32.66259],[-81.39751,32.66021],[-81.40034,32.65849],[-81.40325,32.65946],[-81.40451,32.66264],[-81.40665,32.66251],[-81.4073,32.66156],[-81.40719,32.66052],[-81.40527,32.65652],[-81.39831,32.65631],[-81.39382,32.65349],[-81.39303,32.65154],[-81.39459,32.64957],[-81.40003,32.64576],[-81.40511,32.64269],[-81.40986,32.64202],[-81.41182,32.64216],[-81.41255,32.64152],[-81.41183,32.63938],[-81.40363,32.63793],[-81.40274,32.63703],[-81.40421,32.63524],[-81.4082,32.63131],[-81.41026,32.63139],[-81.41152,32.63291],[-81.41341,32.63737],[-81.41476,32.63744],[-81.41701,32.63615],[-81.41843,32.6347],[-81.41812,32.62835],[-81.41309,32.6248],[-81.41251,32.62157],[-81.41297,32.6204],[-81.41122,32.61773],[-81.40844,32.61719],[-81.40752,32.61658],[-81.40646,32.61304],[-81.40043,32.60826],[-81.39387,32.60234],[-81.38934,32.59544],[-81.381,32.58965],[-81.37817,32.58882],[-81.37569,32.58947],[-81.37396,32.59181],[-81.37157,32.59202],[-81.36976,32.59123],[-81.36888,32.58975],[-81.37028,32.5867],[-81.36982,32.58505],[-81.36839,32.58422],[-81.3645,32.58403],[-81.36359,32.58179],[-81.36711,32.57861],[-81.36695,32.57702],[-81.3652,32.57657],[-81.36294,32.57731],[-81.36017,32.58178],[-81.35775,32.58212],[-81.35412,32.57991],[-81.3537,32.57791],[-81.3578,32.57519],[-81.35832,32.57363],[-81.3548,32.57107],[-81.35076,32.57017],[-81.33624,32.56424],[-81.33319,32.5635],[-81.3286,32.56109],[-81.32181,32.55954],[-81.30524,32.56151],[-81.30059,32.56284],[-81.29796,32.56303],[-81.29559,32.56182],[-81.29548,32.55907],[-81.29796,32.55583],[-81.29787,32.55409],[-81.29669,32.55339],[-81.29483,32.55358],[-81.29176,32.55533],[-81.29116,32.55722],[-81.29311,32.56239],[-81.29129,32.56274],[-81.28957,32.56174],[-81.28847,32.55846],[-81.28834,32.55591],[-81.28996,32.55218],[-81.28888,32.55116],[-81.28647,32.55148],[-81.28472,32.55294],[-81.28424,32.55603],[-81.28327,32.55678],[-81.28132,32.55646],[-81.27924,32.55459],[-81.27876,32.55234],[-81.28103,32.54968],[-81.28073,32.54764],[-81.27906,32.54632],[-81.27574,32.54566],[-81.27496,32.54482],[-81.2748,32.54114],[-81.27624,32.53856],[-81.28005,32.53749],[-81.2799,32.53659],[-81.27417,32.53377],[-81.27243,32.53042],[-81.26603,32.52731],[-81.25868,32.52264],[-81.25288,32.51833],[-81.24956,32.51786],[-81.24686,32.51856],[-81.2448,32.52054],[-81.24312,32.52023],[-81.24191,32.51718],[-81.2402,32.51637],[-81.23737,32.51713],[-81.23546,32.51855],[-81.23342,32.51796],[-81.23215,32.51334],[-81.23295,32.51169],[-81.23671,32.5114],[-81.23841,32.51019],[-81.23868,32.50698],[-81.23766,32.50512],[-81.23425,32.50275],[-81.23359,32.49849],[-81.225,32.49189],[-81.21681,32.4828],[-81.21191,32.47899],[-81.20003,32.46798],[-81.19483,32.46509],[-81.19154,32.46482],[-81.18865,32.46531],[-81.18695,32.46357],[-81.1886,32.46123],[-81.19373,32.45968],[-81.19456,32.45777],[-81.19161,32.45519],[-81.19224,32.45364],[-81.1943,32.45352],[-81.19636,32.45513],[-81.19797,32.45388],[-81.19749,32.44914],[-81.19878,32.44852],[-81.20329,32.45299],[-81.2045,32.45278],[-81.20667,32.44809],[-81.20556,32.4465],[-81.20105,32.44622],[-81.19943,32.44419],[-81.19964,32.44159],[-81.20844,32.437],[-81.20505,32.42548],[-81.20551,32.42361],[-81.19493,32.41149],[-81.18991,32.40707],[-81.18536,32.40006],[-81.17871,32.39364],[-81.17732,32.38978],[-81.17849,32.38447],[-81.18184,32.37935],[-81.17886,32.37809],[-81.17576,32.37581],[-81.17379,32.3731],[-81.16922,32.37014],[-81.16791,32.3683],[-81.169,32.36512],[-81.17393,32.36355],[-81.17382,32.36271],[-81.16712,32.36104],[-81.16712,32.35872],[-81.16386,32.35665],[-81.161,32.3559],[-81.1605,32.35364],[-81.16161,32.35042],[-81.1601,32.34895],[-81.15537,32.35003],[-81.15484,32.34956],[-81.15505,32.34416],[-81.15674,32.34278],[-81.15983,32.34298],[-81.16062,32.34175],[-81.15983,32.33996],[-81.15736,32.34],[-81.15484,32.34155],[-81.15219,32.34144],[-81.15184,32.34302],[-81.14867,32.34532],[-81.14598,32.34502],[-81.14523,32.34584],[-81.14725,32.34749],[-81.14732,32.35013],[-81.14379,32.35153],[-81.14151,32.35032],[-81.13935,32.34508],[-81.1353,32.34299],[-81.13401,32.34121],[-81.12944,32.34155],[-81.12862,32.33862],[-81.12896,32.33645],[-81.13138,32.33588],[-81.13392,32.33331],[-81.13575,32.33028],[-81.13793,32.32866],[-81.13629,32.325],[-81.13375,32.32429],[-81.13176,32.32637],[-81.13065,32.32541],[-81.13165,32.3195],[-81.12975,32.31397],[-81.13085,32.31098],[-81.13305,32.30901],[-81.13152,32.30728],[-81.12778,32.30722],[-81.12498,32.30916],[-81.12293,32.3073],[-81.12233,32.30539],[-81.12266,32.29951],[-81.12392,32.29641],[-81.12336,32.29384],[-81.12002,32.28994],[-81.11987,32.2862],[-81.12224,32.28424],[-81.12572,32.28366],[-81.12696,32.2827],[-81.12716,32.28079],[-81.12592,32.27876],[-81.12328,32.27698],[-81.12342,32.27505],[-81.12525,32.27504],[-81.12795,32.27647],[-81.13,32.2758],[-81.13213,32.27275],[-81.13253,32.27025],[-81.13349,32.2698],[-81.13558,32.27247],[-81.14193,32.27174],[-81.14175,32.27021],[-81.13957,32.26976],[-81.13764,32.26849],[-81.13693,32.26611],[-81.13839,32.26423],[-81.14021,32.26358],[-81.14534,32.26399],[-81.1466,32.26277],[-81.14664,32.26102],[-81.14473,32.25877],[-81.14506,32.25775],[-81.14752,32.25651],[-81.14833,32.2551],[-81.14573,32.25152],[-81.14711,32.24956],[-81.15289,32.24781],[-81.1556,32.24602],[-81.15659,32.24391],[-81.15588,32.24097],[-81.15238,32.2363],[-81.14577,32.23234],[-81.14363,32.22927],[-81.14481,32.22599],[-81.14806,32.22378],[-81.15215,32.22232],[-81.15084,32.2212],[-81.14314,32.22173],[-81.13844,32.21926],[-81.13672,32.21627],[-81.13673,32.21367],[-81.13408,32.21146],[-81.12828,32.20863],[-81.12315,32.20133],[-81.12206,32.1955],[-81.1198,32.19516],[-81.11589,32.19644],[-81.11402,32.19545],[-81.11412,32.19392],[-81.11623,32.193],[-81.12158,32.1922],[-81.12155,32.19042],[-81.11823,32.1892],[-81.11793,32.1853],[-81.11983,32.1812],[-81.12045,32.17829],[-81.11638,32.17617],[-81.11393,32.1776],[-81.11193,32.178],[-81.11023,32.1768],[-81.11113,32.1727],[-81.11384,32.17126],[-81.11775,32.17116],[-81.11901,32.17467],[-81.12119,32.17492],[-81.12813,32.1691],[-81.12975,32.16593],[-81.12843,32.1644],[-81.12313,32.1629],[-81.12203,32.1618],[-81.12214,32.1573],[-81.12112,32.1545],[-81.11797,32.15233],[-81.1143,32.15202],[-81.11224,32.1508],[-81.11223,32.14931],[-81.11624,32.1472],[-81.11833,32.1444],[-81.11913,32.1421],[-81.11994,32.134],[-81.11613,32.12868],[-81.11524,32.1255],[-81.11723,32.1198],[-81.11723,32.1176],[-81.11537,32.11471],[-81.11113,32.11201],[-81.10894,32.11163],[-81.1067,32.1097],[-81.10332,32.11114],[-81.09498,32.11182],[-81.09125,32.11089],[-81.08948,32.10623],[-81.08697,32.10397],[-81.08827,32.09993],[-81.07431,32.09739],[-81.05955,32.08862],[-81.04354,32.0861],[-81.03812,32.08373],[-81.02626,32.08813],[-81.02162,32.09168],[-81.01735,32.09878],[-81.01102,32.10205],[-81.00431,32.10237],[-80.99956,32.10043],[-80.99214,32.09492],[-80.98685,32.08412],[-80.98351,32.07955],[-80.98054,32.07784],[-80.97191,32.07463],[-80.95957,32.07285],[-80.95388,32.07014],[-80.92508,32.04194],[-80.92103,32.03999],[-80.90766,32.03815],[-80.90668,32.03479],[-80.89074,32.03073],[-80.8866,32.02694],[-80.87595,32.01676],[-80.86621,32.01938],[-80.85911,32.02369],[-80.85506,32.02546],[-80.85273,32.02878],[-80.84346,32.02365],[-80.84092,32.01162],[-80.84038,32.00304],[-80.84191,32.00264],[-80.8473,31.98755],[-80.85843,31.98426],[-80.85942,31.97382],[-80.86281,31.96935],[-80.8819,31.95668],[-80.89769,31.94907],[-80.92135,31.93873],[-80.92801,31.93853],[-80.9291,31.94496],[-80.93028,31.9567],[-80.93252,31.96193],[-80.94274,31.96374],[-80.9494,31.96132],[-80.94849,31.95723],[-80.97239,31.94127],[-80.98434,31.94015],[-80.98362,31.93167],[-80.97571,31.9236],[-80.96849,31.91582],[-80.95447,31.91177],[-80.94136,31.91298],[-80.93014,31.90807],[-80.94729,31.89621],[-80.97143,31.87794],[-80.99269,31.85764],[-81.00032,31.85674],[-81.01448,31.86747],[-81.02841,31.86814],[-81.03141,31.87293],[-81.04155,31.8762],[-81.06525,31.8771],[-81.0586,31.85781],[-81.05907,31.85011],[-81.06279,31.84474],[-81.07618,31.83613],[-81.07581,31.82903],[-81.06728,31.82613],[-81.06212,31.82107],[-81.05231,31.81905],[-81.05095,31.82238],[-81.04794,31.82488],[-81.03981,31.823],[-81.03696,31.81956],[-81.03472,31.81642],[-81.03591,31.81036],[-81.04637,31.80087],[-81.07038,31.77137],[-81.07917,31.76268],[-81.0951,31.74914],[-81.11197,31.73722],[-81.13063,31.72269],[-81.13845,31.72093],[-81.16067,31.72814],[-81.17404,31.72749],[-81.19278,31.73325],[-81.20357,31.71945],[-81.19529,31.71384],[-81.1863,31.70151],[-81.16108,31.6914],[-81.15462,31.69387],[-81.15189,31.69841],[-81.14937,31.6993],[-81.13939,31.69992],[-81.13114,31.69577],[-81.13561,31.68349],[-81.13641,31.67483],[-81.13455,31.66199],[-81.13397,31.64096],[-81.12884,31.63144],[-81.13349,31.62335],[-81.14997,31.59348],[-81.16036,31.57044],[-81.17186,31.55896],[-81.17876,31.55815],[-81.18256,31.5618],[-81.1879,31.57277],[-81.18724,31.58006],[-81.19558,31.58043],[-81.2032,31.56971],[-81.21607,31.55842],[-81.2407,31.55231],[-81.25422,31.55594],[-81.25921,31.55033],[-81.27654,31.54846],[-81.2897,31.53724],[-81.29826,31.53351],[-81.29519,31.52154],[-81.27632,31.52528],[-81.27105,31.53107],[-81.26344,31.53093],[-81.25881,31.52906],[-81.26388,31.51584],[-81.27766,31.50951],[-81.28231,31.5044],[-81.27873,31.49754],[-81.26773,31.497],[-81.2629,31.49578],[-81.25144,31.5057],[-81.24375,31.5189],[-81.23668,31.52919],[-81.22855,31.52698],[-81.21795,31.52728],[-81.21352,31.52815],[-81.20419,31.53607],[-81.19825,31.53703],[-81.18657,31.52918],[-81.18076,31.52245],[-81.17873,31.5182],[-81.17934,31.51629],[-81.18964,31.50359],[-81.20488,31.47312],[-81.24691,31.42278],[-81.25862,31.40442],[-81.2618,31.39357],[-81.26861,31.38301],[-81.27811,31.37773],[-81.29427,31.3686],[-81.29047,31.36149],[-81.28595,31.34972],[-81.28292,31.32649],[-81.28762,31.31054],[-81.28286,31.29064],[-81.27953,31.27174],[-81.27123,31.26589],[-81.26955,31.25874],[-81.27686,31.25473],[-81.28284,31.24433],[-81.28914,31.22549],[-81.29047,31.21769],[-81.2957,31.21505],[-81.30307,31.21688],[-81.3159,31.20915],[-81.33111,31.19695],[-81.35488,31.1672],[-81.36079,31.1559],[-81.36581,31.14794],[-81.37589,31.14034],[-81.38774,31.13443],[-81.39968,31.13411],[-81.40952,31.12061],[-81.40373,31.10712],[-81.40121,31.08614],[-81.40127,31.07278],[-81.41512,31.02672],[-81.42047,31.0167],[-81.42473,31.01368],[-81.43247,31.01299],[-81.43471,31.01464],[-81.43492,31.0178],[-81.45144,31.01552],[-81.4578,31.01026],[-81.45924,31.00569],[-81.46097,30.99914],[-81.4693,30.99603],[-81.49059,30.98495],[-81.49365,30.97753],[-81.48697,30.9696],[-81.47579,30.96598],[-81.47232,30.9699],[-81.46681,30.97091],[-81.45357,30.96557],[-81.44805,30.96551],[-81.44739,30.95673],[-81.42693,30.95661],[-81.42011,30.97408],[-81.41582,30.97719],[-81.40848,30.97772],[-81.40341,30.95791],[-81.40408,30.90374],[-81.41247,30.88575],[-81.42858,30.83634],[-81.43084,30.83116],[-81.44013,30.82137],[-81.44693,30.81039],[-81.45529,30.79093],[-81.46006,30.76991],[-81.46107,30.75368],[-81.45947,30.74198],[-81.44971,30.71968],[-81.44412,30.70971],[-81.44872,30.70935],[-81.45998,30.71043],[-81.46447,30.71104],[-81.4726,30.71331],[-81.47575,30.71475],[-81.48379,30.72389],[-81.48733,30.72608],[-81.48954,30.7261],[-81.50722,30.72294],[-81.51612,30.72224],[-81.52142,30.72254],[-81.52625,30.72339],[-81.53116,30.72422],[-81.53337,30.72343],[-81.53425,30.72097],[-81.53452,30.71794],[-81.53396,30.71473],[-81.53381,30.71205],[-81.53515,30.7097],[-81.53839,30.70866],[-81.5416,30.71006],[-81.54468,30.71397],[-81.5461,30.71703],[-81.5493,30.71829],[-81.55257,30.71697],[-81.55615,30.71375],[-81.56071,30.71169],[-81.56346,30.71342],[-81.5638,30.71775],[-81.56841,30.71898],[-81.57142,30.72164],[-81.57372,30.72234],[-81.58682,30.72374],[-81.58929,30.72284],[-81.59384,30.71848],[-81.59711,30.71933],[-81.59609,30.72462],[-81.59645,30.72725],[-81.60088,30.72944],[-81.60429,30.72894],[-81.60602,30.72622],[-81.60583,30.71969],[-81.60762,30.71637],[-81.61066,30.71622],[-81.61304,30.72045],[-81.61507,30.72269],[-81.62114,30.72254],[-81.62354,30.72468],[-81.62113,30.72883],[-81.62082,30.73162],[-81.62437,30.73634],[-81.62833,30.73539],[-81.62914,30.72873],[-81.63069,30.72809],[-81.63284,30.72876],[-81.63505,30.73328],[-81.63806,30.73337],[-81.64191,30.72892],[-81.64614,30.72759],[-81.64902,30.7275],[-81.65313,30.7298],[-81.65409,30.73309],[-81.6515,30.74068],[-81.65233,30.7431],[-81.65463,30.74439],[-81.65989,30.74218],[-81.66269,30.74304],[-81.66354,30.74573],[-81.65977,30.74944],[-81.66084,30.75319],[-81.66335,30.7544],[-81.66984,30.75167],[-81.67843,30.75107],[-81.6831,30.74849],[-81.68236,30.74548],[-81.67931,30.74475],[-81.67247,30.74844],[-81.66908,30.74499],[-81.66884,30.74251],[-81.67012,30.74023],[-81.67282,30.73894],[-81.68009,30.7416],[-81.68843,30.74148],[-81.69105,30.74328],[-81.69241,30.74764],[-81.69478,30.74841],[-81.70247,30.74544],[-81.70911,30.74798],[-81.71993,30.74463],[-81.72446,30.74655],[-81.7293,30.74826],[-81.73284,30.75049],[-81.73296,30.75202],[-81.73135,30.75401],[-81.73234,30.7553],[-81.742,30.75907],[-81.74274,30.76059],[-81.74214,30.76195],[-81.74039,30.7636],[-81.74075,30.76501],[-81.74404,30.7664],[-81.75004,30.76711],[-81.75488,30.7687],[-81.75853,30.77108],[-81.76047,30.77465],[-81.76172,30.7757],[-81.76964,30.77712],[-81.7713,30.77632],[-81.77036,30.77348],[-81.77247,30.77124],[-81.77348,30.767],[-81.77157,30.76516],[-81.77195,30.76381],[-81.78215,30.76134],[-81.78352,30.76246],[-81.78258,30.76607],[-81.7867,30.7698],[-81.78368,30.77288],[-81.79258,30.78548],[-81.79442,30.787],[-81.79661,30.78562],[-81.79675,30.78306],[-81.79845,30.78225],[-81.8024,30.7872],[-81.80745,30.79012],[-81.81921,30.78991],[-81.8237,30.78683],[-81.82849,30.78936],[-81.83924,30.7866],[-81.84177,30.78785],[-81.83969,30.7912],[-81.84118,30.79227],[-81.84564,30.79072],[-81.85351,30.79463],[-81.86374,30.79427],[-81.86826,30.79285],[-81.87041,30.79482],[-81.87035,30.79748],[-81.87619,30.7998],[-81.88149,30.79992],[-81.88482,30.81153],[-81.8891,30.81356],[-81.8915,30.81675],[-81.89102,30.82247],[-81.89291,30.82551],[-81.89485,30.82517],[-81.90144,30.82992],[-81.90482,30.82828],[-81.90727,30.82556],[-81.90672,30.82339],[-81.90409,30.82041],[-81.90453,30.81774],[-81.91092,30.81612],[-81.91873,30.81749],[-81.92705,30.81757],[-81.93281,30.82041],[-81.93621,30.82542],[-81.93698,30.82851],[-81.93879,30.82884],[-81.9437,30.82598],[-81.9495,30.82787],[-81.9557,30.82275],[-81.96393,30.8181],[-81.96274,30.81364],[-81.96244,30.80844],[-81.9645,30.80745],[-81.96172,30.80099],[-81.9629,30.79585],[-81.96662,30.79391],[-81.96995,30.78908],[-81.97083,30.78386],[-81.97344,30.77883],[-81.97772,30.77664],[-81.98342,30.77812],[-81.9921,30.783],[-81.99497,30.78607],[-82.00475,30.79139],[-82.00805,30.79205],[-82.01251,30.78933],[-82.01587,30.79159],[-82.01875,30.788],[-82.02197,30.78823],[-82.02376,30.78526],[-82.02327,30.78269],[-82.01796,30.77494],[-82.01845,30.77276],[-82.01516,30.77197],[-82.01138,30.7626],[-82.01392,30.7609],[-82.01886,30.75657],[-82.01884,30.75459],[-82.02373,30.75351],[-82.02714,30.75113],[-82.03188,30.75048],[-82.0348,30.75445],[-82.03677,30.75443],[-82.03866,30.75109],[-82.03963,30.74773],[-82.03942,30.73719],[-82.04479,30.72848],[-82.04446,30.72615],[-82.04004,30.72459],[-82.03915,30.72318],[-82.03756,30.71864],[-82.03854,30.71592],[-82.0368,30.71303],[-82.03643,30.70659],[-82.04301,30.69826],[-82.04142,30.69359],[-82.04354,30.68473],[-82.05043,30.67627],[-82.04847,30.66895],[-82.04699,30.66593],[-82.04718,30.6629],[-82.04884,30.66068],[-82.04951,30.65555],[-82.04611,30.65177],[-82.04227,30.64945],[-82.0396,30.64331],[-82.03909,30.64113],[-82.03994,30.63714],[-82.03761,30.63327],[-82.03393,30.6296],[-82.0285,30.62183],[-82.02654,30.6133],[-82.02734,30.60673],[-82.02694,30.60615],[-82.0165,30.60248],[-82.01571,30.6017],[-82.01211,30.59377],[-82.00809,30.57702],[-82.00548,30.56349],[-82.01322,30.55009],[-82.01836,30.53118],[-82.01887,30.52383],[-82.01699,30.51936],[-82.01583,30.51817],[-82.01477,30.51301],[-82.01589,30.4955],[-82.01822,30.49208],[-82.0173,30.48764],[-82.01698,30.47878],[-82.01778,30.47508],[-82.02373,30.46729],[-82.02546,30.45775],[-82.02821,30.4474],[-82.03006,30.44485],[-82.0362,30.43846],[-82.03721,30.43452],[-82.03446,30.42805],[-82.034,30.42236],[-82.03997,30.41428],[-82.04116,30.40997],[-82.04199,30.40327],[-82.04116,30.39684],[-82.03587,30.38529],[-82.03682,30.37788],[-82.04075,30.37016],[-82.04792,30.36326],[-82.05007,30.36234],[-82.06003,30.36033],[-82.06853,30.35918],[-82.08111,30.35881],[-82.09469,30.36078],[-82.1018,30.36534],[-82.10142,30.36656],[-82.1025,30.36782],[-82.10483,30.36832],[-82.11638,30.36734],[-82.14328,30.36339],[-82.15811,30.35991],[-82.16176,30.35785],[-82.16519,30.35804],[-82.17005,30.35893],[-82.17151,30.35987],[-82.18002,30.36863],[-82.1838,30.37371],[-82.18463,30.37717],[-82.18639,30.37736],[-82.18881,30.3766],[-82.19294,30.37878],[-82.19234,30.38457],[-82.19652,30.38932],[-82.20415,30.40133],[-82.21029,30.42459],[-82.20987,30.43282],[-82.20649,30.43708],[-82.20397,30.44451],[-82.20482,30.45184],[-82.20604,30.45551],[-82.20752,30.45693],[-82.20771,30.4605],[-82.20461,30.46887],[-82.20094,30.47444],[-82.20142,30.48516],[-82.20645,30.49188],[-82.21285,30.49875],[-82.21851,30.50419],[-82.22503,30.50783],[-82.22693,30.51028],[-82.23038,30.51734],[-82.2294,30.52082],[-82.23075,30.52676],[-82.23612,30.53115],[-82.2404,30.53777],[-82.23891,30.54543],[-82.23444,30.549],[-82.23443,30.55659],[-82.23262,30.55796],[-82.22826,30.56258],[-82.22283,30.56559],[-82.21731,30.56519],[-82.21438,30.56696],[-82.21484,30.56859],[-82.24984,30.57086],[-82.2581,30.57156],[-82.28734,30.57346],[-82.37484,30.579],[-82.45954,30.58427],[-82.5249,30.58819],[-82.53623,30.58889],[-82.54506,30.58936],[-82.55316,30.58993],[-82.56548,30.59062],[-82.56924,30.59097],[-82.68927,30.59772],[-82.69862,30.59823],[-82.6989,30.59827],[-82.87726,30.60902],[-82.87878,30.60908],[-83.13137,30.62358],[-83.15617,30.6255],[-83.16331,30.62589],[-83.17441,30.62644],[-83.18739,30.62722],[-83.30945,30.63442],[-83.31165,30.63458],[-83.34101,30.63635],[-83.37946,30.63868],[-83.39006,30.63933],[-83.42948,30.64152],[-83.42958,30.6415],[-83.44002,30.64202],[-83.44889,30.64241],[-83.49988,30.64567],[-83.61167,30.65125],[-83.67406,30.65475],[-83.67677,30.6549],[-83.81054,30.66188],[-83.82089,30.66261],[-83.85522,30.66441],[-83.88022,30.66583],[-83.88032,30.66581],[-84.00739,30.6721],[-84.03971,30.67382],[-84.04181,30.67388],[-84.0466,30.6742],[-84.05723,30.6747],[-84.1077,30.67682],[-84.12489,30.67805],[-84.2499,30.68415],[-84.28121,30.68526],[-84.3749,30.68979],[-84.47441,30.69279],[-84.53504,30.69652],[-84.53937,30.69677],[-84.60625,30.69987],[-84.60639,30.69986],[-84.64481,30.70199],[-84.83632,30.71071],[-84.86469,30.71154],[-84.86975,30.7219],[-84.87542,30.72749],[-84.88382,30.73259],[-84.88522,30.73499],[-84.88752,30.74179],[-84.89612,30.75059],[-84.89762,30.75139],[-84.90022,30.75189],[-84.90312,30.75179],[-84.90632,30.75059],[-84.91112,30.75119],[-84.91352,30.75229],[-84.91432,30.75359],[-84.91502,30.76119],[-84.92012,30.76599],[-84.91802,30.77209],[-84.91742,30.77589],[-84.91802,30.77809],[-84.92672,30.79019],[-84.92832,30.79309],[-84.92902,30.79729],[-84.92792,30.80279],[-84.92832,30.80509],[-84.93092,30.81049],[-84.93682,30.81849],[-84.93742,30.82089],[-84.93574,30.83396],[-84.93232,30.83809],[-84.92696,30.83919],[-84.92566,30.84268],[-84.92782,30.84789],[-84.93322,30.85149],[-84.93662,30.85899],[-84.93533,30.86129],[-84.93252,30.86319],[-84.93312,30.86589],[-84.93932,30.87149],[-84.93922,30.87489],[-84.93432,30.88189],[-84.9349,30.88453],[-84.93937,30.88716],[-84.94253,30.88849],[-84.94962,30.89739],[-84.95233,30.90229],[-84.95613,30.90759],[-84.96673,30.91729],[-84.96943,30.92199],[-84.97103,30.92819],[-84.97523,30.93079],[-84.98063,30.93269],[-84.98313,30.93479],[-84.98363,30.93699],[-84.98303,30.94259],[-84.98223,30.94689],[-84.97963,30.95469],[-84.97963,30.95899],[-84.98013,30.96129],[-84.98253,30.96559],[-84.98483,30.96749],[-84.98803,30.96879],[-84.99763,30.97119],[-84.99983,30.97149],[-84.99993,30.97119],[-85.00403,30.97347],[-85.00511,30.9747],[-85.00593,30.97704],[-85.00593,30.9798],[-85.00254,30.9869],[-85.00182,30.99789],[-85.0019,31.00068],[-85.0025,31.00068],[-85.00137,31.00504],[-84.99963,31.00908],[-84.99943,31.01384],[-85.00006,31.01498],[-85.00455,31.01918],[-85.00505,31.0247],[-85.00941,31.03238],[-85.00855,31.04282],[-85.00882,31.04557],[-85.01139,31.05355],[-85.01264,31.0554],[-85.01815,31.05925],[-85.02857,31.07458],[-85.02833,31.07685],[-85.02607,31.08418],[-85.02974,31.09616],[-85.03283,31.10057],[-85.03562,31.10819],[-85.03708,31.10975],[-85.04051,31.11158],[-85.05018,31.11892],[-85.05287,31.11949],[-85.05468,31.12082],[-85.06107,31.13423],[-85.06243,31.13952],[-85.06403,31.1425],[-85.07018,31.14868],[-85.07663,31.15693],[-85.0778,31.15789],[-85.08358,31.15963],[-85.09211,31.16029],[-85.10021,31.16549],[-85.10045,31.16673],[-85.09843,31.17777],[-85.09851,31.18015],[-85.10205,31.18473],[-85.10442,31.18565],[-85.1065,31.1853],[-85.10752,31.18645],[-85.10813,31.19564],[-85.10696,31.20269],[-85.10563,31.2046],[-85.09977,31.20975],[-85.0987,31.21129],[-85.09871,31.21951],[-85.09676,31.22565],[-85.09884,31.23252],[-85.10076,31.23481],[-85.10247,31.23786],[-85.10426,31.24187],[-85.10618,31.24808],[-85.10915,31.25461],[-85.11171,31.25802],[-85.11235,31.25958],[-85.11326,31.26434],[-85.11198,31.26799],[-85.1119,31.27248],[-85.11255,31.27438],[-85.11455,31.2763],[-85.1146,31.27733],[-85.11276,31.28004],[-85.11031,31.28173],[-85.09911,31.28417],[-85.09316,31.28969],[-85.08977,31.29503],[-85.08769,31.30405],[-85.08765,31.30868],[-85.0874,31.31122],[-85.08447,31.31619],[-85.08378,31.31821],[-85.08415,31.32831],[-85.08898,31.33429],[-85.08941,31.33603],[-85.08781,31.33798],[-85.08706,31.34032],[-85.08586,31.35019],[-85.08592,31.35315],[-85.08741,31.35443],[-85.09099,31.35443],[-85.09179,31.35521],[-85.09262,31.35747],[-85.09249,31.36288],[-85.09217,31.36458],[-85.08691,31.37447],[-85.08243,31.38454],[-85.0804,31.39393],[-85.07864,31.39636],[-85.07763,31.39888],[-85.07739,31.40284],[-85.07998,31.41047],[-85.07982,31.41173],[-85.07675,31.41597],[-85.07583,31.42151],[-85.07552,31.42476],[-85.07398,31.42718],[-85.07269,31.42828],[-85.06908,31.42762],[-85.06697,31.42859],[-85.06588,31.43059],[-85.06555,31.43954],[-85.06596,31.44298],[-85.0667,31.44729],[-85.06927,31.45347],[-85.07162,31.46838],[-85.06569,31.48412],[-85.06211,31.48802],[-85.05892,31.49599],[-85.05295,31.50652],[-85.04845,31.51368],[-85.04564,31.51681],[-85.04499,31.51823],[-85.04456,31.52091],[-85.04765,31.52375],[-85.04826,31.52601],[-85.0472,31.52867],[-85.04298,31.5352],[-85.04181,31.53775],[-85.0413,31.54099],[-85.04188,31.54468],[-85.04255,31.54595],[-85.0457,31.54871],[-85.05084,31.55555],[-85.05187,31.55787],[-85.05293,31.56289],[-85.05796,31.57084],[-85.05772,31.57306],[-85.05528,31.57709],[-85.05542,31.5787],[-85.05844,31.58369],[-85.05811,31.59334],[-85.0564,31.60096],[-85.05598,31.60518],[-85.05731,31.60671],[-85.0597,31.60726],[-85.06055,31.60822],[-85.06042,31.61127],[-85.05833,31.61455],[-85.05753,31.61688],[-85.05747,31.61862],[-85.05817,31.62023],[-85.05953,31.62172],[-85.06524,31.62435],[-85.06763,31.62527],[-85.07383,31.62957],[-85.08003,31.63687],[-85.08283,31.63797],[-85.0845,31.63903],[-85.08517,31.64075],[-85.08536,31.64219],[-85.08517,31.6441],[-85.08227,31.65037],[-85.0803,31.65077],[-85.07851,31.65169],[-85.07863,31.65331],[-85.07993,31.65529],[-85.08316,31.6564],[-85.08546,31.65703],[-85.08783,31.65787],[-85.09243,31.65997],[-85.10943,31.67747],[-85.11263,31.68517],[-85.11393,31.68687],[-85.12233,31.69127],[-85.12553,31.69496],[-85.12683,31.70896],[-85.12653,31.71676],[-85.12573,31.71886],[-85.12223,31.72276],[-85.11913,31.73096],[-85.11893,31.73266],[-85.12393,31.74756],[-85.12663,31.75246],[-85.12923,31.75866],[-85.12563,31.76446],[-85.12523,31.76706],[-85.12633,31.76886],[-85.13073,31.77226],[-85.14043,31.77966],[-85.14193,31.78196],[-85.13713,31.78836],[-85.13293,31.79236],[-85.13223,31.79516],[-85.13283,31.79886],[-85.13293,31.80806],[-85.13153,31.81306],[-85.13133,31.81756],[-85.13365,31.82231],[-85.13432,31.82461],[-85.13262,31.82683],[-85.13308,31.82867],[-85.13593,31.83046],[-85.13923,31.83416],[-85.14183,31.83926],[-85.14133,31.84106],[-85.13833,31.84416],[-85.13773,31.84586],[-85.13803,31.85126],[-85.14023,31.85526],[-85.14073,31.85746],[-85.14013,31.85876],[-85.13743,31.86066],[-85.13583,31.86246],[-85.13373,31.87006],[-85.12883,31.87636],[-85.12843,31.87756],[-85.12843,31.87966],[-85.12933,31.88246],[-85.13163,31.88676],[-85.13373,31.88956],[-85.13433,31.89146],[-85.13413,31.89216],[-85.13293,31.89306],[-85.12113,31.89326],[-85.11703,31.89286],[-85.11403,31.89336],[-85.11203,31.89476],[-85.11063,31.89686],[-85.11156,31.90125],[-85.10977,31.90414],[-85.10983,31.90806],[-85.11273,31.90986],[-85.11313,31.91186],[-85.10913,31.91436],[-85.10243,31.91736],[-85.10133,31.91866],[-85.10023,31.92406],[-85.09953,31.92526],[-85.09823,31.92626],[-85.09183,31.92886],[-85.08643,31.93596],[-85.08473,31.93736],[-85.07893,31.94016],[-85.07893,31.94146],[-85.08243,31.94536],[-85.08683,31.95776],[-85.08673,31.95916],[-85.08573,31.96076],[-85.08323,31.96246],[-85.07393,31.96416],[-85.07023,31.96566],[-85.06783,31.96736],[-85.06593,31.97116],[-85.06593,31.97246],[-85.06683,31.97476],[-85.06993,31.97836],[-85.07093,31.98166],[-85.06833,31.98676],[-85.06803,31.99336],[-85.06454,32.00249],[-85.06344,32.00414],[-85.05508,32.01071],[-85.05382,32.0135],[-85.05477,32.01741],[-85.05367,32.02066],[-85.05014,32.02109],[-85.04931,32.02269],[-85.0506,32.02391],[-85.05522,32.02721],[-85.05625,32.02834],[-85.05646,32.03182],[-85.05547,32.03422],[-85.05463,32.03669],[-85.05484,32.03881],[-85.05533,32.04058],[-85.05803,32.04376],[-85.05883,32.04666],[-85.05663,32.05416],[-85.05643,32.05806],[-85.05683,32.05976],[-85.05603,32.06305],[-85.05418,32.06799],[-85.05408,32.07021],[-85.05549,32.07266],[-85.05581,32.07444],[-85.05323,32.0806],[-85.05116,32.08253],[-85.04708,32.08435],[-85.04551,32.08687],[-85.04706,32.09043],[-85.04955,32.09536],[-85.05378,32.10768],[-85.05505,32.11367],[-85.05918,32.12515],[-85.06154,32.12967],[-85.06206,32.13249],[-85.06114,32.13406],[-85.05875,32.13602],[-85.04787,32.14203],[-85.04559,32.14376],[-85.03399,32.15635],[-85.03034,32.16173],[-85.02658,32.1661],[-85.01465,32.17688],[-85.01306,32.17911],[-85.01127,32.18049],[-85.00853,32.1819],[-84.99593,32.18485],[-84.97373,32.19155],[-84.96683,32.19395],[-84.96463,32.19515],[-84.96173,32.19865],[-84.96223,32.20005],[-84.96323,32.20225],[-84.96693,32.20445],[-84.96943,32.20445],[-84.97233,32.20355],[-84.97463,32.20365],[-84.97713,32.20575],[-84.98023,32.20775],[-84.98023,32.21005],[-84.97873,32.21255],[-84.97213,32.21825],[-84.96743,32.21935],[-84.96143,32.21805],[-84.95633,32.21785],[-84.94945,32.21851],[-84.93933,32.21795],[-84.93013,32.21905],[-84.92823,32.21985],[-84.92543,32.22155],[-84.92293,32.22475],[-84.92353,32.22975],[-84.92263,32.23175],[-84.92063,32.23395],[-84.91633,32.23655],[-84.91273,32.24335],[-84.91393,32.24515],[-84.91723,32.24595],[-84.92033,32.24405],[-84.92303,32.24455],[-84.92413,32.24565],[-84.92443,32.2498],[-84.92302,32.25082],[-84.91733,32.24905],[-84.9101,32.24833],[-84.90723,32.24905],[-84.90409,32.25084],[-84.90251,32.25523],[-84.90145,32.25742],[-84.89814,32.25861],[-84.8923,32.25827],[-84.88917,32.25923],[-84.88908,32.26091],[-84.89184,32.2634],[-84.89396,32.26585],[-84.90402,32.27375],[-84.91113,32.27695],[-84.92287,32.28533],[-84.9338,32.29826],[-84.93868,32.30071],[-84.98951,32.31932],[-85.00187,32.32202],[-85.0071,32.32836],[-85.0081,32.33668],[-85.00458,32.3452],[-84.98678,32.35906],[-84.98347,32.36319],[-84.98324,32.36512],[-84.98517,32.36706],[-84.9863,32.36967],[-84.98409,32.37352],[-84.98028,32.37439],[-84.97727,32.37384],[-84.97433,32.37458],[-84.97196,32.3777],[-84.97382,32.37987],[-84.97935,32.3807],[-84.98628,32.38034],[-84.98855,32.38408],[-84.98598,32.38967],[-84.98339,32.39176],[-84.97836,32.3905],[-84.97639,32.39102],[-84.97177,32.3906],[-84.96873,32.39146],[-84.96876,32.39301],[-84.97388,32.39522],[-84.9799,32.4001],[-84.9811,32.40283],[-84.97943,32.41224],[-84.97183,32.41624],[-84.96343,32.42254],[-84.96303,32.42424],[-84.96703,32.43534],[-84.97183,32.44284],[-84.98383,32.44564],[-84.99353,32.45074],[-84.99533,32.45324],[-84.99803,32.46174],[-84.99823,32.46984],[-84.99523,32.47524],[-84.99483,32.48604],[-84.99673,32.49234],[-84.99833,32.49414],[-84.99751,32.50073],[-84.99983,32.50434],[-85.00153,32.51474],[-85.0071,32.52387],[-85.0084,32.52488],[-85.01379,32.52611],[-85.01619,32.53113],[-85.02024,32.53475],[-85.02205,32.54004],[-85.02251,32.54292],[-85.03207,32.54543],[-85.03484,32.552],[-85.04055,32.55564],[-85.04436,32.55958],[-85.05693,32.57124],[-85.05967,32.57674],[-85.06754,32.57955],[-85.0764,32.59466],[-85.08029,32.60358],[-85.08077,32.61015],[-85.08224,32.61626],[-85.08362,32.6178],[-85.08536,32.61854],[-85.08729,32.62047],[-85.08832,32.62303],[-85.08944,32.62543],[-85.08853,32.62787],[-85.08472,32.63047],[-85.08236,32.63383],[-85.08364,32.63597],[-85.08617,32.63536],[-85.09134,32.63404],[-85.0966,32.63467],[-85.10039,32.63712],[-85.10299,32.64103],[-85.10534,32.64484],[-85.10034,32.65013],[-85.09634,32.65284],[-85.08974,32.65563],[-85.08848,32.65776],[-85.09354,32.66973],[-85.10404,32.67963],[-85.11264,32.68343],[-85.11474,32.68563],[-85.11704,32.69203],[-85.11928,32.70397],[-85.11928,32.70772],[-85.119,32.71006],[-85.12274,32.71573],[-85.12084,32.72293],[-85.11884,32.72483],[-85.11734,32.72663],[-85.11504,32.72883],[-85.11317,32.73281],[-85.11333,32.73575],[-85.1148,32.7381],[-85.11855,32.74082],[-85.12409,32.74169],[-85.1276,32.74305],[-85.1322,32.74441],[-85.13658,32.74844],[-85.13958,32.75431],[-85.14257,32.76068],[-85.14057,32.76404],[-85.13738,32.76907],[-85.13439,32.77058],[-85.13088,32.76956],[-85.12219,32.77335],[-85.1236,32.77571],[-85.12622,32.77919],[-85.12993,32.77965],[-85.13467,32.7839],[-85.13929,32.78492],[-85.14056,32.7897],[-85.1419,32.79182],[-85.14577,32.79111],[-85.15191,32.7941],[-85.16214,32.80424],[-85.16794,32.81161],[-85.16608,32.81763],[-85.1641,32.82128],[-85.16802,32.8292],[-85.16465,32.83479],[-85.16058,32.83825],[-85.15743,32.83944],[-85.15458,32.8398],[-85.1539,32.84102],[-85.1535,32.84278],[-85.15339,32.84486],[-85.15426,32.84748],[-85.15588,32.84992],[-85.15984,32.85495],[-85.16109,32.85605],[-85.16231,32.85648],[-85.16432,32.85618],[-85.16676,32.85474],[-85.16806,32.85286],[-85.1701,32.8525],[-85.17713,32.8539],[-85.17935,32.85527],[-85.1844,32.86132],[-85.18489,32.86335],[-85.18491,32.86894],[-85.18413,32.87053],[-85.18474,32.87053],[-85.18874,32.88973],[-85.22187,33.05554],[-85.22326,33.06258],[-85.23238,33.10808],[-85.30444,33.48288],[-85.314,33.52981],[-85.31499,33.5359],[-85.3574,33.7501],[-85.36049,33.76796],[-85.36184,33.77395],[-85.37743,33.85605],[-85.39884,33.96413],[-85.40592,34.0001],[-85.40675,34.00231],[-85.42023,34.07228],[-85.42822,34.1144],[-85.42947,34.1251],[-85.45506,34.25069],[-85.45537,34.25285],[-85.45807,34.26574],[-85.45869,34.26944],[-85.47045,34.32824],[-85.50232,34.47395],[-85.50245,34.47453],[-85.50838,34.50121],[-85.51211,34.51825],[-85.51371,34.52417],[-85.51393,34.52519],[-85.51707,34.5426],[-85.52726,34.58868],[-85.53433,34.62508],[-85.54126,34.6567],[-85.54127,34.65678],[-85.55245,34.70814],[-85.55248,34.70832],[-85.56142,34.75008],[-85.58315,34.86037],[-85.59516,34.92417],[-85.59878,34.94492],[-85.59938,34.95177],[-85.60516,34.98468]]]]}}]}