{"type":"FeatureCollection","features":[{"type":"Feature","properties":{"name":"North Carolina","density":198.2,"STUSPS":"NC"},"geometry":{"type":"MultiPolygon","coordinates":[[[[-75.72681,35.93584],[-75.71827,35.93971],[-75.70532,35.9394],[-75.69115,35.93693],[-75.68636,35.93297],[-75.67525,35.92902],[-75.65954,35.91956],[-75.66294,35.91617],[-75.66202,35.90652],[-75.65348,35.90469],[-75.64852,35.90698],[-75.64512,35.90579],[-75.62767,35.88315],[-75.61683,35.85633],[-75.61977,35.84761],[-75.61436,35.81566],[-75.62045,35.80925],[-75.62423,35.80939],[-75.63898,35.81864],[-75.66789,35.82354],[-75.67505,35.8302],[-75.66009,35.83861],[-75.6606,35.86254],[-75.66336,35.86984],[-75.67283,35.88242],[-75.68142,35.88398],[-75.69767,35.90164],[-75.69687,35.90956],[-75.70216,35.91543],[-75.72378,35.92557],[-75.72725,35.93362],[-75.72681,35.93584]]],[[[-75.73248,35.20035],[-75.7263,35.20171],[-75.72261,35.20129],[-75.7159,35.20355],[-75.70673,35.2084],[-75.70064,35.21145],[-75.69885,35.21548],[-75.69885,35.2182],[-75.69362,35.22189],[-75.69172,35.22539],[-75.68626,35.23102],[-75.68103,35.23335],[-75.68031,35.22927],[-75.68055,35.22616],[-75.67841,35.22247],[-75.67722,35.21937],[-75.67057,35.22053],[-75.66819,35.21898],[-75.65916,35.22189],[-75.65156,35.22597],[-75.64609,35.22849],[-75.64133,35.22869],[-75.6342,35.23296],[-75.62779,35.23898],[-75.62137,35.24286],[-75.61875,35.24694],[-75.60616,35.25256],[-75.5976,35.25703],[-75.59546,35.2611],[-75.59618,35.26693],[-75.59546,35.26926],[-75.58714,35.26576],[-75.57978,35.26304],[-75.57122,35.26343],[-75.56694,35.26596],[-75.55696,35.26693],[-75.54816,35.26906],[-75.54222,35.27042],[-75.53794,35.27294],[-75.53105,35.27236],[-75.52392,35.26964],[-75.52178,35.27178],[-75.52297,35.27663],[-75.52202,35.28032],[-75.51679,35.29293],[-75.51513,35.30088],[-75.51679,35.31058],[-75.51513,35.31581],[-75.51394,35.32202],[-75.51655,35.32648],[-75.51703,35.33656],[-75.5156,35.34219],[-75.5137,35.34626],[-75.5137,35.35692],[-75.51014,35.36196],[-75.50491,35.367],[-75.50087,35.37204],[-75.4973,35.38153],[-75.49516,35.38909],[-75.49611,35.39452],[-75.49706,35.39858],[-75.4954,35.40343],[-75.49421,35.40924],[-75.49231,35.41428],[-75.49255,35.42338],[-75.4916,35.43364],[-75.48779,35.44546],[-75.48613,35.45843],[-75.48518,35.47295],[-75.48565,35.47759],[-75.48494,35.48127],[-75.48328,35.48495],[-75.48375,35.49404],[-75.48589,35.50275],[-75.4866,35.50856],[-75.48803,35.51126],[-75.48613,35.52268],[-75.48304,35.52964],[-75.47615,35.53428],[-75.47615,35.53951],[-75.47401,35.5455],[-75.47282,35.55227],[-75.47377,35.55536],[-75.47275,35.55957],[-75.46998,35.56778],[-75.46871,35.57399],[-75.46958,35.57617],[-75.46885,35.58769],[-75.47167,35.59427],[-75.47187,35.59866],[-75.47092,35.60987],[-75.47258,35.61567],[-75.47139,35.62166],[-75.47591,35.63093],[-75.4809,35.6377],[-75.48431,35.64514],[-75.48472,35.65116],[-75.48538,35.65546],[-75.48751,35.65889],[-75.49112,35.6613],[-75.49207,35.66686],[-75.49587,35.67304],[-75.49564,35.67767],[-75.49896,35.68925],[-75.4992,35.69794],[-75.50443,35.70412],[-75.50752,35.70682],[-75.51047,35.71364],[-75.50753,35.71696],[-75.5079,35.71861],[-75.5122,35.71929],[-75.51311,35.72323],[-75.51028,35.72557],[-75.51036,35.7272],[-75.51343,35.72861],[-75.51353,35.72983],[-75.51059,35.73258],[-75.51183,35.73429],[-75.51402,35.73406],[-75.5175,35.73596],[-75.51956,35.74432],[-75.51674,35.7491],[-75.51692,35.75237],[-75.52142,35.754],[-75.52345,35.7593],[-75.52653,35.76682],[-75.52891,35.77145],[-75.52677,35.77357],[-75.52345,35.77357],[-75.51901,35.76909],[-75.5105,35.75535],[-75.50467,35.74425],[-75.49278,35.71762],[-75.48589,35.69852],[-75.47995,35.67941],[-75.4752,35.66164],[-75.46974,35.63518],[-75.46545,35.61181],[-75.46189,35.59267],[-75.46062,35.57697],[-75.46193,35.55748],[-75.46766,35.5326],[-75.47342,35.50914],[-75.47924,35.4834],[-75.48129,35.46327],[-75.48385,35.43054],[-75.4858,35.40074],[-75.4918,35.37814],[-75.49876,35.35351],[-75.50602,35.3252],[-75.51132,35.29816],[-75.51677,35.27115],[-75.51881,35.25753],[-75.52044,35.25357],[-75.52511,35.24383],[-75.52782,35.22766],[-75.5313,35.22658],[-75.54184,35.23025],[-75.55814,35.23425],[-75.57765,35.2353],[-75.60224,35.23264],[-75.62437,35.22813],[-75.64918,35.22247],[-75.66958,35.21543],[-75.69013,35.20918],[-75.71074,35.20208],[-75.72043,35.19858],[-75.73165,35.19647],[-75.73438,35.19799],[-75.73248,35.20035]]],[[[-76.01528,35.07066],[-76.01076,35.07591],[-76.0072,35.07785],[-76.00007,35.08019],[-75.99436,35.0866],[-75.98866,35.09419],[-75.98557,35.09808],[-75.987,35.10197],[-75.98985,35.1043],[-75.98795,35.10741],[-75.98842,35.11383],[-75.98842,35.11636],[-75.98224,35.12044],[-75.97749,35.12063],[-75.97345,35.11908],[-75.96893,35.11694],[-75.96394,35.1183],[-75.95824,35.11538],[-75.9473,35.11927],[-75.92948,35.13035],[-75.92211,35.13171],[-75.91213,35.13638],[-75.90119,35.14085],[-75.8886,35.14629],[-75.8741,35.15251],[-75.86673,35.15407],[-75.85366,35.15815],[-75.84677,35.16359],[-75.8306,35.16825],[-75.81729,35.17214],[-75.80921,35.17602],[-75.80541,35.17894],[-75.7997,35.17816],[-75.78568,35.18263],[-75.78045,35.18845],[-75.7772,35.18947],[-75.77361,35.18728],[-75.77574,35.1841],[-75.78125,35.18103],[-75.79757,35.17544],[-75.81896,35.16767],[-75.84748,35.15601],[-75.86911,35.14746],[-75.89026,35.13813],[-75.92021,35.12472],[-75.94588,35.11091],[-75.96513,35.09963],[-75.98391,35.0866],[-75.9965,35.07746],[-76.00197,35.07299],[-76.00292,35.06793],[-76.0091,35.06599],[-76.01243,35.06813],[-76.01528,35.07066]]],[[[-76.28151,35.31733],[-76.2824,35.31927],[-76.28003,35.32105],[-76.27805,35.32445],[-76.27785,35.32687],[-76.27913,35.32824],[-76.27963,35.33051],[-76.27775,35.33059],[-76.27418,35.33018],[-76.27349,35.328],[-76.27062,35.32622],[-76.26834,35.32493],[-76.26735,35.32307],[-76.26656,35.32016],[-76.26537,35.31814],[-76.2624,35.31386],[-76.26468,35.31216],[-76.26676,35.31152],[-76.26943,35.30998],[-76.27121,35.3103],[-76.27666,35.31224],[-76.28072,35.31378],[-76.2825,35.31507],[-76.28151,35.31733]]],[[[-76.33014,34.84794],[-76.32862,34.84981],[-76.32605,34.84966],[-76.32358,34.8488],[-76.3212,34.85052],[-76.32092,34.8534],[-76.31787,34.85442],[-76.31588,34.85855],[-76.31331,34.8598],[-76.31036,34.86144],[-76.30884,34.86355],[-76.30637,34.86448],[-76.30466,34.86628],[-76.30171,34.86799],[-76.30086,34.86955],[-76.29743,34.8722],[-76.2961,34.87649],[-76.29439,34.88047],[-76.29182,34.8857],[-76.28916,34.88866],[-76.28707,34.88928],[-76.28564,34.8878],[-76.28641,34.88507],[-76.28564,34.88398],[-76.28336,34.88265],[-76.27975,34.88398],[-76.27623,34.88585],[-76.27376,34.88975],[-76.26939,34.89272],[-76.26558,34.89591],[-76.26463,34.89802],[-76.26254,34.89989],[-76.25941,34.90082],[-76.25693,34.90238],[-76.25475,34.90332],[-76.25399,34.90543],[-76.25408,34.90667],[-76.25218,34.90815],[-76.24952,34.90971],[-76.24676,34.91018],[-76.244,34.91291],[-76.23811,34.91774],[-76.23535,34.92032],[-76.23126,34.92297],[-76.22908,34.92468],[-76.22698,34.92569],[-76.22432,34.92936],[-76.22299,34.93107],[-76.22043,34.93302],[-76.21805,34.93622],[-76.2133,34.9405],[-76.21092,34.94214],[-76.20883,34.94463],[-76.2055,34.94565],[-76.20322,34.94822],[-76.20084,34.95009],[-76.20084,34.95235],[-76.19808,34.95484],[-76.19732,34.95663],[-76.1959,34.95897],[-76.19304,34.96053],[-76.19086,34.9631],[-76.1882,34.96466],[-76.18506,34.96778],[-76.18173,34.96918],[-76.18002,34.97113],[-76.17745,34.97144],[-76.17574,34.97222],[-76.1765,34.97432],[-76.17508,34.97689],[-76.17317,34.97845],[-76.17156,34.98047],[-76.16918,34.97985],[-76.16642,34.98055],[-76.16576,34.98351],[-76.16329,34.98468],[-76.15996,34.98452],[-76.15758,34.98491],[-76.15483,34.98452],[-76.15178,34.98678],[-76.15245,34.98904],[-76.15273,34.99208],[-76.15178,34.99457],[-76.1496,34.99668],[-76.14655,34.99854],[-76.14399,35.00088],[-76.14389,35.00322],[-76.14132,35.00571],[-76.13895,35.0068],[-76.13591,35.0103],[-76.13248,35.01241],[-76.12935,35.01334],[-76.12802,35.0142],[-76.12345,35.01677],[-76.12069,35.01817],[-76.11794,35.02198],[-76.11375,35.02268],[-76.1129,35.02549],[-76.111,35.02736],[-76.11062,35.03187],[-76.10814,35.0346],[-76.10368,35.03693],[-76.09873,35.03693],[-76.09721,35.03989],[-76.09445,35.0416],[-76.09255,35.04394],[-76.08885,35.04518],[-76.08609,35.04806],[-76.08514,35.0511],[-76.08704,35.05281],[-76.08457,35.05717],[-76.08343,35.05904],[-76.08115,35.06075],[-76.08,35.0623],[-76.07791,35.06378],[-76.07573,35.06635],[-76.07677,35.06783],[-76.07592,35.06993],[-76.07211,35.07195],[-76.06831,35.0725],[-76.06479,35.07312],[-76.06051,35.07187],[-76.05785,35.0718],[-76.05395,35.07141],[-76.04854,35.06915],[-76.04188,35.06448],[-76.03779,35.06191],[-76.03675,35.05974],[-76.03751,35.05701],[-76.04188,35.05398],[-76.05063,35.04931],[-76.05928,35.04604],[-76.06393,35.04359],[-76.07411,35.03903],[-76.08096,35.03491],[-76.09645,35.02377],[-76.111,35.01279],[-76.12925,34.99893],[-76.15825,34.97658],[-76.18563,34.95593],[-76.21415,34.93209],[-76.23174,34.91696],[-76.24258,34.90776],[-76.25769,34.89646],[-76.27566,34.88359],[-76.28678,34.8754],[-76.30019,34.86604],[-76.31302,34.85559],[-76.32263,34.8481],[-76.3271,34.84506],[-76.32881,34.84466],[-76.33033,34.84521],[-76.33014,34.84794]]],[[[-76.54757,34.71063],[-76.54543,34.71238],[-76.5383,34.71199],[-76.53426,34.71082],[-76.52641,34.70965],[-76.5219,34.70965],[-76.51952,34.70711],[-76.52095,34.703],[-76.52285,34.6991],[-76.52594,34.6991],[-76.5295,34.69949],[-76.53545,34.70066],[-76.53949,34.70125],[-76.544,34.70125],[-76.54685,34.70398],[-76.54685,34.70633],[-76.54757,34.71063]]],[[[-76.55363,34.62317],[-76.55389,34.62795],[-76.55181,34.63045],[-76.55041,34.63092],[-76.5503,34.62747],[-76.55059,34.6241],[-76.55182,34.62019],[-76.55059,34.61604],[-76.54745,34.6137],[-76.54041,34.61386],[-76.53709,34.61284],[-76.53823,34.61112],[-76.5368,34.60971],[-76.53224,34.61049],[-76.52948,34.61432],[-76.52815,34.61738],[-76.52824,34.62129],[-76.52463,34.62363],[-76.52216,34.627],[-76.52073,34.63091],[-76.51503,34.63787],[-76.51123,34.64413],[-76.50837,34.64874],[-76.506,34.65602],[-76.50134,34.66087],[-76.50058,34.66392],[-76.49773,34.66681],[-76.49991,34.66994],[-76.50305,34.67252],[-76.502,34.67471],[-76.49725,34.67611],[-76.49383,34.67885],[-76.49145,34.68581],[-76.48907,34.68948],[-76.48575,34.69136],[-76.48337,34.69644],[-76.47881,34.70019],[-76.47643,34.70082],[-76.47519,34.70324],[-76.47196,34.70605],[-76.47443,34.70902],[-76.47396,34.71137],[-76.46958,34.71293],[-76.46616,34.71582],[-76.46445,34.71942],[-76.4616,34.72239],[-76.45827,34.72325],[-76.45437,34.72528],[-76.45143,34.72504],[-76.44876,34.72723],[-76.4481,34.72918],[-76.44515,34.73176],[-76.44154,34.73379],[-76.44182,34.73598],[-76.44173,34.7395],[-76.44011,34.74106],[-76.43783,34.74247],[-76.43907,34.74559],[-76.44078,34.74715],[-76.43926,34.75028],[-76.43774,34.75395],[-76.43878,34.75723],[-76.43973,34.75848],[-76.43812,34.76129],[-76.43336,34.76262],[-76.43232,34.76512],[-76.42985,34.76535],[-76.4249,34.76434],[-76.42224,34.76278],[-76.41853,34.76207],[-76.41644,34.76457],[-76.41359,34.76512],[-76.41254,34.76777],[-76.41349,34.7702],[-76.41425,34.77238],[-76.41245,34.7748],[-76.4134,34.77785],[-76.41397,34.77918],[-76.41283,34.78066],[-76.40807,34.78386],[-76.40284,34.78386],[-76.40294,34.78667],[-76.40256,34.78886],[-76.40256,34.79136],[-76.39952,34.79307],[-76.39762,34.79214],[-76.38934,34.79159],[-76.38735,34.79323],[-76.38326,34.79495],[-76.38003,34.79893],[-76.37641,34.80361],[-76.37347,34.80721],[-76.37242,34.81056],[-76.36653,34.81446],[-76.36396,34.81712],[-76.36444,34.82001],[-76.36368,34.82336],[-76.35883,34.82523],[-76.35464,34.82656],[-76.35265,34.82851],[-76.3478,34.82906],[-76.34656,34.8314],[-76.34333,34.83335],[-76.34038,34.83663],[-76.33753,34.83881],[-76.33734,34.83671],[-76.34,34.83366],[-76.34514,34.82843],[-76.35284,34.82016],[-76.36586,34.80705],[-76.37793,34.79526],[-76.39229,34.78074],[-76.39933,34.77324],[-76.42186,34.74723],[-76.4345,34.73411],[-76.45086,34.71512],[-76.46388,34.70003],[-76.47738,34.68401],[-76.48812,34.67103],[-76.49668,34.66024],[-76.50296,34.65078],[-76.5097,34.63826],[-76.51788,34.62559],[-76.52454,34.61573],[-76.531,34.60321],[-76.533,34.59703],[-76.53547,34.59155],[-76.54108,34.59922],[-76.54878,34.60806],[-76.55296,34.61464],[-76.55477,34.61949],[-76.55363,34.62317]]],[[[-76.58631,34.71395],[-76.57918,34.71414],[-76.57324,34.71277],[-76.56872,34.71297],[-76.56064,34.71004],[-76.56159,34.70672],[-76.56492,34.70457],[-76.56421,34.70222],[-76.55731,34.70027],[-76.55541,34.69949],[-76.55541,34.69675],[-76.55303,34.69695],[-76.54495,34.69675],[-76.53806,34.69597],[-76.52594,34.69187],[-76.52523,34.68854],[-76.5257,34.68522],[-76.52808,34.68385],[-76.53283,34.68679],[-76.53901,34.68854],[-76.54638,34.69011],[-76.55874,34.69343],[-76.56611,34.69519],[-76.57443,34.69714],[-76.58156,34.6991],[-76.58464,34.70183],[-76.58583,34.70652],[-76.58726,34.7118],[-76.58631,34.71395]]],[[[-76.66549,34.68974],[-76.66315,34.68925],[-76.65925,34.69019],[-76.65469,34.68972],[-76.65269,34.68925],[-76.6507,34.68901],[-76.64851,34.6869],[-76.64708,34.68635],[-76.64433,34.68667],[-76.63663,34.68503],[-76.63501,34.6851],[-76.62931,34.68362],[-76.62341,34.6808],[-76.61486,34.67768],[-76.61134,34.67572],[-76.60601,34.67377],[-76.5986,34.67228],[-76.59593,34.67041],[-76.59204,34.66994],[-76.58928,34.67197],[-76.58785,34.67119],[-76.58538,34.669],[-76.58329,34.66681],[-76.58025,34.66501],[-76.57492,34.66392],[-76.5716,34.66235],[-76.56551,34.65962],[-76.56466,34.65797],[-76.56218,34.65719],[-76.55781,34.65453],[-76.5522,34.65234],[-76.54849,34.65203],[-76.54146,34.65046],[-76.54022,34.64812],[-76.53756,34.64679],[-76.53366,34.64523],[-76.53024,34.64358],[-76.53091,34.63889],[-76.53043,34.63631],[-76.52872,34.63341],[-76.52881,34.63154],[-76.53015,34.63013],[-76.53224,34.63036],[-76.53557,34.63169],[-76.53861,34.63498],[-76.54241,34.6403],[-76.54735,34.64554],[-76.55315,34.64945],[-76.56104,34.65359],[-76.57055,34.65828],[-76.58567,34.66392],[-76.59917,34.66806],[-76.60782,34.67033],[-76.61989,34.67353],[-76.63064,34.67588],[-76.64376,34.6783],[-76.65041,34.67994],[-76.65583,34.68315],[-76.66049,34.68596],[-76.66496,34.68823],[-76.66549,34.68974]]],[[[-77.09848,34.64702],[-77.09763,34.64827],[-77.09544,34.6489],[-77.09525,34.65054],[-77.09563,34.65312],[-77.09468,34.65398],[-77.09297,34.65305],[-77.09154,34.65305],[-77.0886,34.65461],[-77.08831,34.65602],[-77.08565,34.6568],[-77.08327,34.65719],[-77.08156,34.65883],[-77.07538,34.66087],[-77.07006,34.66227],[-77.06787,34.66384],[-77.0654,34.66384],[-77.06293,34.66431],[-77.05818,34.66579],[-77.04838,34.66783],[-77.04563,34.669],[-77.03517,34.67134],[-77.02861,34.6722],[-77.02481,34.6733],[-77.01853,34.67471],[-77.01463,34.67603],[-77.01302,34.67549],[-77.01244,34.67408],[-77.01026,34.67189],[-77.00836,34.67173],[-77.00513,34.67275],[-77.00237,34.67197],[-77.00009,34.67299],[-76.9979,34.67345],[-76.99201,34.67314],[-76.98744,34.67463],[-76.98507,34.67447],[-76.98221,34.67518],[-76.97898,34.67541],[-76.97499,34.6769],[-76.97261,34.6769],[-76.96824,34.67674],[-76.96472,34.67783],[-76.96073,34.67822],[-76.95597,34.6783],[-76.9515,34.67885],[-76.9478,34.67869],[-76.94571,34.67947],[-76.93335,34.68127],[-76.93144,34.68237],[-76.92821,34.6826],[-76.92156,34.68292],[-76.91176,34.6844],[-76.90806,34.68503],[-76.90416,34.68651],[-76.89969,34.68909],[-76.89807,34.69026],[-76.89208,34.69136],[-76.89037,34.6912],[-76.88762,34.69034],[-76.88362,34.68948],[-76.88134,34.68987],[-76.88011,34.69019],[-76.87782,34.69042],[-76.8744,34.69214],[-76.8706,34.69347],[-76.86889,34.69417],[-76.86499,34.69362],[-76.86157,34.69386],[-76.8589,34.69339],[-76.85596,34.69402],[-76.85415,34.69433],[-76.85073,34.69417],[-76.84873,34.69527],[-76.84426,34.69527],[-76.84122,34.69667],[-76.83751,34.69808],[-76.8339,34.69964],[-76.83057,34.70191],[-76.82762,34.70347],[-76.82496,34.70394],[-76.82221,34.70472],[-76.81698,34.70347],[-76.80947,34.70324],[-76.80509,34.70379],[-76.8012,34.70347],[-76.79768,34.70347],[-76.79264,34.70441],[-76.7896,34.70394],[-76.78465,34.70347],[-76.78152,34.70418],[-76.77657,34.70316],[-76.77267,34.70269],[-76.76963,34.70293],[-76.76668,34.69996],[-76.76279,34.70105],[-76.75746,34.70246],[-76.75204,34.70269],[-76.74757,34.70199],[-76.74577,34.70308],[-76.74615,34.70973],[-76.74558,34.71215],[-76.74206,34.71238],[-76.73864,34.71137],[-76.73674,34.71098],[-76.73474,34.70887],[-76.73331,34.70668],[-76.73217,34.70433],[-76.73255,34.70222],[-76.73056,34.70082],[-76.72742,34.70175],[-76.72466,34.70332],[-76.72029,34.70324],[-76.71601,34.70426],[-76.71126,34.70402],[-76.70784,34.70293],[-76.70565,34.70097],[-76.70261,34.6998],[-76.70127,34.7016],[-76.70318,34.70441],[-76.70365,34.70793],[-76.70194,34.71106],[-76.6989,34.71231],[-76.6969,34.71129],[-76.69338,34.70746],[-76.68806,34.70183],[-76.68568,34.69941],[-76.68264,34.69816],[-76.68112,34.69988],[-76.67779,34.69917],[-76.67599,34.69769],[-76.6757,34.69566],[-76.67627,34.69433],[-76.6777,34.69362],[-76.68283,34.69394],[-76.68806,34.69378],[-76.69357,34.69378],[-76.69821,34.69407],[-76.70595,34.69527],[-76.71306,34.69597],[-76.72067,34.6966],[-76.72505,34.69701],[-76.73354,34.69742],[-76.7432,34.69771],[-76.76297,34.69745],[-76.77945,34.69678],[-76.79813,34.6956],[-76.81516,34.69419],[-76.84739,34.69081],[-76.85693,34.68961],[-76.87794,34.68708],[-76.89608,34.68457],[-76.91967,34.68095],[-76.93535,34.67859],[-76.95275,34.67578],[-76.96211,34.67437],[-76.96932,34.6732],[-76.99412,34.6688],[-77.01427,34.66485],[-77.03363,34.6605],[-77.05577,34.6552],[-77.07485,34.65027],[-77.08133,34.64848],[-77.08679,34.64679],[-77.09298,34.64459],[-77.09744,34.64429],[-77.09877,34.64569],[-77.09848,34.64702]]],[[[-77.17131,34.62567],[-77.16722,34.62817],[-77.16161,34.63044],[-77.14811,34.63654],[-77.13518,34.641],[-77.1311,34.6421],[-77.12777,34.64405],[-77.12539,34.64436],[-77.12406,34.64569],[-77.12349,34.64718],[-77.12121,34.64796],[-77.11626,34.64718],[-77.1117,34.64585],[-77.11037,34.64515],[-77.11199,34.64327],[-77.11498,34.6415],[-77.1168,34.64058],[-77.1187,34.63854],[-77.12596,34.63693],[-77.13547,34.63459],[-77.14707,34.63083],[-77.15705,34.62708],[-77.16608,34.62371],[-77.16922,34.62238],[-77.17122,34.62223],[-77.17245,34.62332],[-77.17131,34.62567]]],[[[-77.23025,34.59844],[-77.22807,34.59938],[-77.22417,34.60055],[-77.22113,34.60313],[-77.21466,34.60673],[-77.20687,34.61073],[-77.2024,34.61284],[-77.19764,34.61339],[-77.19204,34.6155],[-77.18586,34.61863],[-77.18139,34.62066],[-77.17949,34.62043],[-77.1793,34.6191],[-77.1812,34.61785],[-77.18823,34.61511],[-77.19631,34.61174],[-77.20297,34.609],[-77.20981,34.6058],[-77.21657,34.60235],[-77.22265,34.59883],[-77.22693,34.59672],[-77.2293,34.59703],[-77.23025,34.59844]]],[[[-81.67754,36.58812],[-81.60093,36.58702],[-81.52103,36.58052],[-81.48939,36.57903],[-81.46234,36.57815],[-81.44223,36.57682],[-81.37482,36.57467],[-81.35332,36.57472],[-81.30751,36.57502],[-81.2623,36.57392],[-81.24982,36.57323],[-81.17671,36.57193],[-81.17121,36.57103],[-81.14181,36.56953],[-81.12481,36.56923],[-81.08321,36.56733],[-81.05884,36.56698],[-81.0114,36.56443],[-81.0038,36.56363],[-80.94599,36.5632],[-80.94434,36.56306],[-80.90173,36.56175],[-80.83764,36.55912],[-80.83709,36.55915],[-80.80392,36.56081],[-80.77366,36.56031],[-80.73035,36.56235],[-80.70483,36.56232],[-80.65335,36.55922],[-80.62479,36.55841],[-80.4401,36.55063],[-80.43263,36.5503],[-80.43161,36.55022],[-80.29524,36.54397],[-80.22826,36.54387],[-80.22541,36.54375],[-80.17164,36.54322],[-80.16953,36.54319],[-80.12218,36.54265],[-80.02727,36.5425],[-79.96751,36.5425],[-79.96698,36.54248],[-79.90466,36.54244],[-79.88726,36.54284],[-79.66731,36.54177],[-79.66683,36.54177],[-79.51065,36.54074],[-79.44596,36.5412],[-79.44569,36.54122],[-79.24974,36.54114],[-79.20948,36.54159],[-79.20869,36.54157],[-79.13794,36.54174],[-79.12608,36.54153],[-79.12474,36.54157],[-78.97181,36.54212],[-78.97058,36.54215],[-78.94225,36.54208],[-78.94201,36.54211],[-78.91542,36.54197],[-78.7963,36.54171],[-78.76543,36.54173],[-78.75839,36.54185],[-78.67005,36.54203],[-78.66332,36.54201],[-78.6053,36.54109],[-78.53301,36.541],[-78.52972,36.54098],[-78.50996,36.54107],[-78.47079,36.54232],[-78.45697,36.54247],[-78.4412,36.54269],[-78.43633,36.54267],[-78.32391,36.54381],[-78.24668,36.54434],[-78.24546,36.54441],[-78.13332,36.54385],[-78.13291,36.54381],[-78.03942,36.5442],[-78.03894,36.54417],[-77.89977,36.54466],[-77.88236,36.54474],[-77.87528,36.54475],[-77.74971,36.54552],[-77.20516,36.54458],[-77.19017,36.54616],[-77.16966,36.54731],[-77.15269,36.54408],[-77.12481,36.54399],[-77.09506,36.54463],[-76.91605,36.54382],[-76.91732,36.54605],[-76.91699,36.55074],[-76.9159,36.55209],[-76.80708,36.55061],[-76.7813,36.55066],[-76.74968,36.55038],[-76.73833,36.55098],[-76.5755,36.55074],[-76.54169,36.55031],[-76.46527,36.55095],[-76.31321,36.55055],[-76.19715,36.55047],[-76.0451,36.55052],[-76.02147,36.55046],[-75.99775,36.55045],[-75.96816,36.55056],[-75.95891,36.55055],[-75.92205,36.55065],[-75.90475,36.55065],[-75.89038,36.55049],[-75.86765,36.55041],[-75.86177,36.51766],[-75.8577,36.50083],[-75.83632,36.42296],[-75.81874,36.35758],[-75.79641,36.29035],[-75.77251,36.22944],[-75.75964,36.2047],[-75.73843,36.15428],[-75.71831,36.11367],[-75.69674,36.0775],[-75.65854,36.02043],[-75.56979,35.8633],[-75.5523,35.82217],[-75.54546,35.80505],[-75.53633,35.79261],[-75.53686,35.78888],[-75.54206,35.78822],[-75.54581,35.7937],[-75.55745,35.79603],[-75.56306,35.79926],[-75.56309,35.80628],[-75.56872,35.80786],[-75.57048,35.80883],[-75.57062,35.81122],[-75.56934,35.81484],[-75.57309,35.81781],[-75.57599,35.82309],[-75.57399,35.82586],[-75.57048,35.82833],[-75.57138,35.83111],[-75.57537,35.83373],[-75.58888,35.84493],[-75.59448,35.85334],[-75.59938,35.86767],[-75.60218,35.87441],[-75.60894,35.87818],[-75.61759,35.88909],[-75.62291,35.89232],[-75.62224,35.8996],[-75.62129,35.90078],[-75.61221,35.90526],[-75.61478,35.91177],[-75.6154,35.92643],[-75.6298,35.94602],[-75.64454,35.96442],[-75.66022,35.96961],[-75.66707,35.97138],[-75.66869,35.97315],[-75.66797,35.98],[-75.67349,35.98819],[-75.67621,35.99062],[-75.68229,35.99585],[-75.68731,35.99673],[-75.69691,35.99421],[-75.7057,35.99873],[-75.71141,36.00325],[-75.72757,36.00344],[-75.72983,36.00729],[-75.72709,36.01051],[-75.72733,36.02199],[-75.72294,36.02459],[-75.71058,36.02564],[-75.71105,36.0317],[-75.70642,36.0392],[-75.71521,36.04832],[-75.71925,36.04621],[-75.72674,36.04563],[-75.72935,36.04429],[-75.73221,36.04066],[-75.73709,36.04078],[-75.73827,36.05034],[-75.74141,36.05637],[-75.73946,36.06685],[-75.73972,36.07527],[-75.74267,36.09242],[-75.75193,36.12237],[-75.75134,36.12698],[-75.74528,36.13149],[-75.74587,36.14406],[-75.75027,36.15375],[-75.75735,36.16688],[-75.75776,36.17007],[-75.75776,36.17803],[-75.76275,36.19165],[-75.76726,36.20498],[-75.77237,36.21754],[-75.78212,36.2208],[-75.78557,36.21696],[-75.794,36.2254],[-75.79853,36.2308],[-75.80197,36.24246],[-75.81088,36.24908],[-75.81185,36.2477],[-75.81112,36.25454],[-75.80817,36.25955],[-75.80387,36.26767],[-75.80684,36.28491],[-75.81314,36.29171],[-75.82027,36.29219],[-75.8337,36.29363],[-75.84212,36.30086],[-75.84529,36.30561],[-75.85081,36.31968],[-75.85176,36.32418],[-75.84594,36.3326],[-75.83869,36.33146],[-75.82312,36.32255],[-75.82205,36.32801],[-75.82348,36.33988],[-75.82383,36.34715],[-75.83215,36.35605],[-75.83191,36.36027],[-75.82894,36.36572],[-75.83405,36.37185],[-75.84772,36.37845],[-75.84855,36.38017],[-75.84225,36.38438],[-75.84095,36.39165],[-75.84071,36.39739],[-75.84974,36.40016],[-75.84606,36.41145],[-75.84332,36.41996],[-75.8558,36.42436],[-75.86281,36.43086],[-75.86495,36.43775],[-75.87113,36.4387],[-75.87707,36.43631],[-75.88306,36.43772],[-75.88833,36.44158],[-75.88741,36.44884],[-75.8924,36.46136],[-75.89787,36.46509],[-75.89991,36.48212],[-75.90728,36.48581],[-75.91307,36.48634],[-75.91728,36.48581],[-75.92413,36.48212],[-75.92733,36.48282],[-75.93547,36.4906],[-75.95462,36.49146],[-75.96115,36.49479],[-75.97255,36.49467],[-75.97522,36.48803],[-75.97689,36.48756],[-75.9891,36.49514],[-75.98242,36.50426],[-75.981,36.51133],[-75.98623,36.52566],[-75.99621,36.52814],[-75.99882,36.53444],[-76.00263,36.53711],[-76.03067,36.53883],[-76.03186,36.53253],[-76.02853,36.52699],[-76.02616,36.52374],[-76.02639,36.51649],[-76.03519,36.51343],[-76.04256,36.51056],[-76.04018,36.50483],[-76.03923,36.50006],[-76.03638,36.49509],[-76.03376,36.49012],[-76.03195,36.4825],[-76.02022,36.45862],[-76.01234,36.44746],[-76.00391,36.44186],[-75.98987,36.43681],[-75.98005,36.43546],[-75.97605,36.43863],[-75.97197,36.43717],[-75.96602,36.42761],[-75.95628,36.40083],[-75.94824,36.39586],[-75.94066,36.39871],[-75.94101,36.40622],[-75.94434,36.41057],[-75.93769,36.4205],[-75.93352,36.42337],[-75.93411,36.42745],[-75.93242,36.42861],[-75.92942,36.4266],[-75.92451,36.42545],[-75.9231,36.41992],[-75.92391,36.4181],[-75.92084,36.40882],[-75.923,36.39988],[-75.91641,36.38901],[-75.91695,36.38317],[-75.92351,36.3678],[-75.92333,36.36186],[-75.91776,36.35359],[-75.91533,36.35233],[-75.90988,36.34344],[-75.90565,36.33404],[-75.89529,36.31961],[-75.88821,36.29341],[-75.88338,36.28474],[-75.87262,36.28227],[-75.86476,36.28499],[-75.85965,36.28321],[-75.85679,36.28066],[-75.85683,36.27796],[-75.86331,36.27371],[-75.86237,36.26294],[-75.8679,36.26024],[-75.87233,36.25475],[-75.87072,36.25224],[-75.86929,36.2463],[-75.8643,36.24515],[-75.86535,36.23602],[-75.86226,36.2333],[-75.86386,36.22931],[-75.8583,36.22178],[-75.8488,36.21545],[-75.84437,36.21722],[-75.84118,36.21651],[-75.83681,36.20383],[-75.83011,36.19651],[-75.82851,36.19013],[-75.82913,36.18924],[-75.83099,36.18973],[-75.83644,36.1988],[-75.83883,36.20038],[-75.84286,36.19925],[-75.84517,36.19523],[-75.84517,36.19185],[-75.84102,36.18855],[-75.84026,36.1772],[-75.83486,36.17169],[-75.83482,36.16891],[-75.83429,36.16762],[-75.83247,36.16735],[-75.83128,36.16601],[-75.83105,36.16373],[-75.82471,36.16285],[-75.82394,36.16023],[-75.82505,36.15766],[-75.8228,36.15496],[-75.82353,36.1505],[-75.82501,36.1497],[-75.82558,36.14618],[-75.82244,36.14284],[-75.81755,36.14064],[-75.80677,36.1237],[-75.80677,36.1197],[-75.79943,36.11767],[-75.79903,36.11394],[-75.80155,36.11191],[-75.80322,36.1063],[-75.80248,36.10219],[-75.80302,36.09872],[-75.79645,36.09258],[-75.78983,36.07902],[-75.79071,36.07799],[-75.79324,36.07784],[-75.79627,36.07467],[-75.7965,36.07284],[-75.79817,36.0722],[-75.83404,36.09357],[-75.84397,36.10028],[-75.84539,36.10301],[-75.84932,36.10481],[-75.86674,36.12748],[-75.86433,36.1308],[-75.86573,36.13624],[-75.86404,36.14636],[-75.86155,36.15019],[-75.86287,36.15961],[-75.87171,36.17304],[-75.87159,36.17572],[-75.87503,36.18414],[-75.89267,36.19814],[-75.89573,36.19868],[-75.90013,36.20303],[-75.89642,36.2083],[-75.89776,36.20952],[-75.90657,36.20876],[-75.90979,36.21255],[-75.90717,36.21836],[-75.91331,36.22333],[-75.91673,36.23792],[-75.92329,36.24595],[-75.94704,36.25866],[-75.95861,36.25968],[-75.95948,36.26433],[-75.96173,36.26681],[-75.96525,36.26684],[-75.96891,36.26422],[-75.96708,36.255],[-75.96066,36.25101],[-75.95723,36.24572],[-75.95097,36.23546],[-75.94787,36.22439],[-75.94984,36.2154],[-75.95547,36.20495],[-75.9586,36.2024],[-75.95995,36.19888],[-75.94408,36.18737],[-75.94194,36.18463],[-75.94257,36.18143],[-75.93643,36.17756],[-75.91719,36.17263],[-75.91256,36.16782],[-75.91338,36.16544],[-75.92463,36.16455],[-75.93464,36.1659],[-75.96165,36.17197],[-76.00071,36.18013],[-76.01699,36.18637],[-76.01894,36.18832],[-76.02439,36.19569],[-76.02616,36.202],[-76.04232,36.21102],[-76.04417,36.21975],[-76.0466,36.2208],[-76.05001,36.23107],[-76.05396,36.23483],[-76.05933,36.23469],[-76.06484,36.23713],[-76.07958,36.23824],[-76.08415,36.24821],[-76.09768,36.25569],[-76.10158,36.2592],[-76.10568,36.27244],[-76.1124,36.27556],[-76.12655,36.28552],[-76.12823,36.28919],[-76.13102,36.29099],[-76.13495,36.29007],[-76.13598,36.28884],[-76.15442,36.28942],[-76.16438,36.2923],[-76.16523,36.29712],[-76.17283,36.30239],[-76.1854,36.3011],[-76.19547,36.2965],[-76.2018,36.29964],[-76.21478,36.30061],[-76.21837,36.29927],[-76.21788,36.29662],[-76.20589,36.29284],[-76.20258,36.28622],[-76.19528,36.28711],[-76.19041,36.28603],[-76.1886,36.27967],[-76.17594,36.26808],[-76.17391,36.26359],[-76.16067,36.26305],[-76.15584,36.26383],[-76.14428,36.25889],[-76.13671,36.25039],[-76.13513,36.24152],[-76.12599,36.23288],[-76.12099,36.22176],[-76.11719,36.21351],[-76.10697,36.21121],[-76.08011,36.19944],[-76.07716,36.19297],[-76.07464,36.18282],[-76.06894,36.16805],[-76.06062,36.15462],[-76.05927,36.14928],[-76.06422,36.14377],[-76.07167,36.14018],[-76.09256,36.13579],[-76.12575,36.13104],[-76.14642,36.13005],[-76.16663,36.12371],[-76.17494,36.12352],[-76.17946,36.12544],[-76.18754,36.12544],[-76.19659,36.13233],[-76.20687,36.13752],[-76.21488,36.1454],[-76.21654,36.15078],[-76.22818,36.15849],[-76.23312,36.1652],[-76.23175,36.16786],[-76.23698,36.17189],[-76.24788,36.17515],[-76.24968,36.17779],[-76.2491,36.18493],[-76.25457,36.18743],[-76.2605,36.18841],[-76.26598,36.18724],[-76.26978,36.19069],[-76.27715,36.19088],[-76.27881,36.188],[-76.27699,36.18495],[-76.27715,36.18071],[-76.27002,36.17899],[-76.26907,36.17285],[-76.26476,36.17066],[-76.25956,36.16536],[-76.25124,36.1621],[-76.24601,36.15865],[-76.24459,36.155],[-76.23643,36.14611],[-76.23603,36.13754],[-76.22853,36.13065],[-76.22747,36.12525],[-76.21891,36.11815],[-76.21036,36.11546],[-76.20038,36.10893],[-76.19172,36.1072],[-76.19681,36.10355],[-76.20656,36.10144],[-76.21369,36.09606],[-76.22466,36.09716],[-76.2289,36.0999],[-76.23372,36.09786],[-76.23871,36.09857],[-76.24173,36.10202],[-76.2491,36.10471],[-76.25148,36.10259],[-76.2579,36.10643],[-76.26336,36.10586],[-76.28446,36.11459],[-76.28856,36.11968],[-76.29687,36.12295],[-76.30934,36.12488],[-76.3147,36.12851],[-76.31898,36.13235],[-76.32326,36.13485],[-76.32896,36.13427],[-76.33609,36.13562],[-76.33989,36.13811],[-76.3475,36.1383],[-76.35463,36.13946],[-76.35938,36.14003],[-76.36533,36.13773],[-76.37357,36.13821],[-76.37938,36.14289],[-76.38268,36.14924],[-76.38768,36.15572],[-76.39028,36.16249],[-76.4008,36.16798],[-76.40502,36.17208],[-76.41666,36.17745],[-76.42094,36.1811],[-76.42736,36.18071],[-76.43497,36.18992],[-76.43806,36.19184],[-76.44471,36.19165],[-76.44994,36.19337],[-76.45469,36.1928],[-76.45802,36.18532],[-76.44923,36.17745],[-76.44257,36.17477],[-76.43687,36.16958],[-76.43568,36.16249],[-76.43021,36.16076],[-76.42554,36.16089],[-76.40288,36.14464],[-76.39633,36.13918],[-76.39504,36.13427],[-76.38919,36.13324],[-76.38288,36.12754],[-76.38196,36.12295],[-76.37174,36.11776],[-76.36509,36.11988],[-76.3601,36.12103],[-76.34642,36.12102],[-76.34536,36.11392],[-76.34061,36.11315],[-76.33966,36.10912],[-76.33609,36.10855],[-76.32872,36.10451],[-76.31589,36.10086],[-76.30923,36.10106],[-76.30258,36.10029],[-76.30401,36.09453],[-76.31133,36.0909],[-76.31779,36.09049],[-76.32326,36.08781],[-76.32348,36.08488],[-76.3319,36.08383],[-76.33489,36.08532],[-76.33657,36.08838],[-76.34703,36.08877],[-76.35507,36.08646],[-76.36937,36.08531],[-76.3841,36.08108],[-76.40424,36.07879],[-76.4112,36.0807],[-76.41215,36.07244],[-76.40811,36.06802],[-76.41461,36.06427],[-76.41975,36.0636],[-76.43093,36.05611],[-76.43877,36.04707],[-76.44352,36.04515],[-76.45142,36.03907],[-76.45612,36.03381],[-76.45879,36.02802],[-76.46032,36.02414],[-76.49153,36.01728],[-76.50651,36.01132],[-76.51411,36.00652],[-76.54549,36.01017],[-76.56331,36.01094],[-76.57282,36.0094],[-76.58043,36.01055],[-76.58851,36.01824],[-76.5934,36.02296],[-76.59326,36.02574],[-76.60324,36.03535],[-76.60538,36.04727],[-76.60681,36.05418],[-76.61085,36.05553],[-76.61632,36.05457],[-76.62012,36.04996],[-76.62345,36.04477],[-76.62844,36.04227],[-76.63557,36.03708],[-76.63985,36.03593],[-76.65223,36.03529],[-76.66123,36.03837],[-76.66314,36.04189],[-76.67648,36.04361],[-76.68926,36.06149],[-76.6919,36.06629],[-76.6929,36.07531],[-76.68881,36.07897],[-76.69071,36.08492],[-76.69261,36.09107],[-76.68833,36.09626],[-76.68857,36.10701],[-76.69142,36.11047],[-76.69523,36.10874],[-76.70497,36.10989],[-76.70962,36.1206],[-76.71115,36.12813],[-76.71067,36.13466],[-76.71614,36.14445],[-76.72145,36.14784],[-76.72232,36.16018],[-76.72046,36.17285],[-76.71852,36.1905],[-76.71891,36.20098],[-76.71429,36.21528],[-76.71067,36.22329],[-76.70473,36.22962],[-76.70013,36.2341],[-76.69451,36.23729],[-76.69142,36.24706],[-76.67546,36.26688],[-76.67217,36.27198],[-76.67478,36.27639],[-76.68287,36.27658],[-76.69998,36.28539],[-76.7014,36.28367],[-76.69831,36.27754],[-76.69776,36.27166],[-76.70568,36.26604],[-76.70897,36.25499],[-76.72185,36.24553],[-76.72502,36.23112],[-76.72755,36.23192],[-76.73135,36.2346],[-76.73468,36.23575],[-76.73706,36.23479],[-76.73753,36.23173],[-76.74134,36.22924],[-76.74514,36.21505],[-76.74989,36.2114],[-76.75084,36.20412],[-76.74775,36.1974],[-76.75203,36.1928],[-76.75346,36.17668],[-76.75156,36.16978],[-76.75393,36.16517],[-76.75464,36.15539],[-76.75417,36.14752],[-76.75156,36.1383],[-76.74942,36.13159],[-76.74419,36.12621],[-76.74062,36.11815],[-76.73587,36.11027],[-76.73421,36.10394],[-76.73016,36.10182],[-76.72604,36.09624],[-76.72684,36.09107],[-76.72945,36.08089],[-76.72874,36.07839],[-76.73088,36.07474],[-76.72898,36.06936],[-76.72731,36.06322],[-76.72541,36.05899],[-76.72042,36.05207],[-76.71804,36.04804],[-76.70561,36.04259],[-76.70806,36.03824],[-76.70568,36.0317],[-76.70473,36.02766],[-76.70378,36.0194],[-76.70378,36.01055],[-76.69689,36.00979],[-76.68596,36.00632],[-76.68387,36.00037],[-76.68192,35.9896],[-76.68477,35.98806],[-76.68733,35.98457],[-76.69475,35.97786],[-76.69998,35.97382],[-76.7064,35.9719],[-76.71915,35.96509],[-76.72573,35.95521],[-76.72697,35.94257],[-76.73164,35.94004],[-76.73277,35.93672],[-76.7283,35.93358],[-76.71777,35.93714],[-76.70666,35.94487],[-76.6976,35.94208],[-76.69285,35.94246],[-76.68359,35.94024],[-76.67906,35.9365],[-76.66243,35.93207],[-76.65387,35.93438],[-76.63981,35.93646],[-76.60959,35.93569],[-76.60384,35.93983],[-76.58717,35.94148],[-76.57393,35.94196],[-76.5604,35.94105],[-76.55381,35.94015],[-76.52855,35.94404],[-76.50749,35.94983],[-76.49011,35.95978],[-76.48434,35.95825],[-76.47448,35.96017],[-76.46448,35.9642],[-76.4585,35.96786],[-76.4236,35.97739],[-76.40645,35.98152],[-76.39955,35.98209],[-76.39242,35.97921],[-76.3841,35.97151],[-76.3841,35.96632],[-76.37489,35.95541],[-76.3784,35.95228],[-76.38268,35.95035],[-76.3822,35.94824],[-76.37911,35.94535],[-76.3746,35.94362],[-76.37269,35.94093],[-76.37079,35.93438],[-76.36723,35.93438],[-76.36414,35.93554],[-76.36034,35.93669],[-76.35653,35.93708],[-76.35344,35.93842],[-76.35344,35.94073],[-76.34845,35.94227],[-76.34536,35.94073],[-76.33514,35.939],[-76.32928,35.93923],[-76.3254,35.93861],[-76.3147,35.94535],[-76.31351,35.94881],[-76.2876,35.96498],[-76.2826,35.96753],[-76.27429,35.96825],[-76.27168,35.97228],[-76.2598,35.97305],[-76.2453,35.97671],[-76.24411,35.97959],[-76.2365,35.97902],[-76.22319,35.98171],[-76.22034,35.9844],[-76.20539,35.98756],[-76.19871,35.98652],[-76.19039,35.98748],[-76.18564,35.98806],[-76.18065,35.98806],[-76.17708,35.99152],[-76.17052,35.99452],[-76.15593,35.99325],[-76.14832,35.99479],[-76.13264,35.9894],[-76.12765,35.99017],[-76.11956,35.99152],[-76.1015,35.99171],[-76.08313,35.98985],[-76.07702,35.98902],[-76.07456,35.99113],[-76.06799,35.99036],[-76.06252,35.99075],[-76.05397,35.98709],[-76.03495,35.97613],[-76.02497,35.96978],[-76.01677,35.96268],[-76.01142,35.9542],[-76.01516,35.95319],[-76.01708,35.94553],[-76.02045,35.93246],[-76.01522,35.92688],[-76.01285,35.92187],[-76.0176,35.91937],[-76.02069,35.91533],[-76.02521,35.9136],[-76.02853,35.91071],[-76.02755,35.90472],[-76.03281,35.90147],[-76.04018,35.89473],[-76.04541,35.88452],[-76.04602,35.87027],[-76.05278,35.86584],[-76.05824,35.86237],[-76.0632,35.85343],[-76.06191,35.84868],[-76.06228,35.84234],[-76.06537,35.83386],[-76.06276,35.82827],[-76.06347,35.82403],[-76.06133,35.81999],[-76.05587,35.8144],[-76.05492,35.81054],[-76.05049,35.80669],[-76.05135,35.80399],[-76.05027,35.80149],[-76.05302,35.79782],[-76.05325,35.77507],[-76.05492,35.76735],[-76.05587,35.76022],[-76.05159,35.75328],[-76.04897,35.74556],[-76.04831,35.73708],[-76.05135,35.73283],[-76.0523,35.72704],[-76.05658,35.71932],[-76.06086,35.71681],[-76.05896,35.7116],[-76.06015,35.70871],[-76.05753,35.70716],[-76.05492,35.70272],[-76.05064,35.70465],[-76.04802,35.70099],[-76.04351,35.70041],[-76.04208,35.69616],[-76.04137,35.69288],[-76.03846,35.69194],[-76.03638,35.68844],[-76.04128,35.67403],[-76.04398,35.67164],[-76.04636,35.65907],[-76.04755,35.65291],[-76.04398,35.6477],[-76.03804,35.64576],[-76.03281,35.64634],[-76.02853,35.64943],[-76.02378,35.65021],[-76.01879,35.65368],[-76.01285,35.66083],[-76.01302,35.67007],[-76.00928,35.67589],[-76.00595,35.67782],[-76.005,35.68187],[-76.00453,35.69018],[-75.99977,35.69404],[-76.00025,35.70079],[-76.00191,35.7062],[-75.99882,35.71044],[-75.99954,35.71507],[-76.00237,35.71836],[-76.0012,35.7253],[-75.99621,35.7307],[-75.99455,35.73804],[-75.9905,35.74209],[-75.98932,35.74903],[-75.98904,35.75712],[-75.98595,35.76781],[-75.9829,35.77256],[-75.98574,35.78268],[-75.98385,35.78741],[-75.98645,35.79377],[-75.99003,35.79628],[-75.99412,35.81253],[-75.99098,35.81825],[-75.98718,35.82191],[-75.98694,35.82558],[-75.98076,35.83232],[-75.97601,35.83848],[-75.97886,35.84484],[-75.98432,35.85409],[-75.98813,35.8618],[-75.98797,35.86526],[-75.98314,35.86603],[-75.98052,35.87027],[-75.98147,35.87894],[-75.98605,35.88899],[-75.97783,35.89718],[-75.96625,35.89929],[-75.96256,35.90139],[-75.94782,35.92035],[-75.93728,35.92643],[-75.93132,35.92688],[-75.92158,35.93592],[-75.92514,35.94073],[-75.93346,35.94958],[-75.93782,35.95088],[-75.94226,35.95555],[-75.94699,35.95743],[-75.94729,35.95983],[-75.93655,35.96498],[-75.91039,35.97359],[-75.89757,35.97613],[-75.88188,35.97536],[-75.87475,35.97671],[-75.87095,35.97856],[-75.86097,35.97709],[-75.85241,35.97498],[-75.83628,35.9705],[-75.80935,35.95931],[-75.80514,35.95404],[-75.80559,35.94612],[-75.79531,35.94144],[-75.79228,35.93727],[-75.7825,35.93342],[-75.7825,35.92824],[-75.78108,35.92438],[-75.7823,35.91956],[-75.77801,35.91379],[-75.77113,35.91302],[-75.76804,35.91186],[-75.76832,35.90799],[-75.77018,35.90512],[-75.76881,35.90139],[-75.76447,35.89704],[-75.76423,35.89242],[-75.76121,35.88892],[-75.7552,35.8878],[-75.7495,35.88414],[-75.74902,35.88125],[-75.75196,35.87823],[-75.75302,35.87138],[-75.74855,35.86257],[-75.75187,35.85101],[-75.74332,35.84446],[-75.73476,35.83733],[-75.72802,35.82451],[-75.73357,35.82114],[-75.7331,35.81594],[-75.73001,35.81247],[-75.73072,35.809],[-75.73025,35.80592],[-75.73191,35.80264],[-75.73642,35.79917],[-75.7369,35.79281],[-75.73405,35.78606],[-75.73524,35.78047],[-75.73823,35.7783],[-75.74237,35.77488],[-75.74118,35.76986],[-75.73547,35.76388],[-75.73476,35.75848],[-75.73642,35.75482],[-75.73856,35.75308],[-75.73856,35.74942],[-75.73405,35.74459],[-75.7262,35.73919],[-75.72668,35.73649],[-75.72953,35.73032],[-75.72692,35.7199],[-75.72573,35.71449],[-75.71812,35.7089],[-75.71741,35.70041],[-75.71717,35.69365],[-75.72217,35.68979],[-75.72597,35.68535],[-75.73286,35.68149],[-75.73813,35.68202],[-75.73962,35.68406],[-75.73714,35.6894],[-75.73809,35.69462],[-75.7426,35.69963],[-75.75187,35.70407],[-75.75782,35.706],[-75.76732,35.70562],[-75.77227,35.69858],[-75.77814,35.69352],[-75.78083,35.68842],[-75.78042,35.68411],[-75.76645,35.67706],[-75.76902,35.67147],[-75.76981,35.66547],[-75.76645,35.65993],[-75.76491,35.65636],[-75.75422,35.64836],[-75.74826,35.64719],[-75.74348,35.64925],[-75.73992,35.64462],[-75.73888,35.63925],[-75.73734,35.63503],[-75.73491,35.63017],[-75.73607,35.6255],[-75.74416,35.62255],[-75.74873,35.61849],[-75.75197,35.61279],[-75.75217,35.60799],[-75.76175,35.60582],[-75.76701,35.60132],[-75.77101,35.59999],[-75.77679,35.60058],[-75.78183,35.59873],[-75.7851,35.59555],[-75.78439,35.58881],[-75.77712,35.58149],[-75.77797,35.57976],[-75.79756,35.57519],[-75.82693,35.57102],[-75.83339,35.57153],[-75.83351,35.57347],[-75.82489,35.57499],[-75.82285,35.5791],[-75.812,35.5833],[-75.81099,35.58582],[-75.81352,35.59172],[-75.81584,35.59467],[-75.8172,35.59522],[-75.8181,35.59461],[-75.81905,35.59088],[-75.82204,35.59055],[-75.82534,35.59328],[-75.83049,35.59294],[-75.83757,35.58749],[-75.85281,35.58468],[-75.85687,35.58772],[-75.85522,35.59362],[-75.85799,35.59761],[-75.86535,35.60447],[-75.86329,35.60769],[-75.86311,35.60942],[-75.86485,35.60966],[-75.86861,35.60762],[-75.87184,35.61063],[-75.87239,35.61353],[-75.87013,35.61642],[-75.86996,35.62597],[-75.8688,35.62992],[-75.87159,35.63333],[-75.87682,35.63528],[-75.88179,35.63435],[-75.8876,35.64016],[-75.88962,35.64064],[-75.89056,35.63912],[-75.88795,35.63677],[-75.88655,35.63052],[-75.88372,35.62893],[-75.88385,35.62362],[-75.89281,35.60083],[-75.89739,35.59805],[-75.89674,35.59526],[-75.89004,35.59175],[-75.88732,35.58539],[-75.88307,35.58258],[-75.8833,35.57948],[-75.88237,35.57612],[-75.8861,35.57457],[-75.89406,35.57542],[-75.8971,35.57253],[-75.9029,35.5708],[-75.90446,35.56469],[-75.9135,35.56363],[-75.91968,35.56151],[-75.92134,35.55648],[-75.92015,35.553],[-75.91397,35.55319],[-75.90854,35.55281],[-75.91278,35.54971],[-75.91278,35.54469],[-75.91801,35.54159],[-75.9299,35.53753],[-75.94368,35.53618],[-75.95176,35.53211],[-75.95628,35.52863],[-75.95747,35.52612],[-75.95533,35.52244],[-75.96165,35.51534],[-75.96745,35.51877],[-75.97173,35.51877],[-75.97458,35.51548],[-75.97838,35.51296],[-75.98028,35.50793],[-75.97648,35.50832],[-75.97054,35.50677],[-75.96798,35.50378],[-75.96345,35.50096],[-75.96193,35.49671],[-75.96305,35.4939],[-75.97292,35.49129],[-75.98456,35.48684],[-75.98884,35.4849],[-75.99565,35.47536],[-75.99764,35.46884],[-75.99645,35.46361],[-75.99906,35.45742],[-76.00239,35.45296],[-76.00524,35.44987],[-76.01166,35.44619],[-76.0157,35.44174],[-76.01515,35.43595],[-76.01347,35.42775],[-76.01559,35.42211],[-76.02122,35.41748],[-76.02266,35.41219],[-76.02794,35.41185],[-76.03172,35.41314],[-76.03376,35.41791],[-76.03257,35.42159],[-76.03543,35.42585],[-76.0387,35.42689],[-76.03971,35.43081],[-76.04768,35.43296],[-76.05258,35.43529],[-76.05871,35.43465],[-76.06052,35.43091],[-76.05753,35.42527],[-76.05329,35.42278],[-76.05395,35.42122],[-76.06228,35.42004],[-76.0649,35.41772],[-76.06141,35.41334],[-76.0645,35.41063],[-76.07122,35.40985],[-76.07219,35.40667],[-76.06876,35.40124],[-76.06938,35.39765],[-76.07963,35.3968],[-76.08106,35.39331],[-76.08344,35.39099],[-76.08106,35.38788],[-76.07803,35.3873],[-76.07607,35.3844],[-76.07108,35.38537],[-76.06395,35.38556],[-76.06181,35.38323],[-76.06293,35.38137],[-76.06656,35.38052],[-76.07084,35.37064],[-76.07868,35.37238],[-76.09128,35.36948],[-76.09604,35.36095],[-76.10269,35.36133],[-76.10935,35.35862],[-76.1125,35.35501],[-76.12194,35.35416],[-76.13074,35.35784],[-76.13692,35.35804],[-76.14262,35.35494],[-76.14167,35.34912],[-76.13736,35.34475],[-76.13977,35.34215],[-76.14515,35.34146],[-76.15086,35.33689],[-76.15192,35.33137],[-76.15567,35.33156],[-76.15617,35.33768],[-76.16164,35.34292],[-76.17423,35.34699],[-76.1835,35.3466],[-76.18754,35.34175],[-76.19729,35.34175],[-76.20014,35.33943],[-76.20347,35.33768],[-76.20584,35.33962],[-76.20489,35.34583],[-76.21202,35.34583],[-76.2163,35.34369],[-76.22105,35.3404],[-76.22296,35.34292],[-76.22319,35.34641],[-76.22961,35.353],[-76.23151,35.35881],[-76.23841,35.36327],[-76.24316,35.36657],[-76.24981,35.36773],[-76.26003,35.36541],[-76.26003,35.35881],[-76.25457,35.35436],[-76.25307,35.35002],[-76.25757,35.3444],[-76.2636,35.34272],[-76.26811,35.34001],[-76.27881,35.34292],[-76.2909,35.34939],[-76.30139,35.3528],[-76.30567,35.35494],[-76.30519,35.36017],[-76.30876,35.36967],[-76.31589,35.3687],[-76.32088,35.37006],[-76.32326,35.37238],[-76.32254,35.38033],[-76.32611,35.38634],[-76.33253,35.38808],[-76.34489,35.39254],[-76.35012,35.38982],[-76.35202,35.38595],[-76.35748,35.38362],[-76.35606,35.378],[-76.3532,35.37548],[-76.35154,35.37413],[-76.34774,35.36521],[-76.34394,35.35688],[-76.34394,35.34932],[-76.34156,35.34234],[-76.35059,35.33982],[-76.36105,35.34156],[-76.37055,35.33749],[-76.37602,35.33555],[-76.37959,35.34156],[-76.37721,35.35843],[-76.38244,35.35901],[-76.38933,35.36037],[-76.39222,35.35701],[-76.39361,35.35203],[-76.39921,35.34889],[-76.40835,35.34699],[-76.41191,35.34641],[-76.41215,35.35067],[-76.41144,35.36133],[-76.42213,35.36269],[-76.4243,35.36505],[-76.4207,35.37103],[-76.41999,35.3749],[-76.41286,35.37568],[-76.40692,35.37393],[-76.3822,35.36812],[-76.37531,35.36385],[-76.36818,35.36114],[-76.36366,35.36424],[-76.36533,35.36967],[-76.36152,35.37374],[-76.36842,35.37917],[-76.36794,35.38227],[-76.37578,35.38537],[-76.38054,35.38614],[-76.38505,35.3842],[-76.38719,35.39447],[-76.39599,35.40106],[-76.39622,35.40687],[-76.38838,35.40784],[-76.38529,35.41501],[-76.38886,35.42566],[-76.39551,35.43167],[-76.4093,35.42895],[-76.41762,35.42508],[-76.41952,35.41791],[-76.42356,35.41385],[-76.42807,35.40881],[-76.43235,35.40494],[-76.43734,35.40339],[-76.43806,35.39854],[-76.43497,35.39273],[-76.43829,35.38827],[-76.44352,35.39505],[-76.45018,35.39408],[-76.4497,35.38963],[-76.45493,35.39118],[-76.45707,35.39699],[-76.45659,35.40009],[-76.46087,35.40397],[-76.4642,35.40358],[-76.46563,35.3997],[-76.47133,35.40435],[-76.47561,35.40455],[-76.48084,35.40455],[-76.48274,35.40222],[-76.47751,35.3966],[-76.47537,35.38905],[-76.47109,35.37936],[-76.46963,35.37373],[-76.47227,35.37138],[-76.48345,35.37451],[-76.49035,35.37761],[-76.49629,35.38168],[-76.50152,35.38808],[-76.50461,35.39099],[-76.51031,35.39738],[-76.5153,35.39622],[-76.5171,35.39418],[-76.53218,35.40125],[-76.54029,35.41066],[-76.53376,35.422],[-76.53307,35.43231],[-76.53812,35.43554],[-76.54145,35.43496],[-76.55245,35.43687],[-76.56545,35.44948],[-76.55808,35.45529],[-76.55285,35.45606],[-76.55,35.45626],[-76.54573,35.4609],[-76.55167,35.46342],[-76.55629,35.46716],[-76.56284,35.47503],[-76.56141,35.48587],[-76.56212,35.49129],[-76.56688,35.49536],[-76.58056,35.5006],[-76.58708,35.5089],[-76.57591,35.50851],[-76.57021,35.51025],[-76.56379,35.51027],[-76.55666,35.50735],[-76.54549,35.50813],[-76.53622,35.50948],[-76.52506,35.50788],[-76.51578,35.50368],[-76.50746,35.50329],[-76.49905,35.50415],[-76.49599,35.50518],[-76.49082,35.50445],[-76.48535,35.50658],[-76.47671,35.51171],[-76.47204,35.51625],[-76.46943,35.51935],[-76.46988,35.52594],[-76.46816,35.52714],[-76.46631,35.53163],[-76.46816,35.53471],[-76.46688,35.53576],[-76.46752,35.53719],[-76.46697,35.53893],[-76.46394,35.54011],[-76.46399,35.54234],[-76.46079,35.54602],[-76.45525,35.5492],[-76.45227,35.55322],[-76.45441,35.55491],[-76.45793,35.55329],[-76.46387,35.55668],[-76.46539,35.55841],[-76.47121,35.55742],[-76.47295,35.55471],[-76.47704,35.55474],[-76.48084,35.55049],[-76.48417,35.53966],[-76.48721,35.53713],[-76.49595,35.53437],[-76.50368,35.53686],[-76.50916,35.53727],[-76.51557,35.53415],[-76.51989,35.53069],[-76.52722,35.53335],[-76.53373,35.53281],[-76.53703,35.52913],[-76.54287,35.53211],[-76.55072,35.53366],[-76.55679,35.52889],[-76.56189,35.53463],[-76.57044,35.5385],[-76.58185,35.54082],[-76.58922,35.54004],[-76.5992,35.53985],[-76.60396,35.53811],[-76.60776,35.53308],[-76.61346,35.53269],[-76.62321,35.52592],[-76.62963,35.51935],[-76.63795,35.51296],[-76.6339,35.50813],[-76.62796,35.50619],[-76.62107,35.49787],[-76.61964,35.49148],[-76.61465,35.48742],[-76.60301,35.48394],[-76.59738,35.48193],[-76.59968,35.47852],[-76.60253,35.47174],[-76.60158,35.46807],[-76.60277,35.46342],[-76.60419,35.45819],[-76.60705,35.45548],[-76.60372,35.44348],[-76.59279,35.4367],[-76.59516,35.43263],[-76.5916,35.42857],[-76.58836,35.42641],[-76.58898,35.42198],[-76.59041,35.41694],[-76.58875,35.41385],[-76.58566,35.41443],[-76.58185,35.40745],[-76.58114,35.40203],[-76.58043,35.39777],[-76.57615,35.39408],[-76.57472,35.38866],[-76.57756,35.38758],[-76.58542,35.38924],[-76.59588,35.38905],[-76.60586,35.39389],[-76.61323,35.39602],[-76.62036,35.3966],[-76.63058,35.3997],[-76.64793,35.40339],[-76.65482,35.40649],[-76.66076,35.41288],[-76.66052,35.41694],[-76.66219,35.41946],[-76.66029,35.42295],[-76.6629,35.42547],[-76.66718,35.4243],[-76.66694,35.42043],[-76.66956,35.41888],[-76.67455,35.41656],[-76.68075,35.41594],[-76.69499,35.41985],[-76.70259,35.42295],[-76.71067,35.42857],[-76.723,35.42612],[-76.72969,35.42644],[-76.73896,35.42702],[-76.74371,35.42682],[-76.74538,35.42411],[-76.75274,35.42237],[-76.75924,35.41891],[-76.76914,35.42682],[-76.77794,35.42818],[-76.78412,35.43302],[-76.80884,35.44057],[-76.81335,35.44425],[-76.81715,35.452],[-76.82286,35.45277],[-76.8309,35.44795],[-76.8461,35.45011],[-76.85922,35.45355],[-76.86968,35.45761],[-76.88038,35.45974],[-76.89915,35.46032],[-76.90605,35.45935],[-76.92245,35.46652],[-76.93148,35.47232],[-76.93623,35.47465],[-76.93932,35.47271],[-76.94625,35.47456],[-76.95097,35.47774],[-76.95762,35.48297],[-76.96238,35.48161],[-76.96784,35.48123],[-76.97355,35.48355],[-76.97921,35.48335],[-76.98258,35.48761],[-76.98781,35.49323],[-76.9998,35.50108],[-77.00777,35.50755],[-77.00968,35.51374],[-77.02441,35.52341],[-77.03891,35.53366],[-77.04295,35.53675],[-77.04961,35.53714],[-77.05317,35.53521],[-77.05412,35.53134],[-77.04889,35.52592],[-77.04271,35.52457],[-77.04057,35.52148],[-77.03416,35.51683],[-77.02251,35.50619],[-77.02132,35.49845],[-77.03083,35.50251],[-77.042,35.50755],[-77.0439,35.50697],[-77.04509,35.50329],[-77.04268,35.50138],[-77.03867,35.4971],[-77.03463,35.49284],[-77.0275,35.48936],[-77.02129,35.48689],[-77.01419,35.48258],[-77.00468,35.47581],[-76.98638,35.47252],[-76.97464,35.45886],[-76.9707,35.44541],[-76.96832,35.43786],[-76.96618,35.43399],[-76.95834,35.43747],[-76.94004,35.44484],[-76.92502,35.4488],[-76.91936,35.44154],[-76.90795,35.43573],[-76.89298,35.43167],[-76.88394,35.42624],[-76.87658,35.42469],[-76.86897,35.42527],[-76.86089,35.42508],[-76.85186,35.42566],[-76.84449,35.42372],[-76.82316,35.40825],[-76.82215,35.40571],[-76.82167,35.3999],[-76.81558,35.39849],[-76.80717,35.39486],[-76.80028,35.39079],[-76.7903,35.39002],[-76.77295,35.39099],[-76.77247,35.38672],[-76.77016,35.38515],[-76.76914,35.38304],[-76.75132,35.37878],[-76.73801,35.3749],[-76.71947,35.3751],[-76.71258,35.3687],[-76.70283,35.36366],[-76.69419,35.3626],[-76.68144,35.3497],[-76.67074,35.34563],[-76.66403,35.3457],[-76.65886,35.34156],[-76.65126,35.34001],[-76.64584,35.34325],[-76.62202,35.34272],[-76.61632,35.34272],[-76.60681,35.32935],[-76.59801,35.33148],[-76.57496,35.33051],[-76.55785,35.3276],[-76.54454,35.32624],[-76.5241,35.32004],[-76.4913,35.31558],[-76.48417,35.31364],[-76.48179,35.30976],[-76.48393,35.30627],[-76.49225,35.30782],[-76.49887,35.30589],[-76.4989,35.29637],[-76.49272,35.29133],[-76.497,35.28357],[-76.49816,35.27955],[-76.49058,35.27794],[-76.47989,35.27911],[-76.47852,35.28008],[-76.47831,35.28141],[-76.48141,35.28642],[-76.47708,35.28666],[-76.47591,35.28425],[-76.4732,35.28181],[-76.46973,35.28089],[-76.46961,35.27971],[-76.47308,35.27905],[-76.47585,35.27678],[-76.47347,35.26882],[-76.46905,35.26683],[-76.46744,35.26134],[-76.47129,35.26208],[-76.47426,35.26366],[-76.47412,35.26568],[-76.47683,35.26629],[-76.47717,35.26787],[-76.47938,35.26902],[-76.48033,35.26757],[-76.48617,35.26596],[-76.49072,35.26271],[-76.49139,35.26009],[-76.48799,35.26074],[-76.48688,35.25985],[-76.4849,35.25991],[-76.48674,35.25585],[-76.4851,35.25247],[-76.48392,35.25171],[-76.48347,35.2498],[-76.48233,35.24888],[-76.48055,35.24877],[-76.47917,35.24728],[-76.48631,35.24689],[-76.49344,35.24612],[-76.49795,35.24282],[-76.50342,35.24068],[-76.49843,35.23408],[-76.4932,35.22573],[-76.49138,35.22075],[-76.49605,35.21699],[-76.50532,35.22263],[-76.5191,35.22534],[-76.52909,35.23117],[-76.54454,35.23233],[-76.55594,35.23389],[-76.56545,35.22923],[-76.56022,35.2234],[-76.55024,35.22204],[-76.53931,35.21855],[-76.52933,35.20806],[-76.52101,35.20612],[-76.51863,35.20224],[-76.52338,35.19311],[-76.52671,35.18476],[-76.53455,35.18456],[-76.53717,35.18786],[-76.53764,35.19233],[-76.54425,35.19365],[-76.54834,35.1898],[-76.56374,35.19476],[-76.57472,35.20088],[-76.58637,35.20204],[-76.59374,35.20107],[-76.59801,35.19835],[-76.60134,35.19738],[-76.60158,35.19233],[-76.59873,35.18786],[-76.60324,35.18845],[-76.60586,35.18728],[-76.60514,35.18417],[-76.60823,35.18242],[-76.61061,35.18339],[-76.61275,35.1799],[-76.61869,35.17873],[-76.62202,35.1764],[-76.62891,35.17465],[-76.63414,35.17426],[-76.63367,35.16066],[-76.62654,35.15989],[-76.6137,35.163],[-76.60396,35.16066],[-76.60015,35.15445],[-76.5954,35.15483],[-76.58661,35.15445],[-76.58375,35.15969],[-76.58399,35.16338],[-76.58803,35.16882],[-76.57995,35.17407],[-76.57258,35.17193],[-76.56925,35.17349],[-76.56545,35.17252],[-76.56379,35.16902],[-76.5645,35.1663],[-76.56094,35.16416],[-76.55024,35.15464],[-76.54715,35.1492],[-76.54382,35.15153],[-76.53955,35.15464],[-76.53635,35.14993],[-76.54216,35.14531],[-76.54596,35.13909],[-76.55119,35.13326],[-76.55713,35.12471],[-76.55927,35.11421],[-76.56521,35.11032],[-76.56664,35.10254],[-76.56949,35.09846],[-76.57686,35.09788],[-76.58875,35.09593],[-76.59516,35.09204],[-76.59231,35.08854],[-76.59255,35.0836],[-76.59493,35.07765],[-76.5973,35.07395],[-76.60348,35.06987],[-76.60942,35.06714],[-76.61774,35.06578],[-76.62986,35.06131],[-76.63723,35.05781],[-76.6408,35.05528],[-76.64104,35.05236],[-76.65163,35.04621],[-76.65815,35.04341],[-76.66243,35.03874],[-76.6686,35.03329],[-76.67462,35.02997],[-76.68001,35.02979],[-76.68334,35.02979],[-76.68928,35.0257],[-76.69689,35.02239],[-76.70252,35.01893],[-76.70424,35.01458],[-76.7064,35.01091],[-76.7102,35.00896],[-76.71162,35.00448],[-76.71971,35.0039],[-76.72993,35.00195],[-76.73682,34.99767],[-76.74823,34.99299],[-76.7575,34.99241],[-76.76419,34.98475],[-76.76748,34.98228],[-76.77118,34.97674],[-76.79077,34.97371],[-76.80099,34.96865],[-76.80361,34.96378],[-76.8067,34.96787],[-76.81142,34.968],[-76.82048,34.97099],[-76.83657,34.98159],[-76.84354,34.98793],[-76.85708,34.99669],[-76.86683,35.00164],[-76.87087,35.00214],[-76.87467,35.00273],[-76.88299,35.00954],[-76.88941,35.01499],[-76.89749,35.02005],[-76.90106,35.02511],[-76.90868,35.02842],[-76.91389,35.02803],[-76.91437,35.02492],[-76.91983,35.02881],[-76.9248,35.02924],[-76.93404,35.03423],[-76.93314,35.03543],[-76.92934,35.03835],[-76.93029,35.04185],[-76.93985,35.04526],[-76.94075,35.0436],[-76.94574,35.04496],[-76.94669,35.04847],[-76.95287,35.05722],[-76.95715,35.05664],[-76.9638,35.058],[-76.9726,35.05644],[-76.97759,35.06014],[-76.98757,35.06559],[-76.98733,35.06929],[-76.99212,35.0718],[-76.99779,35.07668],[-77.00107,35.08499],[-77.00933,35.09606],[-77.01039,35.10118],[-77.01372,35.10332],[-77.01895,35.10274],[-77.01776,35.10838],[-77.01728,35.11149],[-77.01966,35.11596],[-77.02275,35.12121],[-77.02703,35.12471],[-77.02822,35.12859],[-77.03035,35.13307],[-77.03297,35.13579],[-77.03653,35.13618],[-77.03891,35.13967],[-77.04295,35.1424],[-77.04889,35.14415],[-77.05388,35.14745],[-77.05959,35.14687],[-77.06149,35.14415],[-77.0603,35.14084],[-77.05197,35.13445],[-77.05103,35.13112],[-77.0527,35.12723],[-77.05032,35.12646],[-77.04319,35.12179],[-77.03462,35.11119],[-77.03439,35.10371],[-77.0363,35.10235],[-77.03772,35.09924],[-77.03392,35.09224],[-77.03035,35.09029],[-77.02536,35.08349],[-77.01633,35.08037],[-77.01514,35.0759],[-77.01467,35.06812],[-76.99874,35.05489],[-76.99351,35.04711],[-76.98926,35.04379],[-76.98567,35.02726],[-76.981,35.01673],[-76.97997,35.00915],[-76.97741,35.00493],[-76.97046,34.99728],[-76.95168,34.98715],[-76.94099,34.97917],[-76.93576,34.97313],[-76.92625,34.96982],[-76.89583,34.95774],[-76.89393,34.95385],[-76.89464,34.95054],[-76.88917,34.9482],[-76.86826,34.94761],[-76.854,34.94157],[-76.85352,34.93768],[-76.84782,34.93631],[-76.8326,34.93923],[-76.82738,34.94118],[-76.81861,34.93962],[-76.81121,34.93923],[-76.80435,34.93469],[-76.78767,34.92893],[-76.76082,34.91585],[-76.75346,34.9178],[-76.75251,34.92189],[-76.74538,34.92228],[-76.74371,34.92638],[-76.74561,34.93027],[-76.74086,34.93164],[-76.73706,34.93086],[-76.73349,34.92735],[-76.7266,34.92793],[-76.71804,34.93612],[-76.70758,34.95424],[-76.69998,34.95677],[-76.68643,34.95638],[-76.67978,34.95385],[-76.67645,34.95891],[-76.67574,34.96437],[-76.6774,34.96651],[-76.6769,34.96881],[-76.66617,34.97402],[-76.66195,34.98014],[-76.65743,34.98248],[-76.64555,34.98403],[-76.63105,34.98871],[-76.61869,34.98793],[-76.6061,34.98481],[-76.5897,34.97761],[-76.57852,34.97625],[-76.57464,34.98345],[-76.58019,34.98774],[-76.57971,34.99007],[-76.57353,34.99299],[-76.5664,34.99533],[-76.5647,34.99834],[-76.55618,35.0],[-76.54359,35.00195],[-76.52786,35.00258],[-76.51411,35.00448],[-76.51157,35.00507],[-76.51007,34.99669],[-76.50484,34.99241],[-76.49795,34.98501],[-76.4913,34.9854],[-76.48417,34.98812],[-76.48322,34.99163],[-76.48961,34.99374],[-76.49201,35.00039],[-76.49748,35.00818],[-76.49588,35.01166],[-76.48868,35.01519],[-76.48654,35.02044],[-76.49272,35.02064],[-76.49391,35.02317],[-76.49046,35.03115],[-76.48581,35.0406],[-76.48226,35.04438],[-76.47941,35.04438],[-76.47704,35.03815],[-76.47133,35.0438],[-76.46468,35.04672],[-76.46777,35.05314],[-76.47062,35.05839],[-76.47751,35.05839],[-76.47276,35.06929],[-76.47038,35.0757],[-76.46347,35.07641],[-76.45422,35.06948],[-76.45089,35.06695],[-76.45065,35.06287],[-76.44614,35.05839],[-76.4402,35.05975],[-76.43576,35.05794],[-76.43257,35.04906],[-76.43497,35.04263],[-76.43306,35.03348],[-76.42403,35.02901],[-76.42261,35.02667],[-76.43045,35.02823],[-76.43354,35.02648],[-76.43758,35.02453],[-76.43592,35.02064],[-76.44043,35.0146],[-76.43687,35.00545],[-76.43592,35.00098],[-76.43164,34.99903],[-76.42546,35.00146],[-76.42332,34.98871],[-76.42213,34.98092],[-76.42237,34.97722],[-76.42997,34.96865],[-76.42284,34.95073],[-76.41524,34.95307],[-76.40882,34.96203],[-76.40312,34.96339],[-76.40027,34.95755],[-76.39836,34.94547],[-76.38743,34.95112],[-76.38482,34.95969],[-76.3803,34.97021],[-76.38268,34.97819],[-76.38149,34.97917],[-76.37815,34.97861],[-76.37601,34.97386],[-76.37008,34.97235],[-76.36343,34.96923],[-76.36176,34.97644],[-76.35511,34.97138],[-76.34675,34.9719],[-76.34394,34.9704],[-76.34037,34.96631],[-76.3349,34.96729],[-76.3349,34.9706],[-76.33204,34.97092],[-76.32967,34.96456],[-76.32444,34.96047],[-76.31945,34.96592],[-76.32064,34.97547],[-76.32789,34.98133],[-76.32956,34.9869],[-76.33395,34.99241],[-76.34037,34.99728],[-76.35083,35.01558],[-76.36082,35.02597],[-76.36746,35.03115],[-76.36865,35.03465],[-76.36414,35.0366],[-76.35229,35.03308],[-76.33539,35.02685],[-76.3292,35.02317],[-76.31855,35.02065],[-76.29368,35.00963],[-76.24931,35.00067],[-76.24387,34.99689],[-76.24696,34.98735],[-76.25076,34.98131],[-76.25671,34.97702],[-76.26241,34.97527],[-76.27429,34.98715],[-76.28808,34.9963],[-76.29759,34.99436],[-76.30567,34.99144],[-76.29967,34.98413],[-76.29545,34.97508],[-76.28927,34.96807],[-76.27786,34.96066],[-76.27667,34.95404],[-76.27857,34.94995],[-76.28119,34.94664],[-76.27952,34.94138],[-76.28594,34.93807],[-76.29236,34.93787],[-76.29783,34.93456],[-76.29592,34.92988],[-76.2976,34.92366],[-76.31351,34.92676],[-76.32658,34.93436],[-76.33205,34.93592],[-76.33609,34.93397],[-76.34085,34.93339],[-76.34132,34.92482],[-76.33419,34.9215],[-76.33989,34.91839],[-76.3368,34.90981],[-76.32967,34.90864],[-76.31755,34.90767],[-76.31409,34.90632],[-76.31997,34.89775],[-76.32611,34.89207],[-76.33137,34.88488],[-76.33847,34.88154],[-76.34156,34.87881],[-76.34489,34.87803],[-76.34679,34.87335],[-76.36827,34.87288],[-76.37716,34.86755],[-76.37964,34.86258],[-76.38301,34.86105],[-76.3822,34.85697],[-76.38648,34.85541],[-76.39314,34.85756],[-76.39575,34.86087],[-76.39884,34.86575],[-76.39622,34.87043],[-76.39195,34.87394],[-76.39171,34.87862],[-76.3967,34.88388],[-76.4024,34.88661],[-76.40573,34.8831],[-76.40526,34.87686],[-76.40763,34.87082],[-76.41001,34.86146],[-76.40882,34.85463],[-76.41161,34.84127],[-76.415,34.83825],[-76.41215,34.8322],[-76.41524,34.82771],[-76.41857,34.82673],[-76.42403,34.83259],[-76.4276,34.83142],[-76.4314,34.82888],[-76.43425,34.82303],[-76.43687,34.81874],[-76.444,34.81581],[-76.44947,34.81483],[-76.45137,34.808],[-76.46302,34.78508],[-76.46599,34.78043],[-76.47181,34.77677],[-76.47305,34.76938],[-76.47965,34.7633],[-76.48464,34.76096],[-76.48535,34.75491],[-76.48797,34.7551],[-76.48797,34.75822],[-76.49058,34.76252],[-76.49795,34.76389],[-76.49962,34.7594],[-76.50413,34.75861],[-76.50722,34.75705],[-76.51411,34.75432],[-76.51211,34.75144],[-76.51007,34.74768],[-76.50318,34.74475],[-76.5008,34.74084],[-76.50152,34.73733],[-76.49843,34.73205],[-76.49985,34.72935],[-76.50271,34.72951],[-76.5058,34.72932],[-76.50674,34.72619],[-76.51031,34.72346],[-76.51269,34.72033],[-76.51578,34.71955],[-76.51982,34.71877],[-76.52172,34.72111],[-76.52481,34.72131],[-76.53004,34.7219],[-76.53408,34.72346],[-76.53693,34.72053],[-76.54029,34.71905],[-76.54858,34.72326],[-76.55309,34.7258],[-76.55642,34.72424],[-76.56165,34.72287],[-76.5664,34.72287],[-76.57567,34.7217],[-76.58209,34.73127],[-76.58138,34.73459],[-76.57805,34.73479],[-76.5752,34.73967],[-76.57712,34.7441],[-76.58589,34.75666],[-76.58417,34.76033],[-76.57757,34.76037],[-76.57781,34.76662],[-76.57567,34.76838],[-76.57876,34.77287],[-76.58423,34.77191],[-76.58566,34.76994],[-76.59374,34.7717],[-76.59762,34.77724],[-76.59944,34.7838],[-76.60443,34.78985],[-76.61727,34.7879],[-76.61719,34.78263],[-76.61489,34.77677],[-76.6175,34.76799],[-76.61869,34.76037],[-76.61774,34.75315],[-76.62154,34.74885],[-76.62416,34.74651],[-76.62245,34.73756],[-76.62487,34.73381],[-76.62226,34.72834],[-76.62725,34.72463],[-76.62701,34.71936],[-76.6156,34.71017],[-76.61937,34.70419],[-76.64222,34.70783],[-76.64935,34.70939],[-76.65529,34.70998],[-76.66979,34.71115],[-76.67273,34.71468],[-76.67829,34.71478],[-76.68072,34.71259],[-76.68061,34.70868],[-76.67933,34.70678],[-76.68072,34.7062],[-76.68281,34.70725],[-76.68721,34.70992],[-76.68988,34.71392],[-76.69046,34.71602],[-76.69475,34.71583],[-76.70344,34.71525],[-76.70657,34.71735],[-76.71402,34.71576],[-76.71596,34.71649],[-76.71665,34.71868],[-76.71897,34.7184],[-76.72092,34.71797],[-76.73438,34.72116],[-76.75582,34.72249],[-76.76011,34.72154],[-76.76846,34.7244],[-76.77332,34.7243],[-76.78016,34.72478],[-76.78259,34.72526],[-76.78642,34.72497],[-76.79384,34.72583],[-76.80079,34.72507],[-76.80705,34.72507],[-76.81099,34.72583],[-76.81887,34.7263],[-76.82895,34.72764],[-76.8359,34.72792],[-76.84193,34.72935],[-76.84657,34.7285],[-76.8519,34.72735],[-76.857,34.72764],[-76.86152,34.72754],[-76.86916,34.72707],[-76.87519,34.72621],[-76.87728,34.7263],[-76.88156,34.72707],[-76.88562,34.72697],[-76.89199,34.72545],[-76.89559,34.72545],[-76.89976,34.72688],[-76.90266,34.72649],[-76.90729,34.72259],[-76.91111,34.72121],[-76.91529,34.7204],[-76.91975,34.7202],[-76.92862,34.71726],[-76.93244,34.71621],[-76.93638,34.71726],[-76.93917,34.7162],[-76.94055,34.71373],[-76.94531,34.71116],[-76.95075,34.71125],[-76.954,34.70944],[-76.96014,34.70887],[-76.96188,34.70725],[-76.96756,34.70678],[-76.97022,34.70906],[-76.97173,34.70925],[-76.97254,34.70801],[-76.97521,34.70516],[-76.97764,34.70325],[-76.981,34.70163],[-76.98633,34.70106],[-76.99027,34.69896],[-76.99566,34.69688],[-76.99896,34.69506],[-77.00186,34.69449],[-77.00395,34.69296],[-77.00522,34.69247],[-77.00847,34.69344],[-77.00905,34.69506],[-77.00881,34.69668],[-77.01194,34.69629],[-77.0144,34.69528],[-77.01716,34.69458],[-77.01716,34.69201],[-77.01611,34.68991],[-77.01693,34.68782],[-77.01815,34.68735],[-77.01994,34.68839],[-77.02226,34.68944],[-77.02411,34.68896],[-77.02562,34.68829],[-77.02712,34.68658],[-77.02828,34.68486],[-77.02875,34.68248],[-77.0305,34.68181],[-77.03385,34.68143],[-77.0366,34.68235],[-77.03837,34.68648],[-77.04034,34.68953],[-77.04219,34.68972],[-77.04335,34.68677],[-77.04543,34.68515],[-77.04824,34.68395],[-77.04949,34.68467],[-77.05135,34.68629],[-77.05355,34.68762],[-77.05621,34.68734],[-77.05668,34.68629],[-77.05401,34.68172],[-77.05482,34.68095],[-77.05923,34.68029],[-77.0612,34.67943],[-77.06479,34.67981],[-77.06977,34.67857],[-77.07383,34.67819],[-77.07803,34.67626],[-77.08125,34.67657],[-77.08356,34.676],[-77.08322,34.67438],[-77.08333,34.67323],[-77.09272,34.67295],[-77.10025,34.67438],[-77.105,34.67552],[-77.10918,34.67752],[-77.113,34.68143],[-77.11277,34.68248],[-77.11706,34.68696],[-77.12274,34.68524],[-77.12586,34.68524],[-77.12668,34.6841],[-77.13027,34.68257],[-77.13192,34.68022],[-77.13502,34.68],[-77.13618,34.67829],[-77.13676,34.67676],[-77.13514,34.67485],[-77.13363,34.67276],[-77.1378,34.67028],[-77.14139,34.6698],[-77.14719,34.66971],[-77.15461,34.6679],[-77.15553,34.66628],[-77.15333,34.66494],[-77.15182,34.66437],[-77.15171,34.66313],[-77.15333,34.66122],[-77.15515,34.65995],[-77.16341,34.65369],[-77.16979,34.65017],[-77.17408,34.64807],[-77.17933,34.64427],[-77.18845,34.64044],[-77.19343,34.63863],[-77.20157,34.63432],[-77.20281,34.63408],[-77.20352,34.63455],[-77.20471,34.63427],[-77.20475,34.63344],[-77.20768,34.62881],[-77.21162,34.62347],[-77.22553,34.61221],[-77.23176,34.60796],[-77.23996,34.60338],[-77.24237,34.60004],[-77.24273,34.59584],[-77.24065,34.59425],[-77.2372,34.59408],[-77.23488,34.59456],[-77.23395,34.59421],[-77.23366,34.59301],[-77.24948,34.58334],[-77.25872,34.57788],[-77.26755,34.57215],[-77.28,34.5629],[-77.30704,34.54514],[-77.32546,34.53491],[-77.33592,34.53107],[-77.3409,34.53037],[-77.34486,34.52536],[-77.41121,34.49642],[-77.46292,34.47135],[-77.49208,34.4563],[-77.53148,34.43319],[-77.55694,34.41722],[-77.5827,34.40068],[-77.61612,34.37557],[-77.64878,34.34844],[-77.66719,34.33819],[-77.68906,34.32033],[-77.71332,34.29488],[-77.74014,34.27255],[-77.76402,34.24564],[-77.77533,34.23332],[-77.82937,34.16325],[-77.83898,34.14789],[-77.84431,34.13775],[-77.84964,34.12608],[-77.86134,34.10286],[-77.86871,34.08793],[-77.87097,34.08378],[-77.87711,34.0831],[-77.87948,34.08058],[-77.87521,34.07473],[-77.88036,34.06069],[-77.89108,34.0349],[-77.91554,33.97172],[-77.91972,33.96756],[-77.92831,33.94549],[-77.94657,33.91226],[-77.95336,33.89565],[-77.95688,33.87779],[-77.96017,33.85332],[-77.96049,33.84315],[-77.96279,33.84232],[-77.97142,33.8473],[-77.99595,33.85509],[-78.00541,33.86013],[-78.00833,33.86417],[-78.00879,33.86822],[-78.00494,33.87041],[-78.00163,33.87718],[-77.99822,33.88006],[-77.99361,33.88198],[-77.98978,33.888],[-77.98764,33.8957],[-77.98903,33.90245],[-77.99591,33.90564],[-78.00342,33.90747],[-78.01204,33.90575],[-78.01697,33.90235],[-78.01757,33.89587],[-78.0145,33.89227],[-78.01639,33.88857],[-78.02067,33.88827],[-78.02827,33.89047],[-78.05798,33.89751],[-78.07151,33.90163],[-78.12035,33.91031],[-78.13695,33.91218],[-78.17772,33.91427],[-78.22982,33.91286],[-78.234,33.9149],[-78.23435,33.91679],[-78.23923,33.91745],[-78.24784,33.91478],[-78.31534,33.90965],[-78.35025,33.90573],[-78.36454,33.90275],[-78.37309,33.90239],[-78.38023,33.90334],[-78.38712,33.90196],[-78.39116,33.899],[-78.40239,33.89581],[-78.42681,33.88992],[-78.50832,33.86679],[-78.54052,33.85271],[-78.54186,33.85296],[-78.54732,33.85648],[-78.61593,33.91552],[-78.66253,33.95452],[-78.70277,33.98927],[-78.71014,33.99469],[-78.71221,33.99673],[-78.87475,34.13439],[-79.07117,34.29924],[-79.14324,34.35982],[-79.15148,34.36675],[-79.19074,34.39975],[-79.19204,34.40104],[-79.19898,34.4067],[-79.24976,34.44977],[-79.30665,34.50043],[-79.32325,34.51463],[-79.32485,34.51628],[-79.33133,34.52187],[-79.35832,34.54536],[-79.45003,34.62104],[-79.45977,34.62903],[-79.46872,34.63532],[-79.4716,34.6372],[-79.4793,34.64464],[-79.4902,34.65382],[-79.51904,34.67732],[-79.55445,34.70636],[-79.56169,34.712],[-79.63158,34.76884],[-79.63422,34.77101],[-79.6753,34.80474],[-79.68809,34.8049],[-79.6902,34.80494],[-79.74412,34.80565],[-79.74492,34.80569],[-79.77283,34.80595],[-79.77361,34.80593],[-79.87069,34.80538],[-79.92762,34.80656],[-80.02746,34.80873],[-80.04276,34.8091],[-80.07291,34.80974],[-80.07722,34.80972],[-80.09802,34.81015],[-80.09899,34.81015],[-80.23396,34.81293],[-80.39987,34.81513],[-80.41701,34.81551],[-80.41843,34.81562],[-80.41959,34.81558],[-80.4259,34.81581],[-80.43484,34.81597],[-80.45166,34.8164],[-80.49181,34.8168],[-80.49979,34.81726],[-80.56166,34.81748],[-80.62122,34.81817],[-80.62608,34.81822],[-80.64466,34.81857],[-80.6466,34.81859],[-80.77771,34.8197],[-80.79754,34.81979],[-80.78204,34.93578],[-80.80646,34.96289],[-80.82156,34.97969],[-80.88489,35.05351],[-80.90655,35.07676],[-80.93495,35.10741],[-80.95787,35.09264],[-81.04149,35.0447],[-81.05002,35.05525],[-81.0557,35.06012],[-81.05765,35.06243],[-81.05803,35.07319],[-81.05724,35.08613],[-81.05208,35.09628],[-81.05008,35.09882],[-81.04652,35.10062],[-81.03737,35.10254],[-81.03496,35.1041],[-81.03281,35.10805],[-81.03247,35.11003],[-81.03301,35.11375],[-81.03676,35.12255],[-81.03897,35.1263],[-81.05042,35.13105],[-81.05104,35.13165],[-81.0512,35.13324],[-81.04783,35.14374],[-81.04709,35.14516],[-81.04439,35.14792],[-81.04341,35.14839],[-81.04287,35.14925],[-81.04363,35.14988],[-81.1093,35.15411],[-81.23936,35.15997],[-81.24169,35.16008],[-81.36669,35.16489],[-81.4524,35.16829],[-81.4934,35.16995],[-81.49426,35.16988],[-81.58168,35.17308],[-81.71626,35.17885],[-81.80208,35.1814],[-81.87443,35.18411],[-81.92561,35.1855],[-82.00142,35.18849],[-82.08959,35.1907],[-82.13895,35.19312],[-82.16768,35.1937],[-82.17687,35.19379],[-82.18551,35.19436],[-82.19548,35.19495],[-82.21622,35.19604],[-82.23091,35.19678],[-82.25751,35.19864],[-82.27492,35.20007],[-82.28252,35.19986],[-82.28845,35.19861],[-82.29535,35.19497],[-82.30717,35.19301],[-82.31486,35.19109],[-82.31587,35.19068],[-82.31787,35.18786],[-82.32335,35.18479],[-82.32692,35.18506],[-82.33055,35.18677],[-82.33078,35.18903],[-82.33298,35.19065],[-82.33393,35.19066],[-82.33801,35.18901],[-82.33951,35.18893],[-82.34013,35.18919],[-82.34119,35.19151],[-82.34455,35.19311],[-82.35009,35.19286],[-82.36147,35.19083],[-82.36326,35.18964],[-82.36355,35.188],[-82.36348,35.18621],[-82.3643,35.18473],[-82.36899,35.18175],[-82.3713,35.18145],[-82.37322,35.1822],[-82.37681,35.18443],[-82.37971,35.18688],[-82.38222,35.18959],[-82.38259,35.19249],[-82.38139,35.19397],[-82.37919,35.19589],[-82.37874,35.19805],[-82.38052,35.20228],[-82.38378,35.20765],[-82.38403,35.21054],[-82.39044,35.2154],[-82.39293,35.2154],[-82.3957,35.21321],[-82.40335,35.20447],[-82.4113,35.20248],[-82.4176,35.20013],[-82.41974,35.19861],[-82.42446,35.19309],[-82.428,35.18322],[-82.42582,35.18208],[-82.42596,35.18104],[-82.42681,35.17892],[-82.42834,35.17874],[-82.43067,35.1783],[-82.43169,35.17641],[-82.43137,35.17386],[-82.43185,35.17272],[-82.43373,35.1718],[-82.43516,35.16993],[-82.43468,35.16828],[-82.43569,35.16772],[-82.43767,35.16779],[-82.43959,35.16586],[-82.44362,35.1661],[-82.44807,35.16522],[-82.45046,35.16612],[-82.45713,35.16395],[-82.45764,35.16684],[-82.45483,35.17008],[-82.45161,35.1727],[-82.45299,35.17469],[-82.45431,35.17741],[-82.45561,35.17742],[-82.46009,35.17814],[-82.46799,35.17463],[-82.47231,35.17462],[-82.47614,35.17549],[-82.48394,35.1738],[-82.48736,35.17249],[-82.49077,35.16971],[-82.49502,35.16451],[-82.49846,35.16295],[-82.50368,35.16593],[-82.50494,35.16573],[-82.50614,35.16389],[-82.50791,35.16241],[-82.51154,35.16327],[-82.51309,35.16309],[-82.51604,35.16344],[-82.51728,35.16264],[-82.51887,35.16222],[-82.51921,35.16104],[-82.51993,35.1591],[-82.5214,35.15885],[-82.52593,35.15675],[-82.52997,35.15562],[-82.53209,35.15601],[-82.5351,35.15477],[-82.53647,35.15478],[-82.53734,35.1562],[-82.53597,35.15866],[-82.53675,35.16009],[-82.54058,35.16128],[-82.54164,35.16207],[-82.54505,35.16231],[-82.54637,35.16373],[-82.54744,35.16244],[-82.54991,35.16158],[-82.55327,35.16165],[-82.55576,35.15935],[-82.55616,35.15784],[-82.55487,35.15464],[-82.55333,35.15349],[-82.55617,35.15174],[-82.55859,35.15093],[-82.56081,35.15164],[-82.56377,35.15158],[-82.56619,35.15012],[-82.56749,35.14769],[-82.56991,35.14527],[-82.57832,35.1421],[-82.58069,35.14174],[-82.58184,35.14235],[-82.58603,35.14314],[-82.58816,35.14293],[-82.59243,35.139],[-82.59814,35.13773],[-82.60236,35.13904],[-82.60971,35.13904],[-82.61244,35.13823],[-82.61387,35.13753],[-82.6144,35.1367],[-82.61799,35.13527],[-82.62118,35.13464],[-82.62485,35.13043],[-82.62644,35.1279],[-82.62903,35.12615],[-82.63624,35.1255],[-82.63583,35.12761],[-82.63675,35.12932],[-82.63648,35.13036],[-82.64016,35.13004],[-82.64104,35.13232],[-82.64331,35.13043],[-82.6453,35.12681],[-82.64869,35.12677],[-82.65219,35.12605],[-82.65175,35.12336],[-82.65351,35.12197],[-82.65786,35.11939],[-82.66238,35.11812],[-82.66797,35.11879],[-82.66905,35.12062],[-82.66997,35.11985],[-82.67327,35.11748],[-82.67446,35.11847],[-82.67332,35.121],[-82.67328,35.12339],[-82.67462,35.12644],[-82.67655,35.1268],[-82.68144,35.12792],[-82.68363,35.12583],[-82.68708,35.12512],[-82.6865,35.12182],[-82.68674,35.11979],[-82.68764,35.11929],[-82.69245,35.11867],[-82.69355,35.11688],[-82.69463,35.11474],[-82.69326,35.11305],[-82.69071,35.1115],[-82.68728,35.11067],[-82.68716,35.10931],[-82.68648,35.10816],[-82.68846,35.10635],[-82.68963,35.10412],[-82.6949,35.09846],[-82.69768,35.09573],[-82.69878,35.09572],[-82.7005,35.10076],[-82.70215,35.09911],[-82.70544,35.09802],[-82.70715,35.09654],[-82.7153,35.09294],[-82.72044,35.09327],[-82.72346,35.09434],[-82.72701,35.09414],[-82.72896,35.09198],[-82.72952,35.09059],[-82.73011,35.08828],[-82.734,35.08547],[-82.7359,35.0827],[-82.73838,35.07945],[-82.74326,35.07869],[-82.74888,35.08109],[-82.75181,35.07989],[-82.7523,35.07689],[-82.75127,35.07346],[-82.75416,35.06963],[-82.7577,35.06802],[-82.76446,35.06818],[-82.77005,35.06548],[-82.77738,35.06414],[-82.78197,35.06682],[-82.78055,35.06904],[-82.77993,35.07044],[-82.77993,35.07221],[-82.77741,35.07688],[-82.77636,35.08135],[-82.77865,35.08358],[-82.78106,35.08449],[-82.78328,35.0856],[-82.78787,35.08502],[-82.80977,35.07875],[-82.8975,35.05602],[-82.99987,35.02995],[-83.10857,35.00135],[-83.10956,35.0012],[-83.11315,35.00124],[-83.19041,34.99946],[-83.32277,34.99587],[-83.54938,34.99249],[-83.62019,34.99209],[-83.61998,34.98659],[-83.74989,34.98769],[-83.8311,34.98729],[-83.93665,34.98748],[-84.02136,34.98743],[-84.02995,34.98732],[-84.12955,34.9875],[-84.32187,34.98841],[-84.31002,35.07888],[-84.30858,35.09276],[-84.30844,35.09317],[-84.30481,35.1217],[-84.29801,35.16747],[-84.29524,35.18244],[-84.29232,35.20668],[-84.29024,35.22557],[-84.28962,35.22468],[-84.28798,35.22447],[-84.28322,35.22658],[-84.28252,35.22788],[-84.27542,35.23478],[-84.26032,35.24188],[-84.25772,35.24618],[-84.25282,35.24948],[-84.24302,35.25318],[-84.24022,35.25518],[-84.23182,35.26478],[-84.22782,35.26788],[-84.22372,35.26908],[-84.21632,35.26798],[-84.21182,35.26608],[-84.20552,35.25968],[-84.20532,35.25828],[-84.20288,35.25577],[-84.20172,35.24778],[-84.20012,35.24468],[-84.19912,35.24368],[-84.19222,35.24308],[-84.18842,35.23998],[-84.17852,35.24068],[-84.17702,35.24238],[-84.17042,35.24578],[-84.16862,35.24578],[-84.16132,35.24348],[-84.16042,35.24388],[-84.15892,35.24588],[-84.15532,35.24648],[-84.14312,35.24688],[-84.13971,35.24618],[-84.13641,35.24478],[-84.1325,35.24208],[-84.12981,35.24178],[-84.12792,35.24108],[-84.12641,35.24138],[-84.12571,35.24278],[-84.12681,35.24648],[-84.12561,35.24938],[-84.12492,35.24983],[-84.12361,35.24974],[-84.12115,35.25064],[-84.12011,35.25198],[-84.11891,35.25228],[-84.11661,35.25143],[-84.11528,35.25044],[-84.11505,35.24976],[-84.11441,35.24908],[-84.11331,35.24898],[-84.11118,35.24957],[-84.11018,35.25046],[-84.10903,35.24963],[-84.10845,35.25033],[-84.1067,35.25151],[-84.10523,35.25022],[-84.10419,35.25018],[-84.10313,35.24878],[-84.10227,35.24811],[-84.10073,35.24836],[-84.09807,35.24721],[-84.09221,35.24998],[-84.08291,35.25708],[-84.08281,35.25888],[-84.08112,35.26115],[-84.07471,35.26318],[-84.07061,35.26378],[-84.06371,35.26668],[-84.05571,35.26818],[-84.05261,35.26998],[-84.04271,35.27838],[-84.03601,35.28868],[-84.02791,35.29278],[-84.02351,35.29578],[-84.02141,35.30138],[-84.02651,35.30928],[-84.02871,35.31038],[-84.03501,35.31198],[-84.03571,35.31288],[-84.03551,35.31778],[-84.03248,35.32532],[-84.03245,35.32653],[-84.03221,35.32858],[-84.03041,35.33048],[-84.02938,35.3332],[-84.03127,35.33644],[-84.03243,35.33684],[-84.03619,35.33767],[-84.0363,35.33916],[-84.03557,35.34149],[-84.03397,35.34277],[-84.03833,35.34781],[-84.0369,35.35067],[-84.03434,35.35095],[-84.0328,35.35191],[-84.03247,35.35259],[-84.02911,35.35355],[-84.02476,35.3539],[-84.02346,35.35422],[-84.02019,35.3575],[-84.01919,35.35957],[-84.01512,35.36487],[-84.00759,35.37166],[-84.00831,35.37888],[-84.00981,35.38268],[-84.01121,35.38438],[-84.01061,35.38618],[-84.00821,35.38968],[-84.00821,35.39038],[-84.01411,35.39778],[-84.01521,35.39848],[-84.01811,35.39908],[-84.01881,35.39978],[-84.02151,35.40418],[-84.02178,35.40742],[-84.02311,35.40968],[-84.02301,35.41168],[-84.02121,35.41208],[-84.01761,35.41118],[-84.01471,35.41198],[-84.01171,35.41538],[-84.00531,35.42088],[-84.00225,35.42255],[-83.99991,35.4252],[-83.99924,35.42614],[-83.99815,35.43079],[-83.99662,35.43376],[-83.99257,35.43807],[-83.98323,35.44235],[-83.97829,35.44782],[-83.97306,35.44892],[-83.97317,35.45258],[-83.97144,35.45515],[-83.96985,35.45544],[-83.96666,35.45494],[-83.96523,35.4554],[-83.9614,35.4595],[-83.96105,35.46284],[-83.96105,35.46414],[-83.95782,35.46421],[-83.95542,35.46346],[-83.95288,35.46064],[-83.94939,35.46116],[-83.94299,35.46508],[-83.94217,35.46725],[-83.93702,35.47151],[-83.92974,35.47333],[-83.9249,35.47388],[-83.91956,35.47337],[-83.9168,35.47361],[-83.91177,35.47603],[-83.90927,35.47971],[-83.90804,35.4844],[-83.90561,35.48906],[-83.90153,35.49103],[-83.90034,35.49309],[-83.9002,35.49419],[-83.9014,35.49528],[-83.90138,35.49655],[-83.89567,35.50187],[-83.89303,35.50225],[-83.89207,35.50309],[-83.88426,35.51275],[-83.88256,35.51718],[-83.88007,35.51875],[-83.87263,35.52114],[-83.86641,35.52091],[-83.85926,35.52185],[-83.8539,35.52106],[-83.8485,35.51926],[-83.8402,35.52156],[-83.8319,35.52477],[-83.82743,35.52465],[-83.82559,35.52383],[-83.8098,35.53431],[-83.80871,35.53641],[-83.80243,35.54159],[-83.7868,35.5472],[-83.78013,35.55039],[-83.77309,35.55747],[-83.77174,35.56212],[-83.76461,35.56154],[-83.75968,35.56249],[-83.75692,35.5636],[-83.74989,35.56115],[-83.73567,35.56546],[-83.73295,35.56315],[-83.72346,35.56187],[-83.72079,35.56335],[-83.7072,35.56853],[-83.70385,35.56848],[-83.7021,35.56763],[-83.70066,35.56762],[-83.69783,35.56835],[-83.68415,35.56885],[-83.67627,35.57029],[-83.67309,35.56897],[-83.66627,35.56939],[-83.66296,35.56914],[-83.66093,35.56821],[-83.65793,35.56921],[-83.65316,35.56831],[-83.64548,35.56582],[-83.6405,35.56607],[-83.63718,35.5671],[-83.63583,35.56817],[-83.63236,35.56909],[-83.62973,35.56789],[-83.61531,35.57403],[-83.60889,35.57945],[-83.60481,35.57934],[-83.60185,35.57823],[-83.59427,35.57291],[-83.58783,35.56696],[-83.58714,35.56402],[-83.58559,35.56294],[-83.582,35.56268],[-83.57635,35.56402],[-83.57242,35.56552],[-83.56609,35.56599],[-83.55926,35.5648],[-83.55217,35.56435],[-83.54083,35.5657],[-83.53417,35.56467],[-83.52047,35.5656],[-83.51756,35.56287],[-83.49833,35.56298],[-83.49165,35.56687],[-83.48553,35.5682],[-83.48062,35.57663],[-83.47852,35.5792],[-83.47932,35.58276],[-83.47908,35.58332],[-83.47537,35.58478],[-83.47268,35.58655],[-83.47267,35.58913],[-83.47136,35.5903],[-83.46268,35.5926],[-83.45572,35.59804],[-83.45243,35.60292],[-83.44714,35.60866],[-83.4458,35.6118],[-83.4412,35.61174],[-83.4323,35.60994],[-83.42158,35.61119],[-83.42096,35.6116],[-83.42037,35.61347],[-83.41185,35.61692],[-83.40606,35.62018],[-83.40357,35.62131],[-83.39663,35.62272],[-83.39265,35.6251],[-83.3886,35.63235],[-83.38872,35.63358],[-83.38025,35.6347],[-83.37798,35.6345],[-83.37678,35.63664],[-83.37371,35.63893],[-83.37217,35.63931],[-83.37037,35.6382],[-83.36816,35.6382],[-83.36694,35.63873],[-83.35821,35.64728],[-83.3562,35.65002],[-83.35537,35.65234],[-83.35554,35.65463],[-83.35378,35.65748],[-83.35156,35.65986],[-83.34925,35.66085],[-83.34726,35.66047],[-83.33768,35.66307],[-83.33496,35.66547],[-83.3211,35.66282],[-83.3179,35.65901],[-83.31276,35.65481],[-83.31049,35.65445],[-83.30228,35.65606],[-83.29715,35.65775],[-83.29368,35.66192],[-83.29108,35.66713],[-83.29068,35.67264],[-83.28916,35.67451],[-83.28118,35.6778],[-83.27548,35.67946],[-83.27138,35.68148],[-83.26928,35.6854],[-83.26539,35.68753],[-83.26125,35.68917],[-83.25812,35.69192],[-83.25561,35.69606],[-83.25513,35.70149],[-83.25611,35.70396],[-83.25511,35.7071],[-83.25423,35.70948],[-83.25448,35.71236],[-83.25549,35.71497],[-83.25535,35.71623],[-83.25125,35.71992],[-83.2435,35.72253],[-83.24213,35.72364],[-83.24067,35.72676],[-83.23204,35.7261],[-83.22263,35.72614],[-83.21998,35.7266],[-83.21697,35.72575],[-83.2145,35.72443],[-83.20375,35.72655],[-83.20013,35.72533],[-83.19827,35.72549],[-83.18837,35.7298],[-83.18569,35.72989],[-83.1821,35.73549],[-83.18084,35.73888],[-83.1775,35.74391],[-83.17187,35.74598],[-83.17017,35.74611],[-83.16477,35.75462],[-83.16543,35.7587],[-83.16491,35.75997],[-83.16154,35.76336],[-83.15921,35.76489],[-83.15408,35.76428],[-83.14808,35.76429],[-83.14697,35.76512],[-83.12771,35.76809],[-83.12018,35.76623],[-83.11366,35.77021],[-83.11049,35.77091],[-83.1048,35.77348],[-83.10458,35.77423],[-83.10232,35.77507],[-83.10022,35.77477],[-83.09719,35.77607],[-83.08605,35.78363],[-83.08521,35.78579],[-83.07873,35.78947],[-83.07403,35.79002],[-83.07222,35.78831],[-83.06397,35.78664],[-83.06151,35.78677],[-83.05834,35.78824],[-83.05268,35.78955],[-83.04853,35.78771],[-83.04631,35.78585],[-83.04411,35.78535],[-83.04267,35.78541],[-83.03951,35.78678],[-83.03621,35.7874],[-83.01238,35.77982],[-83.00607,35.7784],[-83.00147,35.77375],[-82.9958,35.77313],[-82.99205,35.77395],[-82.98397,35.77801],[-82.97841,35.78261],[-82.97446,35.78679],[-82.96965,35.78966],[-82.96409,35.78998],[-82.96221,35.79275],[-82.96284,35.79513],[-82.96172,35.80049],[-82.95895,35.80332],[-82.95613,35.80787],[-82.95575,35.8098],[-82.95203,35.81618],[-82.94552,35.82466],[-82.94383,35.82564],[-82.93744,35.82732],[-82.93322,35.83291],[-82.93186,35.83635],[-82.92757,35.83859],[-82.92336,35.83927],[-82.91655,35.84137],[-82.91806,35.8452],[-82.92097,35.85107],[-82.91937,35.86052],[-82.92121,35.86383],[-82.92061,35.86847],[-82.91227,35.86854],[-82.9013,35.87259],[-82.89972,35.8746],[-82.89727,35.87788],[-82.89632,35.8803],[-82.90003,35.88123],[-82.90356,35.88038],[-82.90653,35.88409],[-82.9037,35.88762],[-82.90184,35.89027],[-82.90184,35.89293],[-82.90454,35.89701],[-82.90596,35.9032],[-82.90842,35.90507],[-82.90692,35.9074],[-82.91028,35.91257],[-82.9145,35.91515],[-82.91169,35.91675],[-82.91229,35.92031],[-82.91348,35.92207],[-82.91334,35.92411],[-82.91682,35.92415],[-82.9204,35.92722],[-82.92001,35.92842],[-82.91438,35.92968],[-82.91061,35.92693],[-82.90483,35.9261],[-82.90162,35.92738],[-82.90032,35.92905],[-82.89901,35.93038],[-82.89968,35.93262],[-82.90171,35.93771],[-82.89851,35.9451],[-82.89695,35.94462],[-82.89266,35.94518],[-82.88393,35.94919],[-82.87416,35.9527],[-82.87067,35.95199],[-82.86932,35.95056],[-82.86072,35.94743],[-82.85255,35.94909],[-82.84985,35.94777],[-82.84126,35.94172],[-82.83999,35.94017],[-82.83327,35.93499],[-82.83011,35.93297],[-82.82893,35.93293],[-82.82604,35.92972],[-82.82257,35.92253],[-82.82186,35.92184],[-82.81613,35.92399],[-82.81107,35.9268],[-82.80904,35.92724],[-82.805,35.92717],[-82.80289,35.92901],[-82.80277,35.93013],[-82.80577,35.93532],[-82.80617,35.93691],[-82.80585,35.93794],[-82.80043,35.94416],[-82.78746,35.95216],[-82.78519,35.95923],[-82.78536,35.96253],[-82.78454,35.9639],[-82.78308,35.96498],[-82.77775,35.96691],[-82.77491,35.97198],[-82.77643,35.97389],[-82.77863,35.97479],[-82.78032,35.97436],[-82.78181,35.97456],[-82.78556,35.9778],[-82.78527,35.98793],[-82.7794,35.99251],[-82.77859,35.997],[-82.77728,35.99881],[-82.776,36.0001],[-82.76537,36.003],[-82.75916,36.0042],[-82.75446,36.0043],[-82.75007,36.006],[-82.73186,36.0176],[-82.72786,36.0185],[-82.72507,36.0182],[-82.71596,36.0228],[-82.71537,36.02425],[-82.71556,36.0269],[-82.71516,36.0286],[-82.70746,36.0301],[-82.70316,36.0324],[-82.70106,36.0344],[-82.68887,36.0386],[-82.68556,36.042],[-82.68476,36.045],[-82.68357,36.0461],[-82.67297,36.0504],[-82.66836,36.05291],[-82.66267,36.05501],[-82.65725,36.05664],[-82.65481,36.05622],[-82.65017,36.05781],[-82.64356,36.0628],[-82.63716,36.0658],[-82.63227,36.06571],[-82.62837,36.06211],[-82.61866,36.05611],[-82.61726,36.05421],[-82.61806,36.05121],[-82.61816,36.047],[-82.61356,36.04641],[-82.60966,36.04491],[-82.60616,36.04101],[-82.60288,36.03983],[-82.60166,36.03801],[-82.60176,36.03601],[-82.60006,36.03629],[-82.59604,36.03661],[-82.59196,36.03571],[-82.59096,36.03361],[-82.59076,36.03191],[-82.59487,36.0296],[-82.60016,36.02571],[-82.60176,36.02431],[-82.60396,36.02131],[-82.60286,36.01791],[-82.6033,36.01734],[-82.60696,36.01631],[-82.60826,36.01531],[-82.60936,36.01141],[-82.60756,36.01021],[-82.60846,36.00831],[-82.61186,36.00621],[-82.61386,36.00471],[-82.61436,36.00351],[-82.61506,36.00031],[-82.61303,35.994],[-82.6126,35.99349],[-82.60694,35.99217],[-82.60424,35.98732],[-82.60674,35.98445],[-82.61088,35.97444],[-82.6116,35.97142],[-82.61089,35.96741],[-82.60776,35.96602],[-82.60037,35.96463],[-82.59486,35.96535],[-82.59198,35.96639],[-82.581,35.96556],[-82.57772,35.9642],[-82.57668,35.95925],[-82.57517,35.95838],[-82.5675,35.95555],[-82.55787,35.9539],[-82.55319,35.96063],[-82.54968,35.96428],[-82.54246,35.96799],[-82.53927,35.96912],[-82.53476,35.96989],[-82.53129,35.97219],[-82.5227,35.97344],[-82.52066,35.97463],[-82.51644,35.97596],[-82.5126,35.97566],[-82.50707,35.97747],[-82.50538,35.97768],[-82.50021,35.98256],[-82.48745,35.99156],[-82.48468,35.99285],[-82.48367,35.99387],[-82.4835,35.99628],[-82.48229,35.99782],[-82.47419,36.00011],[-82.46456,36.00651],[-82.46066,36.00781],[-82.40946,36.08341],[-82.40446,36.08761],[-82.38996,36.09691],[-82.38046,36.09931],[-82.37876,36.10281],[-82.37556,36.10561],[-82.37138,36.10639],[-82.36657,36.10765],[-82.36092,36.11061],[-82.36036,36.11161],[-82.35516,36.11561],[-82.34996,36.11711],[-82.34842,36.11593],[-82.34686,36.11521],[-82.33676,36.11491],[-82.33229,36.11693],[-82.32918,36.11743],[-82.32517,36.11936],[-82.32145,36.11955],[-82.31816,36.12091],[-82.30866,36.12651],[-82.30725,36.12851],[-82.30285,36.13131],[-82.29766,36.13351],[-82.28946,36.13571],[-82.28845,36.13541],[-82.28035,36.12881],[-82.27865,36.12851],[-82.27405,36.12941],[-82.27095,36.12761],[-82.26875,36.12704],[-82.26569,36.12761],[-82.26335,36.13011],[-82.26035,36.13371],[-82.25632,36.13392],[-82.25325,36.13371],[-82.25185,36.13221],[-82.24752,36.13087],[-82.24446,36.13278],[-82.24335,36.13431],[-82.24155,36.13711],[-82.23641,36.13993],[-82.23548,36.14075],[-82.23481,36.14172],[-82.22829,36.14662],[-82.22485,36.15001],[-82.22323,36.15477],[-82.22205,36.15691],[-82.21845,36.15783],[-82.21385,36.15911],[-82.21125,36.15901],[-82.20487,36.15707],[-82.20181,36.15496],[-82.19925,36.15271],[-82.19535,36.15001],[-82.19195,36.14881],[-82.19027,36.1501],[-82.18751,36.1511],[-82.18685,36.15001],[-82.18685,36.14911],[-82.18545,36.14721],[-82.18475,36.14541],[-82.18365,36.14441],[-82.18255,36.14371],[-82.18035,36.14391],[-82.17886,36.1433],[-82.17685,36.14221],[-82.17465,36.14361],[-82.17385,36.14531],[-82.17215,36.14641],[-82.16925,36.14661],[-82.16088,36.14655],[-82.15595,36.14811],[-82.14795,36.14952],[-82.14415,36.14422],[-82.14085,36.13622],[-82.13655,36.12882],[-82.13655,36.12372],[-82.13797,36.11958],[-82.13065,36.10642],[-82.12715,36.10442],[-82.11525,36.10462],[-82.10914,36.10722],[-82.10544,36.10812],[-82.10164,36.10622],[-82.09854,36.10572],[-82.08594,36.10602],[-82.08014,36.10572],[-82.07974,36.10652],[-82.06714,36.11202],[-82.06134,36.11312],[-82.05604,36.12072],[-82.05604,36.12392],[-82.05414,36.12682],[-82.04394,36.12542],[-82.03794,36.12112],[-82.03314,36.12042],[-82.02874,36.12432],[-82.02634,36.12922],[-82.02664,36.13022],[-81.9601,36.22813],[-81.9389,36.25607],[-81.90814,36.30201],[-81.8977,36.30745],[-81.89457,36.30718],[-81.88724,36.30919],[-81.87938,36.31377],[-81.87618,36.31607],[-81.87434,36.31919],[-81.86315,36.33021],[-81.85733,36.33479],[-81.85089,36.3375],[-81.84564,36.34036],[-81.84127,36.34332],[-81.8332,36.34734],[-81.82249,36.34882],[-81.8129,36.35107],[-81.80826,36.35412],[-81.80081,36.35807],[-81.79717,36.35867],[-81.79568,36.36124],[-81.7936,36.36221],[-81.79304,36.3578],[-81.7908,36.35591],[-81.79073,36.35365],[-81.79053,36.35084],[-81.78938,36.34815],[-81.78408,36.34767],[-81.78132,36.34766],[-81.77891,36.34864],[-81.77484,36.34448],[-81.77295,36.34338],[-81.77168,36.34357],[-81.76901,36.34228],[-81.76898,36.34104],[-81.76493,36.33867],[-81.76203,36.34019],[-81.75939,36.34005],[-81.75682,36.33895],[-81.75442,36.33704],[-81.75128,36.33719],[-81.75023,36.33786],[-81.74784,36.33736],[-81.74446,36.33778],[-81.7395,36.33976],[-81.73596,36.34299],[-81.73098,36.34119],[-81.72809,36.34144],[-81.72594,36.34036],[-81.72463,36.33991],[-81.72357,36.33894],[-81.72101,36.33864],[-81.71831,36.33606],[-81.71719,36.33617],[-81.71324,36.33605],[-81.70744,36.33517],[-81.70697,36.33725],[-81.70597,36.3385],[-81.7053,36.34185],[-81.70779,36.34601],[-81.70867,36.3464],[-81.71324,36.34666],[-81.7174,36.34778],[-81.72146,36.35117],[-81.72322,36.35477],[-81.72432,36.35776],[-81.72405,36.3609],[-81.72405,36.36429],[-81.72608,36.36889],[-81.73118,36.37406],[-81.73241,36.37793],[-81.73461,36.37957],[-81.73359,36.38203],[-81.73074,36.38294],[-81.72931,36.3856],[-81.7301,36.38643],[-81.73019,36.38881],[-81.72857,36.39124],[-81.73099,36.39391],[-81.73388,36.39457],[-81.73872,36.3948],[-81.73919,36.39828],[-81.73866,36.4012],[-81.73965,36.4016],[-81.74065,36.40174],[-81.74076,36.40252],[-81.74136,36.40317],[-81.74134,36.4043],[-81.74054,36.40487],[-81.74012,36.40811],[-81.742,36.41096],[-81.74065,36.41314],[-81.7373,36.41359],[-81.73543,36.4123],[-81.7343,36.4126],[-81.73431,36.41334],[-81.73339,36.41489],[-81.72992,36.41542],[-81.72916,36.41767],[-81.7275,36.41837],[-81.72716,36.41992],[-81.72399,36.4205],[-81.72343,36.42224],[-81.72073,36.42254],[-81.71794,36.42876],[-81.71756,36.43039],[-81.72123,36.43395],[-81.71456,36.43711],[-81.71543,36.43857],[-81.71419,36.44146],[-81.71718,36.44389],[-81.71744,36.44516],[-81.71374,36.44711],[-81.71428,36.45098],[-81.71508,36.45336],[-81.71489,36.45722],[-81.70825,36.46222],[-81.70108,36.46421],[-81.69922,36.46396],[-81.69797,36.46474],[-81.69531,36.46791],[-81.69453,36.47328],[-81.69483,36.47446],[-81.69628,36.4755],[-81.69729,36.48474],[-81.69591,36.49158],[-81.69683,36.49339],[-81.69726,36.49614],[-81.69827,36.49722],[-81.69993,36.49802],[-81.70024,36.50048],[-81.69992,36.50086],[-81.69797,36.50406],[-81.69729,36.50489],[-81.69783,36.50754],[-81.69774,36.50845],[-81.69945,36.5115],[-81.6996,36.51288],[-81.70055,36.51519],[-81.70254,36.52032],[-81.70757,36.5261],[-81.70826,36.53211],[-81.70796,36.53621],[-81.69996,36.53683],[-81.69996,36.53971],[-81.69754,36.54436],[-81.69384,36.54908],[-81.69003,36.55215],[-81.68912,36.55591],[-81.69013,36.55964],[-81.69217,36.56269],[-81.69251,36.56575],[-81.69024,36.56872],[-81.68644,36.56792],[-81.67994,36.56862],[-81.67704,36.57072],[-81.67724,36.57441],[-81.67904,36.57892],[-81.68014,36.58552],[-81.67754,36.58812]]]]}}]}