{"type":"FeatureCollection","features":[{"type":"Feature","properties":{"name":"South Carolina","density":155.4,"STUSPS":"SC"},"geometry":{"type":"MultiPolygon","coordinates":[[[[-79.50795,33.02008],[-79.50713,33.01974],[-79.50549,33.02054],[-79.50463,33.02017],[-79.5033,33.02025],[-79.50237,33.02058],[-79.50151,33.01971],[-79.50097,33.01887],[-79.50097,33.01819],[-79.50136,33.01755],[-79.50198,33.01727],[-79.50311,33.01756],[-79.50414,33.01873],[-79.50513,33.0192],[-79.50642,33.01942],[-79.5074,33.01937],[-79.50807,33.01959],[-79.50795,33.02008]]],[[[-79.55361,32.99039],[-79.55135,32.99188],[-79.54873,32.99298],[-79.54648,32.99238],[-79.54522,32.99072],[-79.54707,32.98939],[-79.54957,32.98939],[-79.55087,32.98949],[-79.55218,32.98879],[-79.55361,32.99039]]],[[[-80.18632,32.55302],[-80.18449,32.55358],[-80.17796,32.54968],[-80.17715,32.54826],[-80.17873,32.54718],[-80.18205,32.54722],[-80.18591,32.55087],[-80.18632,32.55302]]],[[[-83.10956,35.0012],[-83.10857,35.00135],[-82.99987,35.02995],[-82.8975,35.05602],[-82.80977,35.07875],[-82.78787,35.08502],[-82.78328,35.0856],[-82.78106,35.08449],[-82.77865,35.08358],[-82.77636,35.08135],[-82.77741,35.07688],[-82.77993,35.07221],[-82.77993,35.07044],[-82.78055,35.06904],[-82.78197,35.06682],[-82.77738,35.06414],[-82.77005,35.06548],[-82.76446,35.06818],[-82.7577,35.06802],[-82.75416,35.06963],[-82.75127,35.07346],[-82.7523,35.07689],[-82.75181,35.07989],[-82.74888,35.08109],[-82.74326,35.07869],[-82.73838,35.07945],[-82.7359,35.0827],[-82.734,35.08547],[-82.73011,35.08828],[-82.72952,35.09059],[-82.72896,35.09198],[-82.72701,35.09414],[-82.72346,35.09434],[-82.72044,35.09327],[-82.7153,35.09294],[-82.70715,35.09654],[-82.70544,35.09802],[-82.70215,35.09911],[-82.7005,35.10076],[-82.69878,35.09572],[-82.69768,35.09573],[-82.6949,35.09846],[-82.68963,35.10412],[-82.68846,35.10635],[-82.68648,35.10816],[-82.68716,35.10931],[-82.68728,35.11067],[-82.69071,35.1115],[-82.69326,35.11305],[-82.69463,35.11474],[-82.69355,35.11688],[-82.69245,35.11867],[-82.68764,35.11929],[-82.68674,35.11979],[-82.6865,35.12182],[-82.68708,35.12512],[-82.68363,35.12583],[-82.68144,35.12792],[-82.67655,35.1268],[-82.67462,35.12644],[-82.67328,35.12339],[-82.67332,35.121],[-82.67446,35.11847],[-82.67327,35.11748],[-82.66997,35.11985],[-82.66905,35.12062],[-82.66797,35.11879],[-82.66238,35.11812],[-82.65786,35.11939],[-82.65351,35.12197],[-82.65175,35.12336],[-82.65219,35.12605],[-82.64869,35.12677],[-82.6453,35.12681],[-82.64331,35.13043],[-82.64104,35.13232],[-82.64016,35.13004],[-82.63648,35.13036],[-82.63675,35.12932],[-82.63583,35.12761],[-82.63624,35.1255],[-82.62903,35.12615],[-82.62644,35.1279],[-82.62485,35.13043],[-82.62118,35.13464],[-82.61799,35.13527],[-82.6144,35.1367],[-82.61387,35.13753],[-82.61244,35.13823],[-82.60971,35.13904],[-82.60236,35.13904],[-82.59814,35.13773],[-82.59243,35.139],[-82.58816,35.14293],[-82.58603,35.14314],[-82.58184,35.14235],[-82.58069,35.14174],[-82.57832,35.1421],[-82.56991,35.14527],[-82.56749,35.14769],[-82.56619,35.15012],[-82.56377,35.15158],[-82.56081,35.15164],[-82.55859,35.15093],[-82.55617,35.15174],[-82.55333,35.15349],[-82.55487,35.15464],[-82.55616,35.15784],[-82.55576,35.15935],[-82.55327,35.16165],[-82.54991,35.16158],[-82.54744,35.16244],[-82.54637,35.16373],[-82.54505,35.16231],[-82.54164,35.16207],[-82.54058,35.16128],[-82.53675,35.16009],[-82.53597,35.15866],[-82.53734,35.1562],[-82.53647,35.15478],[-82.5351,35.15477],[-82.53209,35.15601],[-82.52997,35.15562],[-82.52593,35.15675],[-82.5214,35.15885],[-82.51993,35.1591],[-82.51921,35.16104],[-82.51887,35.16222],[-82.51728,35.16264],[-82.51604,35.16344],[-82.51309,35.16309],[-82.51154,35.16327],[-82.50791,35.16241],[-82.50614,35.16389],[-82.50494,35.16573],[-82.50368,35.16593],[-82.49846,35.16295],[-82.49502,35.16451],[-82.49077,35.16971],[-82.48736,35.17249],[-82.48394,35.1738],[-82.47614,35.17549],[-82.47231,35.17462],[-82.46799,35.17463],[-82.46009,35.17814],[-82.45561,35.17742],[-82.45431,35.17741],[-82.45299,35.17469],[-82.45161,35.1727],[-82.45483,35.17008],[-82.45764,35.16684],[-82.45713,35.16395],[-82.45046,35.16612],[-82.44807,35.16522],[-82.44362,35.1661],[-82.43959,35.16586],[-82.43767,35.16779],[-82.43569,35.16772],[-82.43468,35.16828],[-82.43516,35.16993],[-82.43373,35.1718],[-82.43185,35.17272],[-82.43137,35.17386],[-82.43169,35.17641],[-82.43067,35.1783],[-82.42834,35.17874],[-82.42681,35.17892],[-82.42596,35.18104],[-82.42582,35.18208],[-82.428,35.18322],[-82.42446,35.19309],[-82.41974,35.19861],[-82.4176,35.20013],[-82.4113,35.20248],[-82.40335,35.20447],[-82.3957,35.21321],[-82.39293,35.2154],[-82.39044,35.2154],[-82.38403,35.21054],[-82.38378,35.20765],[-82.38052,35.20228],[-82.37874,35.19805],[-82.37919,35.19589],[-82.38139,35.19397],[-82.38259,35.19249],[-82.38222,35.18959],[-82.37971,35.18688],[-82.37681,35.18443],[-82.37322,35.1822],[-82.3713,35.18145],[-82.36899,35.18175],[-82.3643,35.18473],[-82.36348,35.18621],[-82.36355,35.188],[-82.36326,35.18964],[-82.36147,35.19083],[-82.35009,35.19286],[-82.34455,35.19311],[-82.34119,35.19151],[-82.34013,35.18919],[-82.33951,35.18893],[-82.33801,35.18901],[-82.33393,35.19066],[-82.33298,35.19065],[-82.33078,35.18903],[-82.33055,35.18677],[-82.32692,35.18506],[-82.32335,35.18479],[-82.31787,35.18786],[-82.31587,35.19068],[-82.31486,35.19109],[-82.30717,35.19301],[-82.29535,35.19497],[-82.28845,35.19861],[-82.28252,35.19986],[-82.27492,35.20007],[-82.25751,35.19864],[-82.23091,35.19678],[-82.21622,35.19604],[-82.19548,35.19495],[-82.18551,35.19436],[-82.17687,35.19379],[-82.16768,35.1937],[-82.13895,35.19312],[-82.08959,35.1907],[-82.00142,35.18849],[-81.92561,35.1855],[-81.87443,35.18411],[-81.80208,35.1814],[-81.71626,35.17885],[-81.58168,35.17308],[-81.49426,35.16988],[-81.4934,35.16995],[-81.4524,35.16829],[-81.36669,35.16489],[-81.24169,35.16008],[-81.23936,35.15997],[-81.1093,35.15411],[-81.04363,35.14988],[-81.04287,35.14925],[-81.04341,35.14839],[-81.04439,35.14792],[-81.04709,35.14516],[-81.04783,35.14374],[-81.0512,35.13324],[-81.05104,35.13165],[-81.05042,35.13105],[-81.03897,35.1263],[-81.03676,35.12255],[-81.03301,35.11375],[-81.03247,35.11003],[-81.03281,35.10805],[-81.03496,35.1041],[-81.03737,35.10254],[-81.04652,35.10062],[-81.05008,35.09882],[-81.05208,35.09628],[-81.05724,35.08613],[-81.05803,35.07319],[-81.05765,35.06243],[-81.0557,35.06012],[-81.05002,35.05525],[-81.04149,35.0447],[-80.95787,35.09264],[-80.93495,35.10741],[-80.90655,35.07676],[-80.88489,35.05351],[-80.82156,34.97969],[-80.80646,34.96289],[-80.78204,34.93578],[-80.79754,34.81979],[-80.77771,34.8197],[-80.6466,34.81859],[-80.64466,34.81857],[-80.62608,34.81822],[-80.62122,34.81817],[-80.56166,34.81748],[-80.49979,34.81726],[-80.49181,34.8168],[-80.45166,34.8164],[-80.43484,34.81597],[-80.4259,34.81581],[-80.41959,34.81558],[-80.41843,34.81562],[-80.41701,34.81551],[-80.39987,34.81513],[-80.23396,34.81293],[-80.09899,34.81015],[-80.09802,34.81015],[-80.07722,34.80972],[-80.07291,34.80974],[-80.04276,34.8091],[-80.02746,34.80873],[-79.92762,34.80656],[-79.87069,34.80538],[-79.77361,34.80593],[-79.77283,34.80595],[-79.74492,34.80569],[-79.74412,34.80565],[-79.6902,34.80494],[-79.68809,34.8049],[-79.6753,34.80474],[-79.63422,34.77101],[-79.63158,34.76884],[-79.56169,34.712],[-79.55445,34.70636],[-79.51904,34.67732],[-79.4902,34.65382],[-79.4793,34.64464],[-79.4716,34.6372],[-79.46872,34.63532],[-79.45977,34.62903],[-79.45003,34.62104],[-79.35832,34.54536],[-79.33133,34.52187],[-79.32485,34.51628],[-79.32325,34.51463],[-79.30665,34.50043],[-79.24976,34.44977],[-79.19898,34.4067],[-79.19204,34.40104],[-79.19074,34.39975],[-79.15148,34.36675],[-79.14324,34.35982],[-79.07117,34.29924],[-78.87475,34.13439],[-78.71221,33.99673],[-78.71014,33.99469],[-78.70277,33.98927],[-78.66253,33.95452],[-78.61593,33.91552],[-78.54732,33.85648],[-78.55377,33.85273],[-78.55343,33.85088],[-78.55464,33.84917],[-78.56198,33.84883],[-78.57819,33.84685],[-78.59171,33.84343],[-78.63447,33.82953],[-78.66793,33.81943],[-78.6977,33.808],[-78.73624,33.78964],[-78.76388,33.77426],[-78.79579,33.75506],[-78.82263,33.73719],[-78.8438,33.72133],[-78.85905,33.70906],[-78.86663,33.70303],[-78.87999,33.69121],[-78.8862,33.6842],[-78.89257,33.67942],[-78.91406,33.66162],[-78.93843,33.64001],[-78.95726,33.62083],[-78.98526,33.59078],[-79.00736,33.56656],[-79.01189,33.56073],[-79.01911,33.55015],[-79.02413,33.53956],[-79.02863,33.53341],[-79.0305,33.53198],[-79.03238,33.5319],[-79.03361,33.53314],[-79.03645,33.53329],[-79.0388,33.5315],[-79.03855,33.52887],[-79.04396,33.51922],[-79.06494,33.5014],[-79.08459,33.48367],[-79.10136,33.46102],[-79.10895,33.44732],[-79.11536,33.43914],[-79.11934,33.43204],[-79.13544,33.40387],[-79.14035,33.39344],[-79.1432,33.38898],[-79.1475,33.37824],[-79.15301,33.35204],[-79.15852,33.33674],[-79.16267,33.33118],[-79.16809,33.33131],[-79.17211,33.32912],[-79.17213,33.32517],[-79.16936,33.32119],[-79.16555,33.31855],[-79.16376,33.31205],[-79.16633,33.30852],[-79.17164,33.29522],[-79.17641,33.27726],[-79.18032,33.25414],[-79.1809,33.24675],[-79.18056,33.23795],[-79.17571,33.21106],[-79.1832,33.19694],[-79.1832,33.19077],[-79.18819,33.18172],[-79.19152,33.17327],[-79.19449,33.16979],[-79.21545,33.15557],[-79.22373,33.14979],[-79.23663,33.13758],[-79.24642,33.12601],[-79.26924,33.11954],[-79.29159,33.10977],[-79.30594,33.10316],[-79.31606,33.09923],[-79.32339,33.09258],[-79.32816,33.09041],[-79.33021,33.08659],[-79.33187,33.08101],[-79.33591,33.07026],[-79.34149,33.05382],[-79.35124,33.03519],[-79.3598,33.01965],[-79.36229,33.00909],[-79.37358,33.00869],[-79.38,33.00939],[-79.39675,33.00819],[-79.41652,33.00682],[-79.42314,33.01018],[-79.42148,33.01118],[-79.41163,33.01034],[-79.40108,33.01118],[-79.40065,33.01751],[-79.40442,33.01962],[-79.4052,33.01802],[-79.40729,33.01445],[-79.41636,33.01612],[-79.45285,33.01268],[-79.47056,33.01008],[-79.47468,33.01139],[-79.48327,33.00979],[-79.48933,33.01397],[-79.48873,33.01583],[-79.50407,33.02742],[-79.50692,33.03281],[-79.52245,33.03535],[-79.52522,33.03729],[-79.53211,33.03519],[-79.53215,33.03146],[-79.53497,33.02847],[-79.54132,33.02599],[-79.54532,33.02654],[-79.55142,33.02396],[-79.55482,33.0216],[-79.55756,33.02127],[-79.56318,33.01768],[-79.56619,33.01528],[-79.57111,33.01381],[-79.57597,33.00923],[-79.58073,33.00645],[-79.58131,33.00271],[-79.58334,33.00035],[-79.58372,32.99616],[-79.58659,32.99133],[-79.59276,32.98522],[-79.59842,32.98107],[-79.59866,32.97965],[-79.60102,32.97928],[-79.60662,32.97225],[-79.60551,32.96836],[-79.60622,32.96559],[-79.608,32.96335],[-79.61761,32.95273],[-79.61772,32.94487],[-79.61293,32.93482],[-79.60753,32.92623],[-79.58981,32.92453],[-79.5859,32.92646],[-79.58571,32.92956],[-79.58315,32.93088],[-79.58009,32.93088],[-79.57816,32.93287],[-79.57577,32.9338],[-79.57409,32.93251],[-79.57341,32.92788],[-79.57461,32.92112],[-79.57809,32.91041],[-79.58106,32.90642],[-79.63115,32.88861],[-79.6418,32.88121],[-79.64666,32.87606],[-79.64972,32.87644],[-79.65593,32.87588],[-79.66722,32.86979],[-79.68124,32.86171],[-79.69338,32.85282],[-79.69812,32.85133],[-79.69918,32.84763],[-79.6993,32.8439],[-79.70379,32.83602],[-79.71012,32.83335],[-79.71988,32.8258],[-79.71807,32.81698],[-79.72071,32.81115],[-79.72639,32.806],[-79.73659,32.80159],[-79.75647,32.7966],[-79.78757,32.78447],[-79.80504,32.77509],[-79.81132,32.77479],[-79.81398,32.77482],[-79.81451,32.77045],[-79.81824,32.76635],[-79.82397,32.76273],[-79.84035,32.75682],[-79.8488,32.75363],[-79.8547,32.75488],[-79.86271,32.76153],[-79.86639,32.76602],[-79.86342,32.77102],[-79.86544,32.77492],[-79.87063,32.77826],[-79.87804,32.78571],[-79.886,32.78791],[-79.89123,32.78681],[-79.90002,32.78531],[-79.90609,32.78481],[-79.9232,32.78181],[-79.92439,32.77502],[-79.92736,32.77252],[-79.92878,32.76912],[-79.92855,32.75423],[-79.9232,32.75303],[-79.91797,32.75443],[-79.91547,32.75363],[-79.90894,32.75163],[-79.90109,32.75103],[-79.89907,32.75333],[-79.89729,32.75203],[-79.89634,32.74954],[-79.89087,32.75103],[-79.87911,32.75083],[-79.87093,32.74243],[-79.86936,32.73364],[-79.87015,32.73],[-79.88006,32.71605],[-79.88359,32.70932],[-79.88709,32.70195],[-79.88803,32.69518],[-79.88802,32.68765],[-79.88558,32.68487],[-79.88708,32.68305],[-79.91568,32.66492],[-79.94376,32.65233],[-79.95803,32.64616],[-79.97002,32.64052],[-79.9743,32.64102],[-79.98,32.63242],[-79.98692,32.62639],[-79.9901,32.6161],[-79.99224,32.611],[-80.0008,32.60589],[-80.00603,32.60599],[-80.0105,32.60885],[-80.01696,32.6104],[-80.03728,32.61024],[-80.07704,32.60332],[-80.09807,32.59828],[-80.12137,32.59052],[-80.13994,32.58028],[-80.14541,32.57813],[-80.15568,32.57198],[-80.16375,32.56183],[-80.16655,32.56022],[-80.17596,32.55921],[-80.1793,32.56023],[-80.19499,32.56003],[-80.20217,32.5574],[-80.21802,32.55109],[-80.23678,32.54232],[-80.26147,32.52801],[-80.27736,32.51802],[-80.2955,32.5037],[-80.33244,32.4781],[-80.33835,32.47873],[-80.34187,32.48378],[-80.3447,32.49097],[-80.34674,32.4945],[-80.36041,32.49981],[-80.36252,32.49563],[-80.36905,32.49178],[-80.37063,32.48758],[-80.37359,32.48722],[-80.37598,32.48799],[-80.38072,32.48636],[-80.38774,32.48297],[-80.38941,32.47926],[-80.38963,32.47711],[-80.39256,32.47533],[-80.41349,32.47067],[-80.41594,32.47207],[-80.4179,32.47608],[-80.41912,32.47896],[-80.41837,32.48242],[-80.4186,32.4895],[-80.42156,32.49484],[-80.42589,32.4967],[-80.43092,32.50091],[-80.43941,32.50347],[-80.44407,32.50492],[-80.44788,32.50352],[-80.45465,32.50352],[-80.45762,32.49951],[-80.46309,32.49781],[-80.47207,32.49696],[-80.4813,32.47559],[-80.47784,32.472],[-80.47688,32.46791],[-80.47988,32.46399],[-80.48234,32.46182],[-80.48462,32.46098],[-80.47941,32.44575],[-80.47544,32.44223],[-80.46964,32.43376],[-80.46759,32.42526],[-80.46153,32.41289],[-80.4575,32.41026],[-80.443,32.41127],[-80.44075,32.41337],[-80.43556,32.41246],[-80.43296,32.41066],[-80.42922,32.40555],[-80.4283,32.39932],[-80.42929,32.38967],[-80.43599,32.37504],[-80.44014,32.36785],[-80.44421,32.35493],[-80.454,32.33927],[-80.45572,32.33924],[-80.45893,32.34116],[-80.46364,32.34011],[-80.46439,32.33616],[-80.46272,32.33342],[-80.45506,32.32679],[-80.45286,32.32301],[-80.4533,32.32191],[-80.45969,32.32074],[-80.47857,32.31463],[-80.49938,32.30614],[-80.50388,32.30749],[-80.52137,32.29961],[-80.53877,32.29028],[-80.54447,32.29032],[-80.54864,32.2856],[-80.56326,32.28072],[-80.56643,32.27837],[-80.57624,32.27528],[-80.58147,32.27649],[-80.58171,32.2782],[-80.58846,32.28266],[-80.595,32.27974],[-80.59868,32.27693],[-80.60641,32.27251],[-80.60902,32.26789],[-80.61366,32.26527],[-80.61984,32.26226],[-80.62369,32.25806],[-80.63297,32.25693],[-80.63992,32.25864],[-80.64539,32.26085],[-80.64646,32.26507],[-80.64404,32.26867],[-80.64301,32.27281],[-80.64526,32.28808],[-80.64479,32.2915],[-80.66825,32.29784],[-80.67379,32.29642],[-80.67938,32.29923],[-80.68853,32.30285],[-80.69847,32.31066],[-80.69965,32.31523],[-80.70815,32.32373],[-80.7146,32.32566],[-80.72222,32.3247],[-80.73364,32.31947],[-80.73881,32.31377],[-80.73799,32.3104],[-80.73712,32.30603],[-80.73969,32.30518],[-80.741,32.30378],[-80.74266,32.30342],[-80.74683,32.30551],[-80.75345,32.30682],[-80.76604,32.29261],[-80.76542,32.28597],[-80.76126,32.28004],[-80.75544,32.27595],[-80.75044,32.2706],[-80.74593,32.26688],[-80.74379,32.26608],[-80.74236,32.26377],[-80.73808,32.26417],[-80.73601,32.26688],[-80.73155,32.26889],[-80.73012,32.2705],[-80.72708,32.27055],[-80.72263,32.26748],[-80.72086,32.26801],[-80.7178,32.26697],[-80.7059,32.25616],[-80.69776,32.2502],[-80.69326,32.24698],[-80.68651,32.24419],[-80.6823,32.24052],[-80.67785,32.23641],[-80.67222,32.22951],[-80.66979,32.22343],[-80.66788,32.22068],[-80.66917,32.21678],[-80.67165,32.21341],[-80.68628,32.20321],[-80.70019,32.18834],[-80.71429,32.1686],[-80.72152,32.16069],[-80.7299,32.1528],[-80.73994,32.14613],[-80.75973,32.13687],[-80.7701,32.13215],[-80.79,32.12249],[-80.8125,32.10975],[-80.82153,32.10859],[-80.82839,32.11322],[-80.84242,32.11784],[-80.84421,32.11552],[-80.84801,32.10889],[-80.85873,32.09958],[-80.86465,32.09267],[-80.87213,32.08288],[-80.8738,32.0823],[-80.87614,32.08181],[-80.88319,32.08008],[-80.88568,32.07606],[-80.88663,32.07193],[-80.89188,32.06753],[-80.89572,32.0631],[-80.89663,32.05996],[-80.89982,32.05602],[-80.90752,32.05094],[-80.90804,32.0483],[-80.90169,32.0427],[-80.89446,32.04509],[-80.88867,32.0399],[-80.88951,32.03759],[-80.89495,32.03831],[-80.90402,32.03995],[-80.90766,32.03815],[-80.92103,32.03999],[-80.92508,32.04194],[-80.95388,32.07014],[-80.95957,32.07285],[-80.97191,32.07463],[-80.98054,32.07784],[-80.98351,32.07955],[-80.98685,32.08412],[-80.99214,32.09492],[-80.99956,32.10043],[-81.00431,32.10237],[-81.01102,32.10205],[-81.01735,32.09878],[-81.02162,32.09168],[-81.02626,32.08813],[-81.03812,32.08373],[-81.04354,32.0861],[-81.05955,32.08862],[-81.07431,32.09739],[-81.08827,32.09993],[-81.08697,32.10397],[-81.08948,32.10623],[-81.09125,32.11089],[-81.09498,32.11182],[-81.10332,32.11114],[-81.1067,32.1097],[-81.10894,32.11163],[-81.11113,32.11201],[-81.11537,32.11471],[-81.11723,32.1176],[-81.11723,32.1198],[-81.11524,32.1255],[-81.11613,32.12868],[-81.11994,32.134],[-81.11913,32.1421],[-81.11833,32.1444],[-81.11624,32.1472],[-81.11223,32.14931],[-81.11224,32.1508],[-81.1143,32.15202],[-81.11797,32.15233],[-81.12112,32.1545],[-81.12214,32.1573],[-81.12203,32.1618],[-81.12313,32.1629],[-81.12843,32.1644],[-81.12975,32.16593],[-81.12813,32.1691],[-81.12119,32.17492],[-81.11901,32.17467],[-81.11775,32.17116],[-81.11384,32.17126],[-81.11113,32.1727],[-81.11023,32.1768],[-81.11193,32.178],[-81.11393,32.1776],[-81.11638,32.17617],[-81.12045,32.17829],[-81.11983,32.1812],[-81.11793,32.1853],[-81.11823,32.1892],[-81.12155,32.19042],[-81.12158,32.1922],[-81.11623,32.193],[-81.11412,32.19392],[-81.11402,32.19545],[-81.11589,32.19644],[-81.1198,32.19516],[-81.12206,32.1955],[-81.12315,32.20133],[-81.12828,32.20863],[-81.13408,32.21146],[-81.13673,32.21367],[-81.13672,32.21627],[-81.13844,32.21926],[-81.14314,32.22173],[-81.15084,32.2212],[-81.15215,32.22232],[-81.14806,32.22378],[-81.14481,32.22599],[-81.14363,32.22927],[-81.14577,32.23234],[-81.15238,32.2363],[-81.15588,32.24097],[-81.15659,32.24391],[-81.1556,32.24602],[-81.15289,32.24781],[-81.14711,32.24956],[-81.14573,32.25152],[-81.14833,32.2551],[-81.14752,32.25651],[-81.14506,32.25775],[-81.14473,32.25877],[-81.14664,32.26102],[-81.1466,32.26277],[-81.14534,32.26399],[-81.14021,32.26358],[-81.13839,32.26423],[-81.13693,32.26611],[-81.13764,32.26849],[-81.13957,32.26976],[-81.14175,32.27021],[-81.14193,32.27174],[-81.13558,32.27247],[-81.13349,32.2698],[-81.13253,32.27025],[-81.13213,32.27275],[-81.13,32.2758],[-81.12795,32.27647],[-81.12525,32.27504],[-81.12342,32.27505],[-81.12328,32.27698],[-81.12592,32.27876],[-81.12716,32.28079],[-81.12696,32.2827],[-81.12572,32.28366],[-81.12224,32.28424],[-81.11987,32.2862],[-81.12002,32.28994],[-81.12336,32.29384],[-81.12392,32.29641],[-81.12266,32.29951],[-81.12233,32.30539],[-81.12293,32.3073],[-81.12498,32.30916],[-81.12778,32.30722],[-81.13152,32.30728],[-81.13305,32.30901],[-81.13085,32.31098],[-81.12975,32.31397],[-81.13165,32.3195],[-81.13065,32.32541],[-81.13176,32.32637],[-81.13375,32.32429],[-81.13629,32.325],[-81.13793,32.32866],[-81.13575,32.33028],[-81.13392,32.33331],[-81.13138,32.33588],[-81.12896,32.33645],[-81.12862,32.33862],[-81.12944,32.34155],[-81.13401,32.34121],[-81.1353,32.34299],[-81.13935,32.34508],[-81.14151,32.35032],[-81.14379,32.35153],[-81.14732,32.35013],[-81.14725,32.34749],[-81.14523,32.34584],[-81.14598,32.34502],[-81.14867,32.34532],[-81.15184,32.34302],[-81.15219,32.34144],[-81.15484,32.34155],[-81.15736,32.34],[-81.15983,32.33996],[-81.16062,32.34175],[-81.15983,32.34298],[-81.15674,32.34278],[-81.15505,32.34416],[-81.15484,32.34956],[-81.15537,32.35003],[-81.1601,32.34895],[-81.16161,32.35042],[-81.1605,32.35364],[-81.161,32.3559],[-81.16386,32.35665],[-81.16712,32.35872],[-81.16712,32.36104],[-81.17382,32.36271],[-81.17393,32.36355],[-81.169,32.36512],[-81.16791,32.3683],[-81.16922,32.37014],[-81.17379,32.3731],[-81.17576,32.37581],[-81.17886,32.37809],[-81.18184,32.37935],[-81.17849,32.38447],[-81.17732,32.38978],[-81.17871,32.39364],[-81.18536,32.40006],[-81.18991,32.40707],[-81.19493,32.41149],[-81.20551,32.42361],[-81.20505,32.42548],[-81.20844,32.437],[-81.19964,32.44159],[-81.19943,32.44419],[-81.20105,32.44622],[-81.20556,32.4465],[-81.20667,32.44809],[-81.2045,32.45278],[-81.20329,32.45299],[-81.19878,32.44852],[-81.19749,32.44914],[-81.19797,32.45388],[-81.19636,32.45513],[-81.1943,32.45352],[-81.19224,32.45364],[-81.19161,32.45519],[-81.19456,32.45777],[-81.19373,32.45968],[-81.1886,32.46123],[-81.18695,32.46357],[-81.18865,32.46531],[-81.19154,32.46482],[-81.19483,32.46509],[-81.20003,32.46798],[-81.21191,32.47899],[-81.21681,32.4828],[-81.225,32.49189],[-81.23359,32.49849],[-81.23425,32.50275],[-81.23766,32.50512],[-81.23868,32.50698],[-81.23841,32.51019],[-81.23671,32.5114],[-81.23295,32.51169],[-81.23215,32.51334],[-81.23342,32.51796],[-81.23546,32.51855],[-81.23737,32.51713],[-81.2402,32.51637],[-81.24191,32.51718],[-81.24312,32.52023],[-81.2448,32.52054],[-81.24686,32.51856],[-81.24956,32.51786],[-81.25288,32.51833],[-81.25868,32.52264],[-81.26603,32.52731],[-81.27243,32.53042],[-81.27417,32.53377],[-81.2799,32.53659],[-81.28005,32.53749],[-81.27624,32.53856],[-81.2748,32.54114],[-81.27496,32.54482],[-81.27574,32.54566],[-81.27906,32.54632],[-81.28073,32.54764],[-81.28103,32.54968],[-81.27876,32.55234],[-81.27924,32.55459],[-81.28132,32.55646],[-81.28327,32.55678],[-81.28424,32.55603],[-81.28472,32.55294],[-81.28647,32.55148],[-81.28888,32.55116],[-81.28996,32.55218],[-81.28834,32.55591],[-81.28847,32.55846],[-81.28957,32.56174],[-81.29129,32.56274],[-81.29311,32.56239],[-81.29116,32.55722],[-81.29176,32.55533],[-81.29483,32.55358],[-81.29669,32.55339],[-81.29787,32.55409],[-81.29796,32.55583],[-81.29548,32.55907],[-81.29559,32.56182],[-81.29796,32.56303],[-81.30059,32.56284],[-81.30524,32.56151],[-81.32181,32.55954],[-81.3286,32.56109],[-81.33319,32.5635],[-81.33624,32.56424],[-81.35076,32.57017],[-81.3548,32.57107],[-81.35832,32.57363],[-81.3578,32.57519],[-81.3537,32.57791],[-81.35412,32.57991],[-81.35775,32.58212],[-81.36017,32.58178],[-81.36294,32.57731],[-81.3652,32.57657],[-81.36695,32.57702],[-81.36711,32.57861],[-81.36359,32.58179],[-81.3645,32.58403],[-81.36839,32.58422],[-81.36982,32.58505],[-81.37028,32.5867],[-81.36888,32.58975],[-81.36976,32.59123],[-81.37157,32.59202],[-81.37396,32.59181],[-81.37569,32.58947],[-81.37817,32.58882],[-81.381,32.58965],[-81.38934,32.59544],[-81.39387,32.60234],[-81.40043,32.60826],[-81.40646,32.61304],[-81.40752,32.61658],[-81.40844,32.61719],[-81.41122,32.61773],[-81.41297,32.6204],[-81.41251,32.62157],[-81.41309,32.6248],[-81.41812,32.62835],[-81.41843,32.6347],[-81.41701,32.63615],[-81.41476,32.63744],[-81.41341,32.63737],[-81.41152,32.63291],[-81.41026,32.63139],[-81.4082,32.63131],[-81.40421,32.63524],[-81.40274,32.63703],[-81.40363,32.63793],[-81.41183,32.63938],[-81.41255,32.64152],[-81.41182,32.64216],[-81.40986,32.64202],[-81.40511,32.64269],[-81.40003,32.64576],[-81.39459,32.64957],[-81.39303,32.65154],[-81.39382,32.65349],[-81.39831,32.65631],[-81.40527,32.65652],[-81.40719,32.66052],[-81.4073,32.66156],[-81.40665,32.66251],[-81.40451,32.66264],[-81.40325,32.65946],[-81.40034,32.65849],[-81.39751,32.66021],[-81.39754,32.66259],[-81.40391,32.66688],[-81.40391,32.67064],[-81.40103,32.67749],[-81.40179,32.68118],[-81.40432,32.68376],[-81.40663,32.68486],[-81.40583,32.69046],[-81.40749,32.69233],[-81.40962,32.69705],[-81.41088,32.69686],[-81.41054,32.69251],[-81.4124,32.6921],[-81.41358,32.69547],[-81.41665,32.69551],[-81.41888,32.69621],[-81.4206,32.69983],[-81.42262,32.70086],[-81.42673,32.70087],[-81.4275,32.70224],[-81.42456,32.70533],[-81.4241,32.70756],[-81.42646,32.70902],[-81.42593,32.71004],[-81.42215,32.70974],[-81.42119,32.71198],[-81.42004,32.71242],[-81.41667,32.71228],[-81.41512,32.71367],[-81.41576,32.71588],[-81.42045,32.71985],[-81.42034,32.72105],[-81.41877,32.72185],[-81.41092,32.72121],[-81.40999,32.72186],[-81.41007,32.7231],[-81.41559,32.72353],[-81.41777,32.72507],[-81.41782,32.72658],[-81.41675,32.72876],[-81.41706,32.72968],[-81.41828,32.73092],[-81.41854,32.73259],[-81.41703,32.73309],[-81.41467,32.73208],[-81.41252,32.73243],[-81.4116,32.73385],[-81.41387,32.73748],[-81.41267,32.73908],[-81.40986,32.73952],[-81.4076,32.74033],[-81.40575,32.74254],[-81.40493,32.74556],[-81.40502,32.74828],[-81.40587,32.74914],[-81.41066,32.74932],[-81.4186,32.74799],[-81.41984,32.7498],[-81.41849,32.75219],[-81.41673,32.75328],[-81.41371,32.75283],[-81.41157,32.75312],[-81.40836,32.75469],[-81.408,32.75615],[-81.40956,32.75603],[-81.41226,32.75469],[-81.41404,32.75542],[-81.41182,32.76312],[-81.41401,32.76452],[-81.41663,32.76054],[-81.41777,32.76022],[-81.4189,32.76113],[-81.41736,32.76333],[-81.4171,32.76609],[-81.42202,32.76837],[-81.42911,32.7679],[-81.43194,32.76891],[-81.43208,32.77055],[-81.42985,32.77213],[-81.42258,32.773],[-81.4186,32.77273],[-81.41735,32.77334],[-81.41632,32.77551],[-81.41446,32.77815],[-81.41472,32.7792],[-81.41617,32.77979],[-81.42333,32.77851],[-81.42686,32.77946],[-81.43008,32.78177],[-81.43124,32.78414],[-81.42998,32.78524],[-81.42629,32.78266],[-81.42393,32.78273],[-81.42224,32.78399],[-81.42236,32.78575],[-81.42513,32.78619],[-81.42758,32.78694],[-81.42742,32.78832],[-81.425,32.79033],[-81.4197,32.79323],[-81.41988,32.79486],[-81.42298,32.794],[-81.42523,32.79419],[-81.42635,32.79888],[-81.42829,32.80083],[-81.4269,32.80224],[-81.42487,32.80188],[-81.42274,32.80199],[-81.42224,32.80313],[-81.42633,32.80993],[-81.42598,32.81108],[-81.42377,32.81051],[-81.41975,32.81373],[-81.4185,32.81566],[-81.41798,32.8182],[-81.41858,32.81868],[-81.42059,32.81865],[-81.42435,32.81618],[-81.42709,32.81687],[-81.42824,32.81858],[-81.42795,32.81938],[-81.42694,32.8197],[-81.42304,32.81975],[-81.42241,32.82024],[-81.42195,32.82147],[-81.42249,32.82289],[-81.42668,32.82573],[-81.42952,32.82715],[-81.42994,32.82825],[-81.4281,32.82868],[-81.42367,32.82831],[-81.42183,32.82926],[-81.42062,32.83122],[-81.42161,32.83518],[-81.42647,32.84077],[-81.43481,32.84354],[-81.43751,32.84016],[-81.43995,32.84036],[-81.44288,32.84585],[-81.44228,32.84859],[-81.44267,32.85011],[-81.44487,32.85097],[-81.4512,32.84792],[-81.45174,32.84477],[-81.45403,32.8442],[-81.46072,32.84604],[-81.46021,32.8474],[-81.45556,32.84651],[-81.45706,32.85039],[-81.45692,32.8526],[-81.45302,32.85964],[-81.45336,32.86385],[-81.45137,32.86716],[-81.45339,32.87388],[-81.45721,32.8738],[-81.46056,32.87516],[-81.46188,32.87755],[-81.46505,32.8809],[-81.46714,32.8806],[-81.46804,32.87667],[-81.47038,32.87627],[-81.47592,32.87764],[-81.47944,32.88108],[-81.4771,32.88747],[-81.4717,32.89044],[-81.4671,32.889],[-81.46593,32.88945],[-81.46828,32.89228],[-81.46465,32.896],[-81.46407,32.89781],[-81.46592,32.89989],[-81.46898,32.90108],[-81.47162,32.90001],[-81.47065,32.89504],[-81.47214,32.89381],[-81.47553,32.89672],[-81.48081,32.89861],[-81.48086,32.90022],[-81.47937,32.90233],[-81.47918,32.90564],[-81.48144,32.9089],[-81.48001,32.91344],[-81.4813,32.91459],[-81.48705,32.91477],[-81.48726,32.91785],[-81.48444,32.91882],[-81.4832,32.9218],[-81.4896,32.92704],[-81.49207,32.92782],[-81.49509,32.9316],[-81.49983,32.93261],[-81.50243,32.93535],[-81.50272,32.93869],[-81.49957,32.94372],[-81.49945,32.94499],[-81.50402,32.94809],[-81.50861,32.95255],[-81.51001,32.95733],[-81.51005,32.96097],[-81.51135,32.96672],[-81.5108,32.96852],[-81.50884,32.96937],[-81.50785,32.96885],[-81.50757,32.96559],[-81.50503,32.96356],[-81.50137,32.96291],[-81.49983,32.96382],[-81.49947,32.96478],[-81.49784,32.97301],[-81.49474,32.979],[-81.4955,32.98353],[-81.49434,32.98508],[-81.49433,32.98626],[-81.496,32.9883],[-81.49642,32.98962],[-81.49614,32.99091],[-81.49503,32.99172],[-81.49225,32.99351],[-81.49146,32.99544],[-81.4912,32.99782],[-81.49274,32.99911],[-81.49571,32.99947],[-81.49983,33.00066],[-81.50063,33.00196],[-81.50023,33.00346],[-81.49875,33.00507],[-81.49613,33.00548],[-81.4919,33.00669],[-81.49142,33.00808],[-81.49225,33.00934],[-81.49664,33.01022],[-81.49977,33.01225],[-81.50203,33.01511],[-81.50405,33.01625],[-81.50568,33.01597],[-81.50741,33.01154],[-81.50822,33.01053],[-81.51069,33.01031],[-81.51157,33.01228],[-81.50892,33.01566],[-81.50822,33.01751],[-81.51028,33.02123],[-81.51133,33.02146],[-81.51372,33.02057],[-81.51607,33.02083],[-81.51838,33.02159],[-81.51908,33.0232],[-81.51759,33.02399],[-81.51402,33.02366],[-81.51169,33.02451],[-81.51059,33.0258],[-81.51125,33.02779],[-81.51323,33.02855],[-81.51963,33.02918],[-81.52265,33.03079],[-81.52845,33.03565],[-81.52879,33.03687],[-81.52844,33.03988],[-81.52914,33.04081],[-81.53072,33.04086],[-81.5355,33.03849],[-81.53879,33.03919],[-81.54008,33.04061],[-81.54214,33.04692],[-81.54376,33.04856],[-81.54652,33.04884],[-81.55179,33.04339],[-81.55315,33.0432],[-81.56195,33.04584],[-81.56611,33.04879],[-81.56504,33.04969],[-81.56034,33.05004],[-81.55917,33.05177],[-81.55894,33.05292],[-81.5594,33.0549],[-81.56399,33.06084],[-81.56569,33.06105],[-81.56699,33.0604],[-81.56695,33.0596],[-81.56457,33.05804],[-81.56302,33.05581],[-81.56631,33.05343],[-81.56989,33.0545],[-81.57191,33.05399],[-81.57324,33.0549],[-81.57131,33.05687],[-81.57283,33.05864],[-81.57704,33.05725],[-81.57833,33.05894],[-81.57451,33.06005],[-81.57491,33.0618],[-81.58025,33.06176],[-81.58099,33.0627],[-81.57716,33.06433],[-81.57719,33.06594],[-81.57875,33.0662],[-81.5831,33.06496],[-81.5838,33.06702],[-81.58298,33.06858],[-81.58436,33.0699],[-81.58741,33.06994],[-81.59086,33.07274],[-81.59252,33.07306],[-81.59265,33.06991],[-81.59359,33.0695],[-81.59602,33.07269],[-81.60095,33.07281],[-81.60324,33.07442],[-81.6033,33.07509],[-81.59899,33.07668],[-81.59683,33.07856],[-81.5965,33.07989],[-81.60132,33.08705],[-81.60253,33.08681],[-81.60359,33.08458],[-81.60684,33.08172],[-81.6107,33.07995],[-81.6129,33.08102],[-81.61294,33.08398],[-81.60953,33.08688],[-81.60829,33.08902],[-81.60997,33.09301],[-81.61166,33.09426],[-81.61499,33.09555],[-81.63223,33.09395],[-81.63723,33.09295],[-81.64233,33.09315],[-81.64643,33.09455],[-81.65843,33.10315],[-81.67183,33.10775],[-81.67703,33.11065],[-81.69693,33.11655],[-81.70463,33.11645],[-81.71113,33.12165],[-81.71603,33.12365],[-81.72173,33.12645],[-81.72433,33.12945],[-81.72953,33.13375],[-81.73664,33.13765],[-81.74453,33.14215],[-81.74634,33.14605],[-81.75003,33.14735],[-81.75414,33.15055],[-81.76314,33.15945],[-81.76444,33.16555],[-81.76763,33.16725],[-81.76814,33.16825],[-81.76673,33.17145],[-81.77244,33.18095],[-81.77174,33.18155],[-81.76864,33.17845],[-81.76614,33.17785],[-81.76493,33.17955],[-81.76694,33.18205],[-81.76774,33.18465],[-81.76593,33.18785],[-81.76283,33.18825],[-81.76063,33.18925],[-81.75953,33.19475],[-81.75693,33.19785],[-81.75823,33.20025],[-81.76163,33.20175],[-81.76354,33.20365],[-81.7653,33.2095],[-81.76723,33.21275],[-81.76793,33.21635],[-81.77403,33.22115],[-81.77774,33.22185],[-81.78014,33.22115],[-81.78104,33.21985],[-81.77764,33.21535],[-81.77754,33.21135],[-81.77894,33.20985],[-81.78454,33.20815],[-81.79024,33.20845],[-81.79824,33.21165],[-81.80394,33.21135],[-81.80649,33.21213],[-81.80794,33.21375],[-81.80814,33.21945],[-81.80924,33.22215],[-81.81174,33.22385],[-81.81964,33.22665],[-81.82794,33.22875],[-81.83174,33.23355],[-81.83794,33.23835],[-81.84654,33.24175],[-81.84864,33.24505],[-81.85294,33.24874],[-81.85256,33.25141],[-81.84983,33.25292],[-81.84514,33.25254],[-81.84004,33.25464],[-81.83984,33.25614],[-81.84154,33.25724],[-81.84474,33.25744],[-81.84634,33.25845],[-81.84814,33.26454],[-81.84691,33.2666],[-81.84386,33.26662],[-81.84267,33.26452],[-81.8408,33.26328],[-81.83845,33.26285],[-81.83744,33.26185],[-81.83644,33.25944],[-81.83441,33.25838],[-81.83108,33.2608],[-81.82884,33.26205],[-81.82834,33.26304],[-81.82889,33.26408],[-81.83054,33.26438],[-81.83335,33.26229],[-81.83534,33.26235],[-81.83604,33.26355],[-81.83524,33.26655],[-81.83554,33.27144],[-81.83267,33.27429],[-81.83252,33.27556],[-81.8335,33.27607],[-81.83634,33.27445],[-81.83915,33.2739],[-81.84414,33.27884],[-81.84454,33.28294],[-81.84619,33.28433],[-81.84824,33.28384],[-81.85158,33.28354],[-81.86074,33.28584],[-81.86334,33.28924],[-81.86164,33.29374],[-81.86204,33.29694],[-81.86004,33.29914],[-81.85254,33.29934],[-81.85034,33.29644],[-81.84874,33.29674],[-81.84964,33.29954],[-81.84604,33.30434],[-81.84764,33.30714],[-81.85173,33.30875],[-81.85365,33.31033],[-81.85606,33.30985],[-81.8576,33.30711],[-81.86054,33.30494],[-81.86206,33.30248],[-81.86393,33.30204],[-81.86464,33.30334],[-81.86404,33.30784],[-81.86494,33.31184],[-81.86654,33.31374],[-81.86925,33.31377],[-81.87584,33.30744],[-81.87944,33.30234],[-81.88124,33.30254],[-81.88194,33.30544],[-81.88464,33.30924],[-81.88154,33.31404],[-81.88254,33.31704],[-81.88524,33.31744],[-81.89054,33.31484],[-81.89254,33.31534],[-81.89274,33.31674],[-81.89004,33.31894],[-81.88916,33.32109],[-81.89102,33.32249],[-81.89554,33.32164],[-81.89859,33.3229],[-81.89927,33.32542],[-81.89694,33.32764],[-81.89694,33.33054],[-81.89957,33.33282],[-81.90063,33.33503],[-81.90195,33.33588],[-81.90364,33.33484],[-81.90261,33.33026],[-81.90413,33.32729],[-81.90604,33.32604],[-81.90613,33.32162],[-81.90909,33.31998],[-81.91214,33.31914],[-81.91374,33.32004],[-81.91294,33.32174],[-81.90914,33.32394],[-81.90814,33.32714],[-81.91884,33.33344],[-81.91893,33.33496],[-81.91634,33.33864],[-81.91551,33.34078],[-81.91424,33.34184],[-81.91014,33.34234],[-81.90844,33.34384],[-81.90893,33.34627],[-81.91017,33.34701],[-81.91303,33.34689],[-81.91494,33.34374],[-81.91928,33.34034],[-81.92346,33.3449],[-81.92682,33.34528],[-81.93274,33.34354],[-81.93724,33.34364],[-81.93974,33.34494],[-81.93984,33.34774],[-81.93481,33.35376],[-81.93531,33.35679],[-81.94474,33.36404],[-81.94674,33.36734],[-81.94634,33.37064],[-81.94374,33.37234],[-81.93964,33.37254],[-81.93464,33.36894],[-81.93063,33.36816],[-81.92574,33.37114],[-81.92484,33.37414],[-81.93086,33.38008],[-81.93509,33.39724],[-81.93811,33.39993],[-81.94448,33.40367],[-81.94563,33.40584],[-81.94489,33.40796],[-81.94315,33.40903],[-81.94078,33.40874],[-81.93477,33.4068],[-81.93139,33.40696],[-81.92945,33.40776],[-81.92477,33.41242],[-81.92386,33.41046],[-81.92128,33.4086],[-81.91775,33.4072],[-81.91237,33.40809],[-81.9105,33.41031],[-81.90963,33.4126],[-81.91076,33.41504],[-81.92107,33.41742],[-81.92489,33.41931],[-81.93174,33.42451],[-81.93231,33.42659],[-81.9308,33.42903],[-81.92833,33.42991],[-81.92072,33.43099],[-81.91697,33.43259],[-81.91428,33.4353],[-81.91313,33.43833],[-81.91353,33.44127],[-81.91481,33.4435],[-81.91944,33.4491],[-81.92634,33.46294],[-81.92944,33.46584],[-81.93414,33.46834],[-81.94174,33.47004],[-81.94644,33.47174],[-81.96704,33.48064],[-81.97354,33.48264],[-81.98064,33.48404],[-81.98594,33.48654],[-81.98934,33.49004],[-81.99094,33.49424],[-81.99038,33.50076],[-81.99194,33.50444],[-82.00134,33.52014],[-82.00434,33.52193],[-82.00714,33.52284],[-82.00764,33.52334],[-82.01004,33.53043],[-82.01154,33.53173],[-82.01984,33.53504],[-82.02344,33.53793],[-82.02344,33.54073],[-82.02824,33.54493],[-82.03302,33.54645],[-82.0349,33.54916],[-82.03737,33.55466],[-82.04633,33.56383],[-82.04896,33.56487],[-82.05494,33.56538],[-82.05773,33.56677],[-82.06904,33.57538],[-82.0731,33.57751],[-82.08749,33.58061],[-82.09413,33.58274],[-82.09635,33.58407],[-82.09882,33.58636],[-82.10624,33.59564],[-82.10938,33.59658],[-82.11581,33.5966],[-82.12038,33.59488],[-82.12586,33.59074],[-82.12908,33.58993],[-82.13352,33.59054],[-82.14287,33.59428],[-82.14882,33.59809],[-82.15106,33.60096],[-82.15336,33.60632],[-82.15629,33.60863],[-82.15833,33.60971],[-82.17617,33.61377],[-82.17985,33.61595],[-82.18914,33.62372],[-82.19658,33.63058],[-82.20119,33.6469],[-82.19975,33.65761],[-82.19985,33.66176],[-82.2098,33.66928],[-82.21083,33.6706],[-82.21317,33.67721],[-82.21712,33.68434],[-82.21865,33.6863],[-82.22568,33.69143],[-82.23458,33.70022],[-82.2354,33.70438],[-82.23719,33.70788],[-82.23575,33.71439],[-82.23731,33.72189],[-82.23876,33.72521],[-82.2395,33.72933],[-82.2391,33.73087],[-82.24324,33.74012],[-82.24541,33.74293],[-82.24747,33.75259],[-82.25559,33.75988],[-82.26004,33.76043],[-82.26404,33.76284],[-82.26502,33.76574],[-82.26772,33.76765],[-82.27044,33.76791],[-82.27768,33.77203],[-82.28409,33.77878],[-82.28865,33.78164],[-82.29247,33.78241],[-82.29498,33.78187],[-82.29748,33.78297],[-82.29901,33.78448],[-82.2996,33.78648],[-82.29886,33.79317],[-82.29928,33.79894],[-82.30021,33.80063],[-82.30345,33.80326],[-82.31244,33.80716],[-82.31435,33.81111],[-82.32189,33.81678],[-82.32448,33.82003],[-82.33783,33.82716],[-82.3462,33.83383],[-82.35119,33.83614],[-82.36878,33.84231],[-82.3733,33.84475],[-82.37977,33.8511],[-82.38497,33.85443],[-82.39053,33.85716],[-82.39574,33.85909],[-82.4022,33.86466],[-82.40559,33.86602],[-82.40835,33.86632],[-82.42062,33.86375],[-82.42489,33.86413],[-82.42916,33.86584],[-82.4335,33.86901],[-82.43864,33.87392],[-82.4405,33.87512],[-82.44811,33.87754],[-82.45511,33.88165],[-82.45939,33.88639],[-82.46991,33.89284],[-82.48011,33.9019],[-82.49293,33.90975],[-82.49611,33.91346],[-82.50358,33.92605],[-82.50764,33.93146],[-82.51295,33.93697],[-82.52451,33.94336],[-82.52674,33.94376],[-82.53411,33.94365],[-82.53977,33.94155],[-82.54313,33.94095],[-82.5545,33.94382],[-82.55684,33.94535],[-82.56458,33.95581],[-82.5657,33.95868],[-82.5662,33.96477],[-82.56908,33.96989],[-82.57416,33.97355],[-82.57667,33.9759],[-82.57885,33.97863],[-82.58046,33.98213],[-82.58057,33.98514],[-82.57961,33.98726],[-82.57588,33.98995],[-82.57525,33.99143],[-82.57625,33.99301],[-82.58339,33.99529],[-82.58623,33.99715],[-82.58855,33.99977],[-82.59267,34.01037],[-82.5955,34.01586],[-82.59553,34.02048],[-82.59379,34.02674],[-82.59419,34.02887],[-82.59601,34.03093],[-82.60018,34.03298],[-82.60741,34.03807],[-82.61061,34.04146],[-82.61293,34.04678],[-82.61916,34.05132],[-82.62038,34.05392],[-82.62141,34.05802],[-82.62464,34.06026],[-82.62696,34.06346],[-82.63097,34.06553],[-82.63399,34.06496],[-82.63544,34.06509],[-82.64052,34.06788],[-82.64376,34.07231],[-82.64566,34.07605],[-82.64522,34.07905],[-82.64318,34.08095],[-82.64026,34.08654],[-82.64164,34.09209],[-82.64883,34.09913],[-82.65423,34.10063],[-82.65603,34.10253],[-82.65885,34.10396],[-82.66032,34.1069],[-82.66185,34.10775],[-82.66688,34.11359],[-82.66828,34.11978],[-82.67522,34.12978],[-82.67873,34.13239],[-82.68629,34.13445],[-82.69039,34.13829],[-82.69215,34.13899],[-82.69553,34.13882],[-82.69976,34.13932],[-82.70414,34.14101],[-82.71533,34.1482],[-82.71746,34.15055],[-82.72331,34.16589],[-82.72541,34.16977],[-82.73041,34.17533],[-82.73177,34.17804],[-82.73219,34.18135],[-82.7317,34.19073],[-82.73254,34.19452],[-82.74165,34.20971],[-82.74238,34.21377],[-82.74036,34.21863],[-82.7405,34.22001],[-82.744,34.22441],[-82.74435,34.22592],[-82.74208,34.22896],[-82.74349,34.23989],[-82.74443,34.242],[-82.74472,34.24631],[-82.74309,34.24798],[-82.743,34.25138],[-82.74557,34.25407],[-82.74582,34.25836],[-82.74771,34.2607],[-82.74854,34.2641],[-82.74666,34.26641],[-82.75064,34.27113],[-82.75391,34.27545],[-82.76111,34.2804],[-82.76233,34.28195],[-82.76608,34.28207],[-82.77169,34.28633],[-82.78181,34.29792],[-82.78177,34.30241],[-82.78724,34.31078],[-82.79017,34.32211],[-82.79206,34.32676],[-82.79124,34.33105],[-82.79354,34.3383],[-82.7947,34.34058],[-82.79875,34.3419],[-82.81285,34.35183],[-82.81377,34.35393],[-82.81564,34.35391],[-82.82491,34.36041],[-82.82673,34.36053],[-82.83332,34.36395],[-82.83481,34.3663],[-82.83521,34.37172],[-82.83598,34.38091],[-82.83667,34.38314],[-82.84136,34.39014],[-82.842,34.3925],[-82.84145,34.39897],[-82.84745,34.41205],[-82.84803,34.41833],[-82.84691,34.41938],[-82.84963,34.42568],[-82.85401,34.42882],[-82.85548,34.44166],[-82.85683,34.44342],[-82.86012,34.45284],[-82.85884,34.45522],[-82.86535,34.46032],[-82.87185,34.46119],[-82.87387,34.46447],[-82.88117,34.46948],[-82.88079,34.47189],[-82.8874,34.48096],[-82.89259,34.48119],[-82.90155,34.48676],[-82.91774,34.48417],[-82.92074,34.48234],[-82.92616,34.48165],[-82.93082,34.48565],[-82.93716,34.48638],[-82.94399,34.48551],[-82.94781,34.48207],[-82.94823,34.48049],[-82.95571,34.4789],[-82.95855,34.47955],[-82.96324,34.48436],[-82.96424,34.48457],[-82.96645,34.48235],[-82.97492,34.47935],[-82.9774,34.48175],[-82.97975,34.48294],[-82.99267,34.47907],[-82.99528,34.47565],[-82.99509,34.47248],[-82.9992,34.47245],[-83.01526,34.47778],[-83.02931,34.48415],[-83.03336,34.48309],[-83.04358,34.48909],[-83.04524,34.49118],[-83.04877,34.4936],[-83.05102,34.49353],[-83.05286,34.49533],[-83.05348,34.49726],[-83.0531,34.50132],[-83.05446,34.50289],[-83.05784,34.50371],[-83.0658,34.50104],[-83.06945,34.50213],[-83.074,34.50547],[-83.07737,34.50922],[-83.07842,34.51308],[-83.07984,34.51445],[-83.08719,34.51594],[-83.08686,34.5178],[-83.08178,34.52174],[-83.07778,34.52406],[-83.07793,34.52477],[-83.08486,34.53097],[-83.09256,34.53294],[-83.09686,34.53152],[-83.10285,34.53257],[-83.10345,34.53862],[-83.10497,34.54094],[-83.10862,34.54154],[-83.11051,34.54511],[-83.11025,34.54706],[-83.11721,34.55254],[-83.12189,34.55234],[-83.12426,34.555],[-83.12205,34.55803],[-83.1229,34.56013],[-83.12718,34.562],[-83.12968,34.5617],[-83.13338,34.5595],[-83.14051,34.56239],[-83.13988,34.568],[-83.14318,34.5734],[-83.15368,34.5787],[-83.15868,34.579],[-83.15918,34.581],[-83.15778,34.5838],[-83.15454,34.58694],[-83.15458,34.5882],[-83.15888,34.5896],[-83.16828,34.591],[-83.17028,34.5924],[-83.17008,34.5996],[-83.16428,34.6009],[-83.16069,34.59947],[-83.15908,34.6022],[-83.15995,34.60346],[-83.16428,34.6044],[-83.16968,34.6074],[-83.18078,34.6075],[-83.18648,34.6066],[-83.19518,34.6034],[-83.19738,34.6032],[-83.19698,34.606],[-83.19908,34.608],[-83.20883,34.61071],[-83.2164,34.61101],[-83.22334,34.60955],[-83.22724,34.61114],[-83.23134,34.61119],[-83.23821,34.61574],[-83.24348,34.6182],[-83.24067,34.62451],[-83.24648,34.6269],[-83.24768,34.6309],[-83.25178,34.6338],[-83.25448,34.6371],[-83.26228,34.6403],[-83.27088,34.6416],[-83.27852,34.64538],[-83.27943,34.64787],[-83.28208,34.6497],[-83.28468,34.6502],[-83.29318,34.6543],[-83.30121,34.66326],[-83.30148,34.66658],[-83.30464,34.66956],[-83.30892,34.67027],[-83.31439,34.66894],[-83.31686,34.66987],[-83.31852,34.67477],[-83.32146,34.67754],[-83.32534,34.67952],[-83.33028,34.68134],[-83.3389,34.68004],[-83.34137,34.68136],[-83.34262,34.68299],[-83.33823,34.68719],[-83.33863,34.68895],[-83.34013,34.69148],[-83.34315,34.69395],[-83.35294,34.69706],[-83.35391,34.69922],[-83.35185,34.7017],[-83.3479,34.70293],[-83.34665,34.70422],[-83.34979,34.70827],[-83.35101,34.71264],[-83.3528,34.71744],[-83.35342,34.72842],[-83.35043,34.73269],[-83.34907,34.73663],[-83.34544,34.73845],[-83.33897,34.73844],[-83.33869,34.74207],[-83.33272,34.7461],[-83.33242,34.74899],[-83.32631,34.75084],[-83.32719,34.7546],[-83.3259,34.75647],[-83.31974,34.75701],[-83.31894,34.75833],[-83.32321,34.76058],[-83.31932,34.76487],[-83.32298,34.76609],[-83.31898,34.77131],[-83.32266,34.77762],[-83.32121,34.77904],[-83.32415,34.78748],[-83.32387,34.78971],[-83.32034,34.79068],[-83.32052,34.79304],[-83.31383,34.79683],[-83.31378,34.79991],[-83.30322,34.80221],[-83.30118,34.80401],[-83.29976,34.80788],[-83.2998,34.81006],[-83.30424,34.81102],[-83.30666,34.81485],[-83.30313,34.81874],[-83.30057,34.81866],[-83.29899,34.81755],[-83.30001,34.81525],[-83.29605,34.81311],[-83.29465,34.8136],[-83.29472,34.81573],[-83.28996,34.81846],[-83.29108,34.82319],[-83.28865,34.82467],[-83.28481,34.82304],[-83.28227,34.82024],[-83.27669,34.81689],[-83.2718,34.81804],[-83.26832,34.82113],[-83.26964,34.82336],[-83.2678,34.82614],[-83.26734,34.83237],[-83.27243,34.83472],[-83.26877,34.84454],[-83.26631,34.84904],[-83.26089,34.84822],[-83.26055,34.84522],[-83.25569,34.84415],[-83.25016,34.8446],[-83.24859,34.84607],[-83.25376,34.84806],[-83.25258,34.85168],[-83.25332,34.85592],[-83.24693,34.85501],[-83.24636,34.85653],[-83.24828,34.85846],[-83.24634,34.86003],[-83.24805,34.86312],[-83.24672,34.867],[-83.24325,34.86603],[-83.23861,34.86545],[-83.23788,34.86888],[-83.2347,34.87074],[-83.24046,34.87272],[-83.24313,34.87739],[-83.23993,34.87888],[-83.23579,34.8779],[-83.23202,34.87794],[-83.22874,34.8797],[-83.21994,34.87811],[-83.2194,34.87877],[-83.21989,34.88111],[-83.21829,34.8817],[-83.21742,34.88238],[-83.21751,34.88567],[-83.21448,34.88847],[-83.21275,34.88786],[-83.21472,34.88384],[-83.21199,34.88237],[-83.20998,34.88004],[-83.20625,34.87968],[-83.20102,34.88479],[-83.20479,34.89075],[-83.20307,34.89386],[-83.19936,34.89257],[-83.1986,34.89039],[-83.19678,34.89073],[-83.19729,34.89265],[-83.19757,34.89502],[-83.19437,34.89957],[-83.19165,34.89688],[-83.18928,34.89726],[-83.18087,34.90471],[-83.18079,34.90961],[-83.17509,34.91008],[-83.17185,34.91365],[-83.16909,34.91878],[-83.16556,34.91943],[-83.16068,34.91514],[-83.15721,34.91493],[-83.15645,34.91706],[-83.15802,34.92012],[-83.15771,34.92351],[-83.15919,34.92883],[-83.15623,34.93098],[-83.14326,34.92476],[-83.14062,34.92491],[-83.13055,34.93093],[-83.12989,34.93235],[-83.13179,34.93534],[-83.13165,34.93588],[-83.12759,34.93849],[-83.12662,34.93826],[-83.12082,34.93305],[-83.11909,34.93318],[-83.11807,34.93595],[-83.1128,34.93472],[-83.11173,34.93586],[-83.11693,34.94273],[-83.12157,34.94252],[-83.12388,34.94605],[-83.12756,34.94948],[-83.12485,34.95143],[-83.12704,34.95378],[-83.12659,34.95486],[-83.12453,34.95504],[-83.12035,34.95319],[-83.11805,34.95296],[-83.11492,34.95043],[-83.11402,34.95091],[-83.11469,34.95266],[-83.12003,34.95748],[-83.12011,34.95917],[-83.11592,34.95914],[-83.11593,34.96031],[-83.12162,34.96277],[-83.12211,34.96433],[-83.12039,34.96841],[-83.1154,34.97364],[-83.11662,34.97532],[-83.11563,34.97581],[-83.1118,34.97553],[-83.11086,34.97631],[-83.1121,34.9794],[-83.11128,34.981],[-83.11002,34.98063],[-83.10843,34.97968],[-83.10577,34.9815],[-83.10712,34.98323],[-83.10338,34.98609],[-83.10168,34.98658],[-83.10286,34.98871],[-83.10134,34.98994],[-83.09897,34.9901],[-83.09838,34.99112],[-83.09883,34.99195],[-83.10359,34.99384],[-83.10252,34.9953],[-83.10287,34.99726],[-83.10956,35.0012]]]]}}]}