{"type":"FeatureCollection","features":[{"type":"Feature","properties":{"name":"Tennessee","density":88.08,"STUSPS":"TN"},"geometry":{"type":"Polygon","coordinates":[[[-83.67539,36.60078],[-83.67013,36.60076],[-83.64559,36.6],[-83.62262,36.59806],[-83.55681,36.59738],[-83.47211,36.59728],[-83.3749,36.59739],[-83.2763,36.59819],[-83.2611,36.59389],[-83.2503,36.59394],[-83.24893,36.59383],[-83.02836,36.59389],[-83.02725,36.59385],[-82.88801,36.59346],[-82.83043,36.59376],[-82.69578,36.5937],[-82.67988,36.5937],[-82.60918,36.5941],[-82.56207,36.5948],[-82.554,36.59478],[-82.53615,36.59515],[-82.49165,36.59563],[-82.48152,36.59576],[-82.46661,36.59448],[-82.29699,36.5957],[-82.22665,36.59574],[-82.22344,36.59572],[-82.22171,36.59581],[-82.21101,36.59586],[-82.2105,36.59577],[-82.18849,36.59518],[-82.18074,36.59493],[-82.17398,36.59461],[-82.15073,36.59467],[-82.14857,36.59472],[-81.93414,36.59421],[-81.92264,36.61621],[-81.82674,36.61422],[-81.73694,36.61238],[-81.6469,36.61192],[-81.67754,36.58812],[-81.68014,36.58552],[-81.67904,36.57892],[-81.67724,36.57441],[-81.67704,36.57072],[-81.67994,36.56862],[-81.68644,36.56792],[-81.69024,36.56872],[-81.69251,36.56575],[-81.69217,36.56269],[-81.69013,36.55964],[-81.68912,36.55591],[-81.69003,36.55215],[-81.69384,36.54908],[-81.69754,36.54436],[-81.69996,36.53971],[-81.69996,36.53683],[-81.70796,36.53621],[-81.70826,36.53211],[-81.70757,36.5261],[-81.70254,36.52032],[-81.70055,36.51519],[-81.6996,36.51288],[-81.69945,36.5115],[-81.69774,36.50845],[-81.69783,36.50754],[-81.69729,36.50489],[-81.69797,36.50406],[-81.69992,36.50086],[-81.70024,36.50048],[-81.69993,36.49802],[-81.69827,36.49722],[-81.69726,36.49614],[-81.69683,36.49339],[-81.69591,36.49158],[-81.69729,36.48474],[-81.69628,36.4755],[-81.69483,36.47446],[-81.69453,36.47328],[-81.69531,36.46791],[-81.69797,36.46474],[-81.69922,36.46396],[-81.70108,36.46421],[-81.70825,36.46222],[-81.71489,36.45722],[-81.71508,36.45336],[-81.71428,36.45098],[-81.71374,36.44711],[-81.71744,36.44516],[-81.71718,36.44389],[-81.71419,36.44146],[-81.71543,36.43857],[-81.71456,36.43711],[-81.72123,36.43395],[-81.71756,36.43039],[-81.71794,36.42876],[-81.72073,36.42254],[-81.72343,36.42224],[-81.72399,36.4205],[-81.72716,36.41992],[-81.7275,36.41837],[-81.72916,36.41767],[-81.72992,36.41542],[-81.73339,36.41489],[-81.73431,36.41334],[-81.7343,36.4126],[-81.73543,36.4123],[-81.7373,36.41359],[-81.74065,36.41314],[-81.742,36.41096],[-81.74012,36.40811],[-81.74054,36.40487],[-81.74134,36.4043],[-81.74136,36.40317],[-81.74076,36.40252],[-81.74065,36.40174],[-81.73965,36.4016],[-81.73866,36.4012],[-81.73919,36.39828],[-81.73872,36.3948],[-81.73388,36.39457],[-81.73099,36.39391],[-81.72857,36.39124],[-81.73019,36.38881],[-81.7301,36.38643],[-81.72931,36.3856],[-81.73074,36.38294],[-81.73359,36.38203],[-81.73461,36.37957],[-81.73241,36.37793],[-81.73118,36.37406],[-81.72608,36.36889],[-81.72405,36.36429],[-81.72405,36.3609],[-81.72432,36.35776],[-81.72322,36.35477],[-81.72146,36.35117],[-81.7174,36.34778],[-81.71324,36.34666],[-81.70867,36.3464],[-81.70779,36.34601],[-81.7053,36.34185],[-81.70597,36.3385],[-81.70697,36.33725],[-81.70744,36.33517],[-81.71324,36.33605],[-81.71719,36.33617],[-81.71831,36.33606],[-81.72101,36.33864],[-81.72357,36.33894],[-81.72463,36.33991],[-81.72594,36.34036],[-81.72809,36.34144],[-81.73098,36.34119],[-81.73596,36.34299],[-81.7395,36.33976],[-81.74446,36.33778],[-81.74784,36.33736],[-81.75023,36.33786],[-81.75128,36.33719],[-81.75442,36.33704],[-81.75682,36.33895],[-81.75939,36.34005],[-81.76203,36.34019],[-81.76493,36.33867],[-81.76898,36.34104],[-81.76901,36.34228],[-81.77168,36.34357],[-81.77295,36.34338],[-81.77484,36.34448],[-81.77891,36.34864],[-81.78132,36.34766],[-81.78408,36.34767],[-81.78938,36.34815],[-81.79053,36.35084],[-81.79073,36.35365],[-81.7908,36.35591],[-81.79304,36.3578],[-81.7936,36.36221],[-81.79568,36.36124],[-81.79717,36.35867],[-81.80081,36.35807],[-81.80826,36.35412],[-81.8129,36.35107],[-81.82249,36.34882],[-81.8332,36.34734],[-81.84127,36.34332],[-81.84564,36.34036],[-81.85089,36.3375],[-81.85733,36.33479],[-81.86315,36.33021],[-81.87434,36.31919],[-81.87618,36.31607],[-81.87938,36.31377],[-81.88724,36.30919],[-81.89457,36.30718],[-81.8977,36.30745],[-81.90814,36.30201],[-81.9389,36.25607],[-81.9601,36.22813],[-82.02664,36.13022],[-82.02634,36.12922],[-82.02874,36.12432],[-82.03314,36.12042],[-82.03794,36.12112],[-82.04394,36.12542],[-82.05414,36.12682],[-82.05604,36.12392],[-82.05604,36.12072],[-82.06134,36.11312],[-82.06714,36.11202],[-82.07974,36.10652],[-82.08014,36.10572],[-82.08594,36.10602],[-82.09854,36.10572],[-82.10164,36.10622],[-82.10544,36.10812],[-82.10914,36.10722],[-82.11525,36.10462],[-82.12715,36.10442],[-82.13065,36.10642],[-82.13797,36.11958],[-82.13655,36.12372],[-82.13655,36.12882],[-82.14085,36.13622],[-82.14415,36.14422],[-82.14795,36.14952],[-82.15595,36.14811],[-82.16088,36.14655],[-82.16925,36.14661],[-82.17215,36.14641],[-82.17385,36.14531],[-82.17465,36.14361],[-82.17685,36.14221],[-82.17886,36.1433],[-82.18035,36.14391],[-82.18255,36.14371],[-82.18365,36.14441],[-82.18475,36.14541],[-82.18545,36.14721],[-82.18685,36.14911],[-82.18685,36.15001],[-82.18751,36.1511],[-82.19027,36.1501],[-82.19195,36.14881],[-82.19535,36.15001],[-82.19925,36.15271],[-82.20181,36.15496],[-82.20487,36.15707],[-82.21125,36.15901],[-82.21385,36.15911],[-82.21845,36.15783],[-82.22205,36.15691],[-82.22323,36.15477],[-82.22485,36.15001],[-82.22829,36.14662],[-82.23481,36.14172],[-82.23548,36.14075],[-82.23641,36.13993],[-82.24155,36.13711],[-82.24335,36.13431],[-82.24446,36.13278],[-82.24752,36.13087],[-82.25185,36.13221],[-82.25325,36.13371],[-82.25632,36.13392],[-82.26035,36.13371],[-82.26335,36.13011],[-82.26569,36.12761],[-82.26875,36.12704],[-82.27095,36.12761],[-82.27405,36.12941],[-82.27865,36.12851],[-82.28035,36.12881],[-82.28845,36.13541],[-82.28946,36.13571],[-82.29766,36.13351],[-82.30285,36.13131],[-82.30725,36.12851],[-82.30866,36.12651],[-82.31816,36.12091],[-82.32145,36.11955],[-82.32517,36.11936],[-82.32918,36.11743],[-82.33229,36.11693],[-82.33676,36.11491],[-82.34686,36.11521],[-82.34842,36.11593],[-82.34996,36.11711],[-82.35516,36.11561],[-82.36036,36.11161],[-82.36092,36.11061],[-82.36657,36.10765],[-82.37138,36.10639],[-82.37556,36.10561],[-82.37876,36.10281],[-82.38046,36.09931],[-82.38996,36.09691],[-82.40446,36.08761],[-82.40946,36.08341],[-82.46066,36.00781],[-82.46456,36.00651],[-82.47419,36.00011],[-82.48229,35.99782],[-82.4835,35.99628],[-82.48367,35.99387],[-82.48468,35.99285],[-82.48745,35.99156],[-82.50021,35.98256],[-82.50538,35.97768],[-82.50707,35.97747],[-82.5126,35.97566],[-82.51644,35.97596],[-82.52066,35.97463],[-82.5227,35.97344],[-82.53129,35.97219],[-82.53476,35.96989],[-82.53927,35.96912],[-82.54246,35.96799],[-82.54968,35.96428],[-82.55319,35.96063],[-82.55787,35.9539],[-82.5675,35.95555],[-82.57517,35.95838],[-82.57668,35.95925],[-82.57772,35.9642],[-82.581,35.96556],[-82.59198,35.96639],[-82.59486,35.96535],[-82.60037,35.96463],[-82.60776,35.96602],[-82.61089,35.96741],[-82.6116,35.97142],[-82.61088,35.97444],[-82.60674,35.98445],[-82.60424,35.98732],[-82.60694,35.99217],[-82.6126,35.99349],[-82.61303,35.994],[-82.61506,36.00031],[-82.61436,36.00351],[-82.61386,36.00471],[-82.61186,36.00621],[-82.60846,36.00831],[-82.60756,36.01021],[-82.60936,36.01141],[-82.60826,36.01531],[-82.60696,36.01631],[-82.6033,36.01734],[-82.60286,36.01791],[-82.60396,36.02131],[-82.60176,36.02431],[-82.60016,36.02571],[-82.59487,36.0296],[-82.59076,36.03191],[-82.59096,36.03361],[-82.59196,36.03571],[-82.59604,36.03661],[-82.60006,36.03629],[-82.60176,36.03601],[-82.60166,36.03801],[-82.60288,36.03983],[-82.60616,36.04101],[-82.60966,36.04491],[-82.61356,36.04641],[-82.61816,36.047],[-82.61806,36.05121],[-82.61726,36.05421],[-82.61866,36.05611],[-82.62837,36.06211],[-82.63227,36.06571],[-82.63716,36.0658],[-82.64356,36.0628],[-82.65017,36.05781],[-82.65481,36.05622],[-82.65725,36.05664],[-82.66267,36.05501],[-82.66836,36.05291],[-82.67297,36.0504],[-82.68357,36.0461],[-82.68476,36.045],[-82.68556,36.042],[-82.68887,36.0386],[-82.70106,36.0344],[-82.70316,36.0324],[-82.70746,36.0301],[-82.71516,36.0286],[-82.71556,36.0269],[-82.71537,36.02425],[-82.71596,36.0228],[-82.72507,36.0182],[-82.72786,36.0185],[-82.73186,36.0176],[-82.75007,36.006],[-82.75446,36.0043],[-82.75916,36.0042],[-82.76537,36.003],[-82.776,36.0001],[-82.77728,35.99881],[-82.77859,35.997],[-82.7794,35.99251],[-82.78527,35.98793],[-82.78556,35.9778],[-82.78181,35.97456],[-82.78032,35.97436],[-82.77863,35.97479],[-82.77643,35.97389],[-82.77491,35.97198],[-82.77775,35.96691],[-82.78308,35.96498],[-82.78454,35.9639],[-82.78536,35.96253],[-82.78519,35.95923],[-82.78746,35.95216],[-82.80043,35.94416],[-82.80585,35.93794],[-82.80617,35.93691],[-82.80577,35.93532],[-82.80277,35.93013],[-82.80289,35.92901],[-82.805,35.92717],[-82.80904,35.92724],[-82.81107,35.9268],[-82.81613,35.92399],[-82.82186,35.92184],[-82.82257,35.92253],[-82.82604,35.92972],[-82.82893,35.93293],[-82.83011,35.93297],[-82.83327,35.93499],[-82.83999,35.94017],[-82.84126,35.94172],[-82.84985,35.94777],[-82.85255,35.94909],[-82.86072,35.94743],[-82.86932,35.95056],[-82.87067,35.95199],[-82.87416,35.9527],[-82.88393,35.94919],[-82.89266,35.94518],[-82.89695,35.94462],[-82.89851,35.9451],[-82.90171,35.93771],[-82.89968,35.93262],[-82.89901,35.93038],[-82.90032,35.92905],[-82.90162,35.92738],[-82.90483,35.9261],[-82.91061,35.92693],[-82.91438,35.92968],[-82.92001,35.92842],[-82.9204,35.92722],[-82.91682,35.92415],[-82.91334,35.92411],[-82.91348,35.92207],[-82.91229,35.92031],[-82.91169,35.91675],[-82.9145,35.91515],[-82.91028,35.91257],[-82.90692,35.9074],[-82.90842,35.90507],[-82.90596,35.9032],[-82.90454,35.89701],[-82.90184,35.89293],[-82.90184,35.89027],[-82.9037,35.88762],[-82.90653,35.88409],[-82.90356,35.88038],[-82.90003,35.88123],[-82.89632,35.8803],[-82.89727,35.87788],[-82.89972,35.8746],[-82.9013,35.87259],[-82.91227,35.86854],[-82.92061,35.86847],[-82.92121,35.86383],[-82.91937,35.86052],[-82.92097,35.85107],[-82.91806,35.8452],[-82.91655,35.84137],[-82.92336,35.83927],[-82.92757,35.83859],[-82.93186,35.83635],[-82.93322,35.83291],[-82.93744,35.82732],[-82.94383,35.82564],[-82.94552,35.82466],[-82.95203,35.81618],[-82.95575,35.8098],[-82.95613,35.80787],[-82.95895,35.80332],[-82.96172,35.80049],[-82.96284,35.79513],[-82.96221,35.79275],[-82.96409,35.78998],[-82.96965,35.78966],[-82.97446,35.78679],[-82.97841,35.78261],[-82.98397,35.77801],[-82.99205,35.77395],[-82.9958,35.77313],[-83.00147,35.77375],[-83.00607,35.7784],[-83.01238,35.77982],[-83.03621,35.7874],[-83.03951,35.78678],[-83.04267,35.78541],[-83.04411,35.78535],[-83.04631,35.78585],[-83.04853,35.78771],[-83.05268,35.78955],[-83.05834,35.78824],[-83.06151,35.78677],[-83.06397,35.78664],[-83.07222,35.78831],[-83.07403,35.79002],[-83.07873,35.78947],[-83.08521,35.78579],[-83.08605,35.78363],[-83.09719,35.77607],[-83.10022,35.77477],[-83.10232,35.77507],[-83.10458,35.77423],[-83.1048,35.77348],[-83.11049,35.77091],[-83.11366,35.77021],[-83.12018,35.76623],[-83.12771,35.76809],[-83.14697,35.76512],[-83.14808,35.76429],[-83.15408,35.76428],[-83.15921,35.76489],[-83.16154,35.76336],[-83.16491,35.75997],[-83.16543,35.7587],[-83.16477,35.75462],[-83.17017,35.74611],[-83.17187,35.74598],[-83.1775,35.74391],[-83.18084,35.73888],[-83.1821,35.73549],[-83.18569,35.72989],[-83.18837,35.7298],[-83.19827,35.72549],[-83.20013,35.72533],[-83.20375,35.72655],[-83.2145,35.72443],[-83.21697,35.72575],[-83.21998,35.7266],[-83.22263,35.72614],[-83.23204,35.7261],[-83.24067,35.72676],[-83.24213,35.72364],[-83.2435,35.72253],[-83.25125,35.71992],[-83.25535,35.71623],[-83.25549,35.71497],[-83.25448,35.71236],[-83.25423,35.70948],[-83.25511,35.7071],[-83.25611,35.70396],[-83.25513,35.70149],[-83.25561,35.69606],[-83.25812,35.69192],[-83.26125,35.68917],[-83.26539,35.68753],[-83.26928,35.6854],[-83.27138,35.68148],[-83.27548,35.67946],[-83.28118,35.6778],[-83.28916,35.67451],[-83.29068,35.67264],[-83.29108,35.66713],[-83.29368,35.66192],[-83.29715,35.65775],[-83.30228,35.65606],[-83.31049,35.65445],[-83.31276,35.65481],[-83.3179,35.65901],[-83.3211,35.66282],[-83.33496,35.66547],[-83.33768,35.66307],[-83.34726,35.66047],[-83.34925,35.66085],[-83.35156,35.65986],[-83.35378,35.65748],[-83.35554,35.65463],[-83.35537,35.65234],[-83.3562,35.65002],[-83.35821,35.64728],[-83.36694,35.63873],[-83.36816,35.6382],[-83.37037,35.6382],[-83.37217,35.63931],[-83.37371,35.63893],[-83.37678,35.63664],[-83.37798,35.6345],[-83.38025,35.6347],[-83.38872,35.63358],[-83.3886,35.63235],[-83.39265,35.6251],[-83.39663,35.62272],[-83.40357,35.62131],[-83.40606,35.62018],[-83.41185,35.61692],[-83.42037,35.61347],[-83.42096,35.6116],[-83.42158,35.61119],[-83.4323,35.60994],[-83.4412,35.61174],[-83.4458,35.6118],[-83.44714,35.60866],[-83.45243,35.60292],[-83.45572,35.59804],[-83.46268,35.5926],[-83.47136,35.5903],[-83.47267,35.58913],[-83.47268,35.58655],[-83.47537,35.58478],[-83.47908,35.58332],[-83.47932,35.58276],[-83.47852,35.5792],[-83.48062,35.57663],[-83.48553,35.5682],[-83.49165,35.56687],[-83.49833,35.56298],[-83.51756,35.56287],[-83.52047,35.5656],[-83.53417,35.56467],[-83.54083,35.5657],[-83.55217,35.56435],[-83.55926,35.5648],[-83.56609,35.56599],[-83.57242,35.56552],[-83.57635,35.56402],[-83.582,35.56268],[-83.58559,35.56294],[-83.58714,35.56402],[-83.58783,35.56696],[-83.59427,35.57291],[-83.60185,35.57823],[-83.60481,35.57934],[-83.60889,35.57945],[-83.61531,35.57403],[-83.62973,35.56789],[-83.63236,35.56909],[-83.63583,35.56817],[-83.63718,35.5671],[-83.6405,35.56607],[-83.64548,35.56582],[-83.65316,35.56831],[-83.65793,35.56921],[-83.66093,35.56821],[-83.66296,35.56914],[-83.66627,35.56939],[-83.67309,35.56897],[-83.67627,35.57029],[-83.68415,35.56885],[-83.69783,35.56835],[-83.70066,35.56762],[-83.7021,35.56763],[-83.70385,35.56848],[-83.7072,35.56853],[-83.72079,35.56335],[-83.72346,35.56187],[-83.73295,35.56315],[-83.73567,35.56546],[-83.74989,35.56115],[-83.75692,35.5636],[-83.75968,35.56249],[-83.76461,35.56154],[-83.77174,35.56212],[-83.77309,35.55747],[-83.78013,35.55039],[-83.7868,35.5472],[-83.80243,35.54159],[-83.80871,35.53641],[-83.8098,35.53431],[-83.82559,35.52383],[-83.82743,35.52465],[-83.8319,35.52477],[-83.8402,35.52156],[-83.8485,35.51926],[-83.8539,35.52106],[-83.85926,35.52185],[-83.86641,35.52091],[-83.87263,35.52114],[-83.88007,35.51875],[-83.88256,35.51718],[-83.88426,35.51275],[-83.89207,35.50309],[-83.89303,35.50225],[-83.89567,35.50187],[-83.90138,35.49655],[-83.9014,35.49528],[-83.9002,35.49419],[-83.90034,35.49309],[-83.90153,35.49103],[-83.90561,35.48906],[-83.90804,35.4844],[-83.90927,35.47971],[-83.91177,35.47603],[-83.9168,35.47361],[-83.91956,35.47337],[-83.9249,35.47388],[-83.92974,35.47333],[-83.93702,35.47151],[-83.94217,35.46725],[-83.94299,35.46508],[-83.94939,35.46116],[-83.95288,35.46064],[-83.95542,35.46346],[-83.95782,35.46421],[-83.96105,35.46414],[-83.96105,35.46284],[-83.9614,35.4595],[-83.96523,35.4554],[-83.96666,35.45494],[-83.96985,35.45544],[-83.97144,35.45515],[-83.97317,35.45258],[-83.97306,35.44892],[-83.97829,35.44782],[-83.98323,35.44235],[-83.99257,35.43807],[-83.99662,35.43376],[-83.99815,35.43079],[-83.99924,35.42614],[-83.99991,35.4252],[-84.00225,35.42255],[-84.00531,35.42088],[-84.01171,35.41538],[-84.01471,35.41198],[-84.01761,35.41118],[-84.02121,35.41208],[-84.02301,35.41168],[-84.02311,35.40968],[-84.02178,35.40742],[-84.02151,35.40418],[-84.01881,35.39978],[-84.01811,35.39908],[-84.01521,35.39848],[-84.01411,35.39778],[-84.00821,35.39038],[-84.00821,35.38968],[-84.01061,35.38618],[-84.01121,35.38438],[-84.00981,35.38268],[-84.00831,35.37888],[-84.00759,35.37166],[-84.01512,35.36487],[-84.01919,35.35957],[-84.02019,35.3575],[-84.02346,35.35422],[-84.02476,35.3539],[-84.02911,35.35355],[-84.03247,35.35259],[-84.0328,35.35191],[-84.03434,35.35095],[-84.0369,35.35067],[-84.03833,35.34781],[-84.03397,35.34277],[-84.03557,35.34149],[-84.0363,35.33916],[-84.03619,35.33767],[-84.03243,35.33684],[-84.03127,35.33644],[-84.02938,35.3332],[-84.03041,35.33048],[-84.03221,35.32858],[-84.03245,35.32653],[-84.03248,35.32532],[-84.03551,35.31778],[-84.03571,35.31288],[-84.03501,35.31198],[-84.02871,35.31038],[-84.02651,35.30928],[-84.02141,35.30138],[-84.02351,35.29578],[-84.02791,35.29278],[-84.03601,35.28868],[-84.04271,35.27838],[-84.05261,35.26998],[-84.05571,35.26818],[-84.06371,35.26668],[-84.07061,35.26378],[-84.07471,35.26318],[-84.08112,35.26115],[-84.08281,35.25888],[-84.08291,35.25708],[-84.09221,35.24998],[-84.09807,35.24721],[-84.10073,35.24836],[-84.10227,35.24811],[-84.10313,35.24878],[-84.10419,35.25018],[-84.10523,35.25022],[-84.1067,35.25151],[-84.10845,35.25033],[-84.10903,35.24963],[-84.11018,35.25046],[-84.11118,35.24957],[-84.11331,35.24898],[-84.11441,35.24908],[-84.11505,35.24976],[-84.11528,35.25044],[-84.11661,35.25143],[-84.11891,35.25228],[-84.12011,35.25198],[-84.12115,35.25064],[-84.12361,35.24974],[-84.12492,35.24983],[-84.12561,35.24938],[-84.12681,35.24648],[-84.12571,35.24278],[-84.12641,35.24138],[-84.12792,35.24108],[-84.12981,35.24178],[-84.1325,35.24208],[-84.13641,35.24478],[-84.13971,35.24618],[-84.14312,35.24688],[-84.15532,35.24648],[-84.15892,35.24588],[-84.16042,35.24388],[-84.16132,35.24348],[-84.16862,35.24578],[-84.17042,35.24578],[-84.17702,35.24238],[-84.17852,35.24068],[-84.18842,35.23998],[-84.19222,35.24308],[-84.19912,35.24368],[-84.20012,35.24468],[-84.20172,35.24778],[-84.20288,35.25577],[-84.20532,35.25828],[-84.20552,35.25968],[-84.21182,35.26608],[-84.21632,35.26798],[-84.22372,35.26908],[-84.22782,35.26788],[-84.23182,35.26478],[-84.24022,35.25518],[-84.24302,35.25318],[-84.25282,35.24948],[-84.25772,35.24618],[-84.26032,35.24188],[-84.27542,35.23478],[-84.28252,35.22788],[-84.28322,35.22658],[-84.28798,35.22447],[-84.28962,35.22468],[-84.29024,35.22557],[-84.29232,35.20668],[-84.29524,35.18244],[-84.29801,35.16747],[-84.30481,35.1217],[-84.30844,35.09317],[-84.30858,35.09276],[-84.31002,35.07888],[-84.32187,34.98841],[-84.39393,34.98807],[-84.3949,34.98803],[-84.50905,34.98803],[-84.50989,34.98801],[-84.62148,34.98833],[-84.62493,34.98798],[-84.72743,34.98802],[-84.73102,34.98809],[-84.80813,34.98759],[-84.81074,34.98761],[-84.81728,34.98775],[-84.82048,34.98791],[-84.82401,34.98771],[-84.8318,34.988],[-84.85803,34.98775],[-84.86131,34.98779],[-84.93931,34.98792],[-84.94442,34.98786],[-84.95562,34.98783],[-84.97986,34.98765],[-85.04505,34.98686],[-85.04518,34.98688],[-85.18055,34.98607],[-85.18591,34.986],[-85.21655,34.98568],[-85.22055,34.98557],[-85.22185,34.98548],[-85.23556,34.98548],[-85.25495,34.98517],[-85.27586,34.98497],[-85.27756,34.98497],[-85.2945,34.98465],[-85.30149,34.98448],[-85.30546,34.98448],[-85.30826,34.98438],[-85.36392,34.98338],[-85.38497,34.98299],[-85.46671,34.98297],[-85.60516,34.98468],[-85.82441,34.98814],[-85.82872,34.98817],[-86.31127,34.9911],[-86.3972,34.99166],[-86.43393,34.99108],[-86.4678,34.99069],[-86.52849,34.99068],[-86.55586,34.99097],[-86.57122,34.99101],[-86.58896,34.9912],[-86.60004,34.99124],[-86.64121,34.99174],[-86.65961,34.99179],[-86.67085,34.992],[-86.67436,34.992],[-86.67762,34.99207],[-86.78365,34.99193],[-86.82066,34.99176],[-86.83637,34.99176],[-86.84647,34.99186],[-86.84979,34.99192],[-86.86215,34.99196],[-86.96712,34.9944],[-86.97261,34.99461],[-86.97441,34.99451],[-87.00001,34.99512],[-87.01117,34.99516],[-87.21076,34.99902],[-87.21668,34.99915],[-87.23054,34.99948],[-87.27001,35.00039],[-87.29918,35.00091],[-87.34925,35.00166],[-87.35928,35.00182],[-87.38107,35.00212],[-87.39131,35.00237],[-87.4174,35.00267],[-87.42154,35.00268],[-87.42861,35.00279],[-87.62502,35.00373],[-87.66412,35.00352],[-87.6714,35.00354],[-87.69683,35.00385],[-87.70054,35.00399],[-87.70232,35.00395],[-87.70949,35.00409],[-87.75889,35.00471],[-87.7676,35.00478],[-87.77359,35.00495],[-87.85189,35.00566],[-87.85353,35.00554],[-87.87263,35.00557],[-87.87774,35.00551],[-87.87797,35.00547],[-88.00003,35.00594],[-88.20296,35.00803],[-88.20199,35.00542],[-88.20082,34.99777],[-88.20006,34.99563],[-88.25383,34.99555],[-88.25811,34.99546],[-88.38051,34.99561],[-88.4698,34.99605],[-88.46988,34.99603],[-88.78661,34.99525],[-88.85104,34.99509],[-88.88698,34.99587],[-88.92524,34.99484],[-89.02654,34.99496],[-89.139,34.99433],[-89.13914,34.99431],[-89.15683,34.99393],[-89.19829,34.99448],[-89.21743,34.99473],[-89.43495,34.99375],[-89.4869,34.99397],[-89.49374,34.99436],[-89.51115,34.99475],[-89.64428,34.99529],[-89.74178,34.99519],[-89.79519,34.99429],[-89.84849,34.99419],[-89.88336,34.99426],[-89.8934,34.99436],[-90.30836,34.99569],[-90.31045,35.0027],[-90.30926,35.00959],[-90.30528,35.0136],[-90.30574,35.01908],[-90.30299,35.02441],[-90.29947,35.03029],[-90.29697,35.03818],[-90.29235,35.04136],[-90.26482,35.04045],[-90.2617,35.03623],[-90.25622,35.03473],[-90.2518,35.03161],[-90.24298,35.03268],[-90.23235,35.03124],[-90.21993,35.02744],[-90.21323,35.0255],[-90.20731,35.02577],[-90.19122,35.04021],[-90.18655,35.04542],[-90.18116,35.05394],[-90.17762,35.06384],[-90.17676,35.06974],[-90.175,35.07606],[-90.17851,35.07981],[-90.18099,35.08499],[-90.18137,35.09401],[-90.17684,35.11209],[-90.17233,35.11891],[-90.16736,35.12358],[-90.1547,35.13092],[-90.15068,35.13248],[-90.14181,35.13304],[-90.1291,35.12847],[-90.10684,35.11944],[-90.09501,35.11753],[-90.08967,35.11805],[-90.08262,35.12133],[-90.07302,35.12923],[-90.06655,35.13684],[-90.06518,35.1394],[-90.06401,35.14463],[-90.06538,35.15138],[-90.06867,35.156],[-90.07887,35.15941],[-90.10143,35.17109],[-90.10666,35.17603],[-90.10814,35.18157],[-90.11365,35.18329],[-90.11674,35.18691],[-90.11738,35.19006],[-90.11606,35.19859],[-90.10871,35.19926],[-90.09741,35.19479],[-90.09647,35.19485],[-90.09328,35.20328],[-90.08856,35.21232],[-90.08412,35.21042],[-90.08068,35.20854],[-90.07821,35.20967],[-90.07547,35.21405],[-90.07486,35.21811],[-90.07616,35.22148],[-90.08041,35.22646],[-90.08454,35.23103],[-90.08635,35.23818],[-90.0926,35.24677],[-90.09434,35.24879],[-90.09767,35.25012],[-90.10514,35.25442],[-90.11205,35.25568],[-90.11735,35.2558],[-90.12783,35.25393],[-90.13972,35.2523],[-90.14632,35.25356],[-90.15209,35.25599],[-90.15882,35.26289],[-90.16659,35.27459],[-90.16879,35.27909],[-90.16887,35.282],[-90.16519,35.29319],[-90.16381,35.29612],[-90.16123,35.29895],[-90.15733,35.30149],[-90.15135,35.30302],[-90.1485,35.30289],[-90.1395,35.29883],[-90.12985,35.30117],[-90.12371,35.30453],[-90.12249,35.30451],[-90.11717,35.30336],[-90.10997,35.30499],[-90.10855,35.31197],[-90.10378,35.32426],[-90.10058,35.33383],[-90.09618,35.34885],[-90.09338,35.35409],[-90.08788,35.36056],[-90.08386,35.3656],[-90.07826,35.37493],[-90.07861,35.38062],[-90.08067,35.38566],[-90.08419,35.3887],[-90.09359,35.39333],[-90.10234,35.39969],[-90.10735,35.40421],[-90.11162,35.40959],[-90.11509,35.41141],[-90.12934,35.41383],[-90.13429,35.41325],[-90.1393,35.41052],[-90.14324,35.407],[-90.14508,35.40376],[-90.14619,35.39947],[-90.14587,35.39508],[-90.14347,35.3876],[-90.13551,35.37667],[-90.14654,35.37399],[-90.15602,35.37463],[-90.16528,35.37398],[-90.17214,35.37749],[-90.17834,35.38209],[-90.17927,35.38519],[-90.1707,35.41007],[-90.1706,35.41835],[-90.16888,35.42188],[-90.12944,35.44212],[-90.12314,35.45985],[-90.12002,35.4666],[-90.11441,35.47247],[-90.10772,35.47693],[-90.10052,35.47809],[-90.08803,35.47858],[-90.07901,35.47687],[-90.07215,35.47075],[-90.0678,35.46622],[-90.06721,35.46096],[-90.07133,35.45034],[-90.07406,35.43961],[-90.07408,35.43398],[-90.07055,35.42329],[-90.06202,35.41518],[-90.06953,35.40813],[-90.05432,35.38928],[-90.04486,35.39296],[-90.04156,35.39662],[-90.04404,35.39672],[-90.05678,35.40386],[-90.04809,35.41174],[-90.02119,35.42023],[-90.01382,35.42343],[-90.00332,35.42963],[-90.00267,35.43053],[-90.00403,35.44325],[-90.0068,35.45325],[-90.01192,35.4626],[-90.01965,35.47312],[-90.02774,35.47729],[-90.03511,35.48271],[-90.04398,35.49438],[-90.04768,35.50261],[-90.05015,35.51564],[-90.04909,35.52226],[-90.04613,35.5296],[-90.04215,35.53656],[-90.03985,35.54706],[-90.03811,35.54973],[-90.0345,35.55263],[-90.02829,35.55526],[-90.0239,35.55634],[-90.0179,35.55603],[-90.00829,35.56007],[-89.99893,35.56114],[-89.99164,35.56065],[-89.98936,35.56004],[-89.97631,35.55387],[-89.9585,35.5417],[-89.95671,35.53937],[-89.95564,35.53452],[-89.95578,35.53321],[-89.95701,35.53164],[-89.95821,35.52679],[-89.95875,35.52384],[-89.95264,35.52154],[-89.9351,35.51547],[-89.92889,35.51237],[-89.92437,35.5113],[-89.9185,35.51138],[-89.91192,35.51284],[-89.90893,35.51424],[-89.90464,35.51935],[-89.90238,35.52504],[-89.90231,35.53023],[-89.9044,35.53589],[-89.90679,35.53747],[-89.9097,35.53795],[-89.91195,35.53593],[-89.91318,35.53673],[-89.9098,35.54371],[-89.91068,35.54745],[-89.91288,35.54909],[-89.91619,35.54987],[-89.91932,35.54983],[-89.92414,35.55056],[-89.9291,35.55154],[-89.942,35.5569],[-89.94691,35.56358],[-89.95419,35.57583],[-89.95669,35.58143],[-89.95787,35.58489],[-89.9579,35.58726],[-89.95659,35.59062],[-89.95391,35.5943],[-89.95115,35.59749],[-89.9454,35.60161],[-89.93249,35.60801],[-89.91962,35.61224],[-89.91128,35.61759],[-89.9105,35.61758],[-89.905,35.61602],[-89.89979,35.61506],[-89.89445,35.6152],[-89.89026,35.61642],[-89.87407,35.62662],[-89.87285,35.62776],[-89.86387,35.63079],[-89.85662,35.63444],[-89.85389,35.63826],[-89.85183,35.64426],[-89.85086,35.65021],[-89.85118,35.65743],[-89.85327,35.66226],[-89.85857,35.66893],[-89.8622,35.67042],[-89.86689,35.6702],[-89.87645,35.66673],[-89.87853,35.66482],[-89.88207,35.65854],[-89.88364,35.6563],[-89.88698,35.65364],[-89.89051,35.65241],[-89.89892,35.6509],[-89.90615,35.65114],[-89.91929,35.6553],[-89.92735,35.65946],[-89.93447,35.66494],[-89.93927,35.67094],[-89.94033,35.67341],[-89.95038,35.68275],[-89.95566,35.69009],[-89.95672,35.69428],[-89.95707,35.71181],[-89.95888,35.72305],[-89.95834,35.72656],[-89.95377,35.731],[-89.9447,35.73543],[-89.94029,35.73909],[-89.93827,35.74393],[-89.91549,35.75492],[-89.91198,35.75831],[-89.9062,35.75894],[-89.90246,35.75507],[-89.89411,35.75084],[-89.88907,35.75106],[-89.87101,35.75622],[-89.86306,35.75713],[-89.85236,35.75543],[-89.85047,35.74685],[-89.84675,35.74413],[-89.83896,35.74214],[-89.82545,35.74519],[-89.81686,35.74869],[-89.80073,35.75715],[-89.79895,35.75936],[-89.79954,35.77378],[-89.79727,35.77912],[-89.79692,35.78137],[-89.79957,35.78833],[-89.79632,35.79281],[-89.78166,35.80523],[-89.76536,35.80961],[-89.76539,35.81121],[-89.75843,35.81044],[-89.74262,35.80591],[-89.73738,35.80582],[-89.73427,35.80336],[-89.73025,35.80247],[-89.72817,35.8027],[-89.71615,35.80793],[-89.70132,35.81687],[-89.6965,35.82058],[-89.69398,35.82521],[-89.6935,35.83173],[-89.69471,35.83477],[-89.69741,35.83668],[-89.7122,35.84249],[-89.72369,35.84609],[-89.74942,35.85296],[-89.76211,35.85717],[-89.76852,35.86053],[-89.77247,35.8651],[-89.77386,35.86766],[-89.77427,35.87082],[-89.77362,35.87571],[-89.77167,35.88368],[-89.76724,35.89085],[-89.75168,35.90464],[-89.74828,35.90825],[-89.74313,35.91118],[-89.73333,35.91192],[-89.72779,35.91124],[-89.71493,35.90625],[-89.70089,35.89577],[-89.69323,35.89072],[-89.67638,35.8767],[-89.66908,35.87451],[-89.66328,35.8747],[-89.65792,35.87674],[-89.64996,35.88178],[-89.64562,35.88583],[-89.64359,35.88974],[-89.64205,35.89557],[-89.641,35.90699],[-89.64265,35.91591],[-89.64431,35.92094],[-89.65027,35.92766],[-89.65403,35.93018],[-89.66478,35.93474],[-89.66966,35.93769],[-89.67548,35.94159],[-89.69591,35.95073],[-89.71401,35.95981],[-89.7185,35.96312],[-89.72168,35.96767],[-89.72403,35.9808],[-89.72292,35.98906],[-89.72749,35.9928],[-89.7311,35.99662],[-89.73306,36.00081],[-89.70693,36.00098],[-89.70568,36.00502],[-89.70357,36.00804],[-89.69244,36.02051],[-89.68858,36.02924],[-89.68725,36.03405],[-89.68444,36.05172],[-89.68195,36.07234],[-89.68003,36.08249],[-89.67882,36.08464],[-89.67246,36.09184],[-89.6666,36.0958],[-89.65771,36.09913],[-89.64302,36.10362],[-89.6283,36.10685],[-89.62508,36.10813],[-89.61513,36.11382],[-89.60194,36.11947],[-89.59895,36.12178],[-89.594,36.12719],[-89.59307,36.1297],[-89.5921,36.13564],[-89.59161,36.1441],[-89.59221,36.15012],[-89.5944,36.15546],[-89.60087,36.16456],[-89.607,36.17118],[-89.61823,36.17997],[-89.6238,36.18313],[-89.62945,36.18538],[-89.63689,36.18895],[-89.64479,36.1941],[-89.65488,36.20153],[-89.66414,36.20652],[-89.67955,36.21591],[-89.69263,36.22496],[-89.69968,36.23082],[-89.70446,36.23547],[-89.70525,36.23657],[-89.70555,36.23814],[-89.70533,36.2399],[-89.70351,36.24341],[-89.69982,36.24838],[-89.69857,36.25059],[-89.69523,36.25277],[-89.69131,36.25208],[-89.68623,36.24951],[-89.67805,36.24828],[-89.65252,36.25069],[-89.64218,36.24949],[-89.63679,36.24808],[-89.62442,36.2433],[-89.61114,36.23927],[-89.60651,36.23833],[-89.60237,36.23811],[-89.58733,36.23948],[-89.57754,36.24226],[-89.57393,36.24384],[-89.565,36.25007],[-89.56221,36.25091],[-89.55799,36.25104],[-89.55356,36.25034],[-89.54895,36.2482],[-89.54474,36.24748],[-89.54162,36.24789],[-89.53923,36.24882],[-89.53475,36.25258],[-89.53451,36.2618],[-89.53553,36.27054],[-89.53767,36.27528],[-89.53949,36.27737],[-89.5448,36.28046],[-89.54658,36.28044],[-89.54922,36.27875],[-89.55429,36.27775],[-89.57849,36.28832],[-89.58434,36.29334],[-89.58982,36.29681],[-89.61182,36.30909],[-89.61924,36.32073],[-89.62026,36.32301],[-89.6198,36.32955],[-89.61584,36.33608],[-89.61069,36.34044],[-89.60567,36.34223],[-89.60054,36.34298],[-89.58164,36.34236],[-89.56044,36.33775],[-89.54501,36.33681],[-89.53808,36.3375],[-89.53182,36.33925],[-89.52703,36.34168],[-89.52269,36.34479],[-89.519,36.3486],[-89.51318,36.3599],[-89.50972,36.37363],[-89.50956,36.37506],[-89.51038,36.37836],[-89.51396,36.38489],[-89.52529,36.40045],[-89.54234,36.4201],[-89.54422,36.42368],[-89.54525,36.42708],[-89.5455,36.4307],[-89.54506,36.43491],[-89.54341,36.43877],[-89.54087,36.44156],[-89.52727,36.45155],[-89.52519,36.45399],[-89.52343,36.45657],[-89.52102,36.46193],[-89.51972,36.467],[-89.5195,36.47542],[-89.52064,36.47867],[-89.52267,36.4813],[-89.53452,36.49143],[-89.53923,36.49793],[-89.49804,36.49789],[-89.49254,36.49777],[-89.48543,36.49749],[-89.48671,36.49495],[-89.49349,36.4787],[-89.49425,36.47597],[-89.49407,36.47322],[-89.4932,36.47012],[-89.49067,36.46553],[-89.48622,36.46162],[-89.47653,36.45785],[-89.47172,36.457],[-89.46415,36.45719],[-89.46044,36.45814],[-89.45308,36.46128],[-89.44847,36.46442],[-89.43676,36.47443],[-89.42931,36.48188],[-89.42294,36.48938],[-89.41977,36.4939],[-89.41728,36.49901],[-89.40391,36.49914],[-89.39104,36.49908],[-89.38179,36.50006],[-89.38008,36.50042],[-89.35659,36.5022],[-89.34605,36.50321],[-89.30028,36.50715],[-89.2823,36.50678],[-89.27909,36.50651],[-89.21141,36.50563],[-89.16343,36.50453],[-89.11754,36.5036],[-89.07212,36.50325],[-89.05887,36.50316],[-89.03465,36.50296],[-89.01044,36.50271],[-89.00006,36.50263],[-88.96447,36.50219],[-88.89951,36.50222],[-88.88456,36.5017],[-88.87472,36.50245],[-88.83463,36.50291],[-88.82701,36.50285],[-88.79959,36.50276],[-88.74752,36.50283],[-88.71525,36.50266],[-88.66113,36.50224],[-88.57728,36.50194],[-88.54519,36.50181],[-88.51643,36.50143],[-88.51227,36.50151],[-88.51192,36.50146],[-88.48921,36.50107],[-88.47256,36.50103],[-88.45254,36.50087],[-88.45016,36.5011],[-88.41636,36.50076],[-88.3308,36.50053],[-88.32079,36.50043],[-88.12738,36.49854],[-88.05321,36.49713],[-88.05047,36.50005],[-88.0453,36.50408],[-88.03948,36.51041],[-88.03782,36.51385],[-88.03733,36.51783],[-88.03783,36.52101],[-88.03727,36.52378],[-88.03585,36.52591],[-88.03413,36.53112],[-88.03249,36.54066],[-88.0338,36.55173],[-88.03562,36.56174],[-88.03963,36.57278],[-88.0412,36.58412],[-88.04513,36.60294],[-88.05574,36.63047],[-88.0556,36.63571],[-88.05704,36.64054],[-88.05858,36.64332],[-88.0644,36.65085],[-88.06821,36.65975],[-88.07053,36.67812],[-88.04477,36.67798],[-88.01179,36.67703],[-87.87206,36.66509],[-87.84957,36.6637],[-87.8532,36.63325],[-87.74477,36.63615],[-87.64115,36.63804],[-87.56493,36.63911],[-87.56305,36.63911],[-87.43651,36.64075],[-87.42501,36.64105],[-87.41431,36.64105],[-87.3478,36.64144],[-87.34413,36.64151],[-87.28151,36.64176],[-87.2784,36.64172],[-87.24765,36.64184],[-87.23053,36.64189],[-87.11498,36.64241],[-87.01152,36.64395],[-86.90658,36.64625],[-86.90602,36.6463],[-86.85427,36.64688],[-86.83316,36.64721],[-86.8184,36.64764],[-86.81619,36.64772],[-86.81304,36.64765],[-86.75892,36.64902],[-86.71379,36.64934],[-86.60639,36.65211],[-86.60504,36.65212],[-86.58991,36.65249],[-86.56414,36.63347],[-86.55129,36.63799],[-86.55005,36.64482],[-86.54339,36.64389],[-86.54378,36.64054],[-86.50777,36.65245],[-86.4735,36.65167],[-86.47219,36.65176],[-86.4685,36.65184],[-86.37499,36.6498],[-86.37378,36.65013],[-86.35907,36.64984],[-86.33305,36.64878],[-86.29336,36.64536],[-86.22215,36.64089],[-86.21908,36.64082],[-86.21618,36.64053],[-86.20486,36.63974],[-86.19757,36.63936],[-86.08194,36.63385],[-86.08067,36.63394],[-86.03837,36.6308],[-86.03277,36.63037],[-85.95998,36.62812],[-85.87386,36.62364],[-85.83217,36.62205],[-85.80149,36.62242],[-85.78865,36.62185],[-85.73186,36.62043],[-85.67779,36.61816],[-85.55202,36.61578],[-85.55148,36.61573],[-85.48835,36.61499],[-85.43012,36.61895],[-85.33412,36.62295],[-85.32465,36.62455],[-85.3004,36.62444],[-85.29607,36.62582],[-85.29063,36.62645],[-85.27629,36.62651],[-85.19537,36.6255],[-85.09613,36.62248],[-85.08642,36.62191],[-85.02463,36.61935],[-84.98645,36.61667],[-84.94395,36.61257],[-84.85974,36.6065],[-84.85976,36.60643],[-84.84309,36.60513],[-84.80374,36.60426],[-84.78534,36.60337],[-84.62494,36.59958],[-84.54314,36.59628],[-84.49994,36.59668],[-84.44284,36.59608],[-84.27118,36.59188],[-84.26133,36.59198],[-84.22733,36.59218],[-84.1275,36.59141],[-83.98784,36.5896],[-83.89442,36.58648],[-83.78902,36.58388],[-83.69071,36.58258],[-83.68881,36.58438],[-83.68751,36.58718],[-83.68301,36.59218],[-83.67951,36.59408],[-83.67711,36.59658],[-83.67561,36.59858],[-83.67539,36.60078]]]}}]}